event.ev_sourcedb.shortname,event.addsourcedb.shortname,event.unid,event.datetime,event.name,event.country.iso2,event.country.name,event.latitude,event.longitude,event.focaldepth,event.strike1,event.dip1,event.slip1,event.strike2,event.dip2,event.slip2,event.fault_mechanism.name,event.fault_rupture_length,event.fault_rupture_width,event.fault_rupture_depth,event.p_axes_az,event.p_axes_plg,event.t_axes_az,event.t_axes_plg,event.pref_mag,event.pref_mag_type,event.magnitudes/0.magtype,event.magnitudes/0.value,event.magnitudes/1.magtype,event.magnitudes/1.value,event.magnitudes/2.magtype,event.magnitudes/2.value,event.magnitudes/3.magtype,event.magnitudes/3.value,event.magnitudes/4.magtype,event.magnitudes/4.value,station.oid,station.sourceid,station.sourcedb.shortname,station.name,station.code,station.deployment.fdsn_code,station.deployment.issr_code,station.deployment.name,station.country.iso2,station.country.name,station.latitude,station.longitude,station.altitude,station.vs30,station.vs30_measured,station.vs30_measured_type,station.ec8,station.ec8_sourcedb.shortname,station.site_type.name,station.building_struct.name,station.number_of_floor,station.installed_on_floor,station.agency.name,waveform_sourceid,distance_flag,distance_repi,distance_rhyp,distance_rjb,distance_rrup,sensor,digitalizer,recording_type,instrument_correction,up4horiz_components,comp_ordered()/0.orientation,comp_ordered()/0.channel,comp_ordered()/0.channel_order,comp_ordered()/0.baseline_correction,comp_ordered()/0.filter_type,comp_ordered()/0.filter_order,comp_ordered()/0.filter_number_of_passes,comp_ordered()/0.nroll,comp_ordered()/0.low_cut_freq,comp_ordered()/0.high_cut_freq,comp_ordered()/0.proc_pga,comp_ordered()/0.pga,comp_ordered()/0.pgv,comp_ordered()/0.pgd,comp_ordered()/0.process_flag,comp_ordered()/1.orientation,comp_ordered()/1.channel,comp_ordered()/1.channel_order,comp_ordered()/1.baseline_correction,comp_ordered()/1.filter_type,comp_ordered()/1.filter_order,comp_ordered()/1.filter_number_of_passes,comp_ordered()/1.nroll,comp_ordered()/1.low_cut_freq,comp_ordered()/1.high_cut_freq,comp_ordered()/1.proc_pga,comp_ordered()/1.pga,comp_ordered()/1.pgv,comp_ordered()/1.pgd,comp_ordered()/1.process_flag,comp_ordered()/2.orientation,comp_ordered()/2.channel,comp_ordered()/2.channel_order,comp_ordered()/2.baseline_correction,comp_ordered()/2.filter_type,comp_ordered()/2.filter_order,comp_ordered()/2.filter_number_of_passes,comp_ordered()/2.nroll,comp_ordered()/2.low_cut_freq,comp_ordered()/2.high_cut_freq,comp_ordered()/2.proc_pga,comp_ordered()/2.pga,comp_ordered()/2.pgv,comp_ordered()/2.pgd,comp_ordered()/2.process_flag
ITACA,,20090406_0000075,2009-04-06 01:32:39,L Aquila Mainshock,IT,Italy,42.334000,13.334000,8.8,127,50,-109,,,,Normal,,,,332.93,75.17,230.33,3.30,6.3,Mw,Ml,5.8,Mw,6.3,,,,,,,3660,CSS,ITACA,Cassino,CSS,,,DPC (Italian Civil Protection Authority),IT,Italy,41.485790,13.823090,174.0,630.000,0,MASW,,ITACA,,,,,,16853,0,103.0,103.0,91.0,,,,Digital,,12.857,NS,H1,1,Zeroth Order Baseline Correction,Acausal Butterworth (Bandpass),4-pole/4-pole,2,2,0.07,35.0,,0.094423,0.0140575374,,P,WE,H2,2,Zeroth Order Baseline Correction,Acausal Butterworth (Bandpass),4-pole/4-pole,2,2,0.07,30.0,,0.083272,0.0163535907,,P,UP,V,3,Zeroth Order Baseline Correction,Acausal Butterworth (Bandpass),4-pole/4-pole,2,2,0.07,25.0,,0.028533,0.00772293379,,P
