event_id;event_time;ISC_ev_id;USGS_ev_id;INGV_ev_id;EMSC_ev_id;ev_nation_code;ev_latitude;ev_longitude;ev_depth_km;ev_hyp_ref;fm_type_code;ML;ML_ref;Mw;Mw_ref;Ms;Ms_ref;EMEC_Mw;EMEC_Mw_type;EMEC_Mw_ref;event_source_id;es_strike;es_dip;es_rake;es_strike_dip_rake_ref;es_z_top;es_z_top_ref;es_length;es_width;es_geometry_ref;network_code;station_code;location_code;instrument_code;sensor_depth_m;proximity_code;housing_code;installation_code;st_nation_code;st_latitude;st_longitude;st_elevation;ec8_code;ec8_code_method;ec8_code_ref;vs30_m_sec;vs30_ref;vs30_calc_method;vs30_meas_type;slope_deg;vs30_m_sec_WA;epi_dist;epi_az;JB_dist;rup_dist;Rx_dist;Ry0_dist;instrument_type_code;late_triggered_flag_01;U_channel_code;U_azimuth_deg;V_channel_code;V_azimuth_deg;W_channel_code;U_hp;V_hp;W_hp;U_lp;V_lp;W_lp;U_pga;V_pga;W_pga;rotD50_pga;rotD100_pga;rotD00_pga;U_pgv;V_pgv;W_pgv;rotD50_pgv;rotD100_pgv;rotD00_pgv;U_pgd;V_pgd;W_pgd;rotD50_pgd;rotD100_pgd;rotD00_pgd;U_T90;V_T90;W_T90;rotD50_T90;rotD100_T90;rotD00_T90;U_housner;V_housner;W_housner;rotD50_housner;rotD100_housner;rotD00_housner;U_CAV;V_CAV;W_CAV;rotD50_CAV;rotD100_CAV;rotD00_CAV;U_ia;V_ia;W_ia;rotD50_ia;rotD100_ia;rotD00_ia;U_T0_010;U_T0_025;U_T0_040;U_T0_050;U_T0_070;U_T0_100;U_T0_150;U_T0_200;U_T0_250;U_T0_300;U_T0_350;U_T0_400;U_T0_450;U_T0_500;U_T0_600;U_T0_700;U_T0_750;U_T0_800;U_T0_900;U_T1_000;U_T1_200;U_T1_400;U_T1_600;U_T1_800;U_T2_000;U_T2_500;U_T3_000;U_T3_500;U_T4_000;U_T4_500;U_T5_000;U_T6_000;U_T7_000;U_T8_000;U_T9_000;U_T10_000;V_T0_010;V_T0_025;V_T0_040;V_T0_050;V_T0_070;V_T0_100;V_T0_150;V_T0_200;V_T0_250;V_T0_300;V_T0_350;V_T0_400;V_T0_450;V_T0_500;V_T0_600;V_T0_700;V_T0_750;V_T0_800;V_T0_900;V_T1_000;V_T1_200;V_T1_400;V_T1_600;V_T1_800;V_T2_000;V_T2_500;V_T3_000;V_T3_500;V_T4_000;V_T4_500;V_T5_000;V_T6_000;V_T7_000;V_T8_000;V_T9_000;V_T10_000;W_T0_010;W_T0_025;W_T0_040;W_T0_050;W_T0_070;W_T0_100;W_T0_150;W_T0_200;W_T0_250;W_T0_300;W_T0_350;W_T0_400;W_T0_450;W_T0_500;W_T0_600;W_T0_700;W_T0_750;W_T0_800;W_T0_900;W_T1_000;W_T1_200;W_T1_400;W_T1_600;W_T1_800;W_T2_000;W_T2_500;W_T3_000;W_T3_500;W_T4_000;W_T4_500;W_T5_000;W_T6_000;W_T7_000;W_T8_000;W_T9_000;W_T10_000;rotD50_T0_010;rotD50_T0_025;rotD50_T0_040;rotD50_T0_050;rotD50_T0_070;rotD50_T0_100;rotD50_T0_150;rotD50_T0_200;rotD50_T0_250;rotD50_T0_300;rotD50_T0_350;rotD50_T0_400;rotD50_T0_450;rotD50_T0_500;rotD50_T0_600;rotD50_T0_700;rotD50_T0_750;rotD50_T0_800;rotD50_T0_900;rotD50_T1_000;rotD50_T1_200;rotD50_T1_400;rotD50_T1_600;rotD50_T1_800;rotD50_T2_000;rotD50_T2_500;rotD50_T3_000;rotD50_T3_500;rotD50_T4_000;rotD50_T4_500;rotD50_T5_000;rotD50_T6_000;rotD50_T7_000;rotD50_T8_000;rotD50_T9_000;rotD50_T10_000;rotD100_T0_010;rotD100_T0_025;rotD100_T0_040;rotD100_T0_050;rotD100_T0_070;rotD100_T0_100;rotD100_T0_150;rotD100_T0_200;rotD100_T0_250;rotD100_T0_300;rotD100_T0_350;rotD100_T0_400;rotD100_T0_450;rotD100_T0_500;rotD100_T0_600;rotD100_T0_700;rotD100_T0_750;rotD100_T0_800;rotD100_T0_900;rotD100_T1_000;rotD100_T1_200;rotD100_T1_400;rotD100_T1_600;rotD100_T1_800;rotD100_T2_000;rotD100_T2_500;rotD100_T3_000;rotD100_T3_500;rotD100_T4_000;rotD100_T4_500;rotD100_T5_000;rotD100_T6_000;rotD100_T7_000;rotD100_T8_000;rotD100_T9_000;rotD100_T10_000;rotD00_T0_010;rotD00_T0_025;rotD00_T0_040;rotD00_T0_050;rotD00_T0_070;rotD00_T0_100;rotD00_T0_150;rotD00_T0_200;rotD00_T0_250;rotD00_T0_300;rotD00_T0_350;rotD00_T0_400;rotD00_T0_450;rotD00_T0_500;rotD00_T0_600;rotD00_T0_700;rotD00_T0_750;rotD00_T0_800;rotD00_T0_900;rotD00_T1_000;rotD00_T1_200;rotD00_T1_400;rotD00_T1_600;rotD00_T1_800;rotD00_T2_000;rotD00_T2_500;rotD00_T3_000;rotD00_T3_500;rotD00_T4_000;rotD00_T4_500;rotD00_T5_000;rotD00_T6_000;rotD00_T7_000;rotD00_T8_000;rotD00_T9_000;rotD00_T10_000
AL-2016-0004;2016-10-16 02:18:44;;us20007fuy;;;GR;39.752;20.696;14.6;ISC-webservice;U;4;ISC-webservice;4;ISC-webservice;;;;;;;;;;;;;;;;AC;FIER;0;HN;;3;BUI;BF;AL;40.7174;19.5669;;B;VS30;Vs30_ref;374;IGEWE;0;MASW;2.06929;433.659784;144;137.8;;;;;D;0;E;90;N;0;Z;0.2;0.2;0.2;25;25;25;0.114548;-0.113599;-0.056743;0.11779;0.13931;0.111544;-0.006721;-0.006967;-0.004036;0.008248115;0.00922995;0.00651938;-0.001087;-0.000942;0.000583;0.0009601285;0.00109936;0.000879443;33.465;33.645;46.83;33.4875;35.795;30.815;0.0298019;0.0302399;0.0159919;0.03002085;0.0330841;0.0264309;1.1181254547;1.00845681523;0.609996384988;1.06479662735;1.15335375067;0.960870314855;5.61858241873E-05;4.55158430368E-05;1.31603192235E-05;5.08508336285E-05;5.89580708142E-05;4.2743625428E-05;0.114548;0.115142;0.117926;0.121672;0.148069;0.1802;0.226792;0.414898;0.402295;0.528648;0.419313;0.404035;0.305001;0.325596;0.179904;0.172706;0.144109;0.135113;0.102464;0.078704;0.076344;0.050313;0.039554;0.028452;0.021522;0.015454;0.014012;0.007682;0.006422;0.003235;0.002256;0.001539;0.001023;0.000858;0.000717;0.000603;0.113821;0.11483;0.116462;0.118053;0.129958;0.155752;0.288737;0.388606;0.355865;0.387873;0.37817;0.317994;0.347585;0.341047;0.270052;0.136806;0.143698;0.116756;0.095493;0.075804;0.056816;0.06091;0.043012;0.024526;0.01992;0.018405;0.008235;0.006565;0.004206;0.002849;0.002123;0.001537;0.001002;0.000826;0.000658;0.00057;0.05676;0.058325;0.061015;0.073648;0.080894;0.128295;0.107482;0.111135;0.136218;0.180292;0.190151;0.154183;0.147281;0.117601;0.144077;0.085071;0.078623;0.06904;0.058251;0.051126;0.032869;0.029618;0.024004;0.017654;0.017808;0.005853;0.006829;0.003859;0.002244;0.001608;0.001526;0.000967;0.000585;0.000514;0.000396;0.000353;0.117853;0.119117;0.121537;0.12447;0.1474115;0.174413;0.271781;0.3893895;0.365122;0.413331;0.4189885;0.3635845;0.3100845;0.339409;0.221911;0.1612165;0.1428765;0.1277145;0.1010545;0.0779185;0.0666155;0.0582565;0.039009;0.025265;0.019733;0.015379;0.011301;0.0069575;0.005013;0.003211;0.0022805;0.0015255;0.001154;0.0008835;0.000733;0.0006265;0.139482;0.140738;0.144976;0.152771;0.17362;0.182534;0.31652;0.437462;0.422812;0.584538;0.457993;0.429659;0.377447;0.370586;0.281352;0.198905;0.153599;0.141302;0.132313;0.087159;0.09145;0.06597;0.04476;0.028819;0.02383;0.01871;0.014121;0.007695;0.006425;0.003489;0.002576;0.001622;0.001248;0.000929;0.000783;0.000694;0.111554;0.112552;0.115164;0.117127;0.129958;0.149702;0.226391;0.321135;0.302182;0.364126;0.307107;0.227921;0.26132;0.256024;0.174965;0.136806;0.126342;0.109117;0.077864;0.058897;0.052995;0.042048;0.033741;0.02291;0.016344;0.01261;0.008237;0.005172;0.003898;0.002815;0.002056;0.001373;0.000958;0.000779;0.000631;0.000559
AL-2016-0004;2016-10-16 02:18:44;;us20007fuy;;;GR;39.752;20.696;14.6;ISC-webservice;U;4;ISC-webservice;4;ISC-webservice;;;;;;;;;;;;;;;;AC;KBN;0;HN;;3;BUI;P;AL;40.6232;20.7874;991;B;VS30;Vs30_ref;742;IGEWE;0;MASW;1.972256;426.771071;97;184.6;;;;;D;0;E;90;N;0;Z;0.2;0.2;0.2;25;25;25;-0.05073;0.055476;0.03328;0.0496455;0.055518;0.043724;-0.003488;-0.004215;-0.002045;0.00387254;0.00447959;0.00323155;-0.000467;0.000488;0.000466;0.000542808;0.000594916;0.000442821;36.14;32.33;40.75;34.3775;36.975;31.965;0.014313;0.0158952;0.0116608;0.0152805;0.015968;0.0139089;0.387971035062;0.430081884796;0.316269380026;0.406193742586;0.435203894815;0.379060559866;6.81039777438E-06;8.79677508722E-06;4.26620568437E-06;7.80358861917E-06;9.12092516652E-06;6.48624247622E-06;0.050745;0.05112;0.051902;0.051371;0.053524;0.068206;0.08762;0.103926;0.121053;0.223913;0.201814;0.112578;0.094029;0.106375;0.073453;0.069574;0.06798;0.065259;0.042881;0.045311;0.037996;0.03118;0.020416;0.017831;0.012664;0.010795;0.005524;0.003252;0.001864;0.00145;0.001195;0.000759;0.000569;0.000428;0.000353;0.000286;0.0555;0.056127;0.056986;0.056968;0.056935;0.069213;0.085483;0.104382;0.120467;0.129628;0.18153;0.250112;0.172745;0.162034;0.153582;0.105111;0.072678;0.065657;0.046555;0.034459;0.030046;0.024526;0.021058;0.018731;0.017785;0.008309;0.003709;0.002158;0.001652;0.001511;0.00112;0.000741;0.000653;0.000508;0.000357;0.000312;0.033358;0.033954;0.036249;0.036184;0.041122;0.067458;0.088945;0.10303;0.088097;0.098862;0.112833;0.09283;0.11639;0.087962;0.072795;0.043895;0.051438;0.053267;0.044183;0.039987;0.034625;0.024663;0.017579;0.017934;0.01216;0.007509;0.004227;0.002999;0.001964;0.00165;0.001101;0.000624;0.000511;0.000326;0.000315;0.000309;0.0496645;0.0499765;0.0505805;0.0505695;0.054849;0.065705;0.080915;0.1034885;0.119856;0.1808665;0.190621;0.1810625;0.145613;0.141455;0.109402;0.0837345;0.069243;0.0642125;0.0438225;0.041013;0.034237;0.0286915;0.022176;0.018623;0.014623;0.009459;0.0048845;0.002678;0.001851;0.001495;0.0011345;0.0007685;0.0006145;0.000444;0.0003865;0.000307;0.055578;0.056184;0.057214;0.057133;0.057017;0.071896;0.088323;0.116338;0.135207;0.226297;0.222956;0.250112;0.177702;0.162034;0.153758;0.106233;0.073962;0.066428;0.050122;0.045311;0.038079;0.031393;0.02489;0.021628;0.019283;0.012388;0.005573;0.003302;0.002175;0.001727;0.001238;0.000823;0.000659;0.000508;0.000409;0.000331;0.043725;0.044098;0.045092;0.045814;0.048757;0.056289;0.067344;0.0964;0.100877;0.112049;0.116299;0.112578;0.092613;0.08865;0.067511;0.053656;0.057069;0.048005;0.037686;0.034083;0.029465;0.02038;0.018901;0.017439;0.011385;0.007154;0.003435;0.002051;0.001617;0.00135;0.00101;0.000694;0.000528;0.000406;0.000337;0.000285
AL-2016-0004;2016-10-16 02:18:44;;us20007fuy;;;GR;39.752;20.696;14.6;ISC-webservice;U;4;ISC-webservice;4;ISC-webservice;;;;;;;;;;;;;;;;AC;POGR;0;HN;;3;BUI;BF;AL;40.8996;20.679;;C;VS30;Vs30_ref;352;IGEWE;0;MASW;1.831495;416.779587;127.4;179.3;;;;;D;0;E;90;N;0;Z;0.25;0.25;0.25;25;25;25;0.185598;-0.290449;-0.140822;0.224754;0.302188;0.165389;0.018594;-0.023086;-0.012743;0.0186626;0.0242532;0.0149857;0.002158;0.002609;0.001902;0.002182755;0.00292492;0.00193025;37.425;33.015;40.325;35.5725;40.415;31.24;0.0697402;0.0794411;0.0527098;0.07366385;0.0794412;0.0697067;1.74039723435;1.87493151557;1.26192100569;1.81585677711;1.90720853479;1.7160595953;0.000135407535186;0.000161244607711;6.90625078767E-05;0.000148326057398;0.000163842075955;0.000132810028171;0.185741;0.186632;0.190116;0.190181;0.200099;0.201227;0.275623;0.296814;0.439779;0.619562;0.509216;0.652202;0.69203;0.670948;0.674648;0.50238;0.497014;0.353646;0.241414;0.239004;0.15649;0.161303;0.111011;0.075958;0.052635;0.024847;0.012271;0.009028;0.006764;0.005787;0.004386;0.003166;0.002392;0.001976;0.00179;0.00149;0.290786;0.292122;0.296667;0.293886;0.303747;0.311145;0.33786;0.387914;0.668274;0.882482;0.861934;1.04299;0.759635;0.587427;0.613979;0.482813;0.449914;0.380801;0.400623;0.275672;0.137626;0.149481;0.131594;0.107511;0.062424;0.025954;0.018474;0.012582;0.008196;0.007068;0.005642;0.003893;0.002901;0.002362;0.001975;0.001679;0.14094;0.141111;0.141821;0.147127;0.144668;0.162607;0.152123;0.183718;0.276874;0.310869;0.42786;0.438708;0.406809;0.32692;0.510445;0.529538;0.575727;0.560025;0.431694;0.273931;0.119137;0.065425;0.044483;0.030106;0.020969;0.0143;0.009346;0.006667;0.006029;0.004464;0.003588;0.003107;0.002106;0.001676;0.001401;0.001156;0.2248215;0.225642;0.226078;0.229611;0.2307965;0.2419105;0.294122;0.3191655;0.49468;0.6718635;0.702299;0.824379;0.7134305;0.6442535;0.6099615;0.4959705;0.4754335;0.3565835;0.358098;0.244581;0.161246;0.148154;0.117034;0.0911295;0.0588055;0.0246435;0.015253;0.01017;0.008014;0.005926;0.00445;0.0031685;0.0024;0.0019715;0.001778;0.001477;0.302436;0.303554;0.308961;0.306482;0.316429;0.332289;0.339106;0.412856;0.66833;0.892711;0.896223;1.04729;0.845285;0.700097;0.684172;0.557449;0.521518;0.404059;0.412775;0.303273;0.174882;0.161378;0.131594;0.116856;0.072102;0.026549;0.019052;0.01258;0.008399;0.007728;0.006193;0.004204;0.003165;0.002525;0.002141;0.001842;0.165502;0.166538;0.170239;0.169762;0.181528;0.188959;0.219062;0.272778;0.350639;0.493874;0.463953;0.521567;0.594252;0.521125;0.502578;0.326379;0.281107;0.316374;0.233775;0.225519;0.135869;0.138022;0.10105;0.071256;0.046865;0.020155;0.012064;0.008671;0.006311;0.00527;0.004028;0.002745;0.002051;0.001618;0.001398;0.001147
AL-2016-0004;2016-10-16 02:18:44;;us20007fuy;;;GR;39.752;20.696;14.6;ISC-webservice;U;4;ISC-webservice;4;ISC-webservice;;;;;;;;;;;;;;;;AC;TPE;0;HN;;3;BUI;BF;AL;40.2948;20.0155;367;B;VS30;Vs30_ref;686;IGEWE;0;MASW;12.052644;866.001371;83.7;135.8;;;;;D;0;E;90;N;0;Z;0.2;0.2;0.2;25;25;25;-0.279421;0.255362;-0.151762;0.2725645;0.289471;0.234159;-0.00918;-0.010064;-0.006429;0.009554625;0.0102235;0.00885377;0.001122;-0.001102;-0.000699;0.001122235;0.0013649;0.000915538;24.13;24.9;26.795;24.88;26.135;23.92;0.0383392;0.0350253;0.0246523;0.03766515;0.038906;0.0344729;1.49714350455;1.41468345;0.840393479803;1.4498925272;1.50184310485;1.40963430554;0.000143227138646;0.000126396694899;4.1699881252E-05;0.000134811917806;0.00014605318092;0.000123570671902;0.279428;0.291821;0.319595;0.336199;0.575096;1.21202;0.586455;0.679532;0.525842;0.490499;0.409385;0.556538;0.370529;0.303929;0.269906;0.16778;0.165086;0.153552;0.161654;0.158082;0.095656;0.052083;0.049813;0.037578;0.025124;0.014781;0.008633;0.005326;0.003649;0.003333;0.002436;0.001636;0.00126;0.00101;0.000824;0.000716;0.255568;0.265474;0.285606;0.332233;0.506054;1.03371;0.45391;0.37953;0.496073;0.484082;0.595347;0.486145;0.223038;0.260747;0.176852;0.164418;0.19315;0.189976;0.121981;0.107403;0.087526;0.087549;0.04014;0.031529;0.025307;0.014163;0.009387;0.006255;0.004316;0.003973;0.002434;0.001537;0.001288;0.001074;0.000859;0.000755;0.151942;0.157992;0.184802;0.218549;0.252462;0.456685;0.33771;0.317658;0.268454;0.366097;0.350345;0.239498;0.177031;0.183151;0.214416;0.175079;0.139952;0.114427;0.116132;0.080511;0.058553;0.040687;0.022633;0.020641;0.021318;0.011044;0.005619;0.003651;0.002732;0.001828;0.00146;0.001246;0.000927;0.000707;0.000621;0.000544;0.273151;0.284228;0.308803;0.371973;0.541644;1.14717;0.5194775;0.5095;0.5053205;0.4798165;0.494263;0.5153565;0.3192965;0.2735775;0.242593;0.1881485;0.1740425;0.1635925;0.1650735;0.1310325;0.0962805;0.066635;0.046848;0.033534;0.0252195;0.014832;0.009063;0.005492;0.0039185;0.003488;0.002431;0.001684;0.0012665;0.001037;0.0008595;0.000752;0.29068;0.303352;0.33312;0.396796;0.724279;1.22325;0.596644;0.708927;0.625573;0.50278;0.653464;0.602588;0.422216;0.334469;0.305225;0.200391;0.206714;0.196284;0.187666;0.160954;0.112866;0.091583;0.056175;0.044707;0.034967;0.01896;0.010009;0.007713;0.005245;0.004026;0.002958;0.001951;0.001476;0.001173;0.00094;0.000831;0.234399;0.243285;0.261011;0.308165;0.425812;0.975322;0.413097;0.364224;0.395027;0.419815;0.370358;0.370184;0.223038;0.19436;0.14558;0.153558;0.146325;0.130785;0.11109;0.107021;0.08368;0.052083;0.032121;0.021996;0.015762;0.009278;0.006979;0.004358;0.003473;0.003004;0.00223;0.001511;0.001087;0.000931;0.000762;0.000665
AL-2016-0004;2016-10-16 02:18:44;;us20007fuy;;;GR;39.752;20.696;14.6;ISC-webservice;U;4;ISC-webservice;4;ISC-webservice;;;;;;;;;;;;;;;;AC;VLO;0;HN;0;3;BUI;P;AL;40.4704;19.4965;159;B;VS30;Vs30_ref;375;IGEWE;0;MASW;11.051286;839.748438;129.7;127.6;;;;;D;0;E;90;N;0;Z;0.2;0.2;0.2;30;30;30;-0.284495;0.263389;0.106713;0.299564;0.322642;0.263389;0.014947;-0.012197;-0.007176;0.0136157;0.0174947;0.011582;0.001224;0.001096;0.000873;0.00111473;0.00128567;0.000901713;29.33;33.02;33.81;30.7525;33.02;28.55;0.0396597;0.0346427;0.0220418;0.0368593;0.0404728;0.0338514;1.88770796977;2.00414958966;0.889388815206;1.94471345685;2.08539053465;1.80525125032;0.000191495901373;0.000203007857503;4.03872991797E-05;0.000197251913895;0.000225726887883;0.00016877685129;0.284633;0.294312;0.344732;0.428422;0.511118;0.628972;0.78017;0.603731;0.450806;0.579469;0.56347;1.0029;1.05417;0.435111;0.246514;0.189109;0.207238;0.192036;0.135829;0.102805;0.079623;0.068716;0.038925;0.025347;0.018974;0.01402;0.008785;0.006253;0.006473;0.005368;0.003454;0.002183;0.00173;0.001467;0.001181;0.000992;0.265987;0.280319;0.331861;0.486057;0.718221;0.560312;0.907365;0.535152;0.620167;0.665473;0.774229;0.634624;0.473375;0.449969;0.247971;0.189612;0.17055;0.169869;0.102408;0.107595;0.069552;0.035089;0.032571;0.020732;0.020548;0.012827;0.013146;0.007799;0.004928;0.00366;0.002711;0.001817;0.001483;0.00116;0.00099;0.000826;0.106715;0.108935;0.119301;0.138561;0.180724;0.277534;0.219335;0.296687;0.324329;0.443593;0.279362;0.419017;0.373093;0.250036;0.193813;0.14974;0.11741;0.075723;0.059999;0.061537;0.041213;0.036103;0.028609;0.01858;0.015046;0.007484;0.007926;0.007238;0.004059;0.003137;0.002008;0.00169;0.000928;0.000698;0.000648;0.000542;0.3011725;0.3135825;0.3545305;0.444416;0.621294;0.57657;0.8636065;0.575119;0.549216;0.660636;0.7192195;0.8598555;0.7973055;0.438528;0.2472425;0.2058105;0.183034;0.1750985;0.1198975;0.103908;0.0726795;0.05149;0.0332715;0.023447;0.018902;0.013618;0.010272;0.006616;0.0058385;0.0044975;0.002783;0.0019115;0.0015715;0.001242;0.0011025;0.000979;0.325132;0.338788;0.374931;0.509269;0.786002;0.709343;0.922946;0.647853;0.62286;0.809886;0.848006;1.02765;1.09836;0.499035;0.291021;0.232825;0.207238;0.192752;0.145556;0.111021;0.079623;0.069388;0.038925;0.028856;0.023252;0.0152;0.013868;0.007843;0.006896;0.005633;0.003558;0.002502;0.001989;0.001643;0.001357;0.001138;0.265987;0.280319;0.326663;0.390297;0.362713;0.451024;0.690926;0.496591;0.450657;0.577801;0.493275;0.634624;0.405892;0.309103;0.21168;0.185377;0.1334;0.117411;0.092396;0.090178;0.058238;0.033041;0.028447;0.018998;0.017173;0.011927;0.007764;0.005588;0.003873;0.003181;0.002606;0.001709;0.001354;0.001081;0.000917;0.000758
AL-2016-0011;2016-03-06 03:11:49;;us10004vld;;;GR;40.7425;21.182;10.38;USGS-webservice;U;4.3;ISC-webservice;3.9;ISC-webservice;;;;;;;;;;;;;;;;AC;DURR;0;HN;;0;FIB;P;AL;41.3199;19.4573;;C;VS30;Vs30_ref;202;IGEWE;0;MASW;0.868584;345.440083;158.6;113.3;;;;;D;0;E;90;N;0;Z;0.25;0.25;0.25;30;30;30;-0.185392;0.170547;0.121606;0.1793935;0.199059;0.158892;-0.01762;0.017602;-0.008711;0.0177221;0.0232541;0.0129026;-0.001982;-0.003034;0.001152;0.00283908;0.00334981;0.00186462;47.675;45.88;53.65;47.3275;50.32;42.635;0.0631273;0.0811062;0.0332247;0.0731895;0.086933;0.0550914;1.67876922994;1.74112520948;1.16236197003;1.7111671895;1.82668335937;1.5837300854;0.000109776775972;0.00011819856481;4.58747613007E-05;0.000113987657333;0.000133304242527;9.46710984735E-05;0.185392;0.185559;0.19226;0.193278;0.225176;0.300205;0.233716;0.329498;0.418768;0.616533;0.731985;0.833368;0.780395;0.451528;0.268409;0.394305;0.342522;0.263764;0.158155;0.172681;0.142923;0.12676;0.111167;0.084819;0.068517;0.04012;0.026981;0.023213;0.01982;0.009466;0.004986;0.003101;0.002421;0.00206;0.001673;0.001403;0.170828;0.172421;0.172299;0.17333;0.18529;0.299431;0.204948;0.294304;0.470816;0.432495;0.598035;0.820403;0.876957;0.554647;0.566049;0.301297;0.281113;0.255515;0.19882;0.182411;0.19133;0.130794;0.119478;0.122768;0.128223;0.064992;0.036762;0.026582;0.013679;0.009169;0.006839;0.003775;0.002822;0.002227;0.001863;0.001567;0.121638;0.122107;0.123648;0.160803;0.226146;0.327366;0.185549;0.236073;0.343149;0.340662;0.501282;0.543177;0.448717;0.287855;0.178422;0.162313;0.116;0.107789;0.088181;0.111824;0.10846;0.071037;0.040278;0.044911;0.036664;0.015081;0.01135;0.008375;0.005331;0.003858;0.002734;0.001523;0.001131;0.000864;0.000687;0.000575;0.179416;0.18169;0.184436;0.1845755;0.2026765;0.2996535;0.228492;0.3248115;0.4739825;0.531916;0.696303;0.810697;0.83303;0.5352035;0.4446085;0.3615745;0.314233;0.2596395;0.1818915;0.174224;0.16474;0.1292285;0.1165155;0.0999925;0.098955;0.0521655;0.0324105;0.024798;0.016771;0.009517;0.0059055;0.0037535;0.002747;0.002203;0.0018265;0.0015155;0.199136;0.199532;0.203508;0.206553;0.242627;0.327733;0.25162;0.354822;0.607665;0.657985;0.874298;0.901838;0.901627;0.564225;0.588354;0.426124;0.402554;0.338941;0.214765;0.217767;0.200263;0.153155;0.131191;0.131733;0.135943;0.067379;0.039593;0.03313;0.020732;0.010371;0.008326;0.004172;0.003059;0.002421;0.001989;0.001741;0.159071;0.1619;0.159648;0.167541;0.169721;0.225126;0.201749;0.279672;0.418768;0.415789;0.479408;0.567915;0.602277;0.399453;0.268408;0.293601;0.196029;0.187996;0.14664;0.125283;0.114279;0.08987;0.081527;0.068485;0.053013;0.035532;0.021147;0.020794;0.012739;0.007784;0.004848;0.003082;0.002307;0.001777;0.001467;0.00126
