event_id;event_time;ISC_ev_id;USGS_ev_id;INGV_ev_id;EMSC_ev_id;ev_nation_code;ev_latitude;ev_longitude;ev_depth_km;ev_hyp_ref;fm_type_code;ML;ML_ref;Mw;Mw_ref;Ms;Ms_ref;EMEC_Mw;EMEC_Mw_type;EMEC_Mw_ref;event_source_id;es_strike;es_dip;es_rake;es_strike_dip_rake_ref;es_z_top;es_z_top_ref;es_length;es_width;es_geometry_ref;network_code;station_code;location_code;instrument_code;sensor_depth_m;proximity_code;housing_code;installation_code;st_nation_code;st_latitude;st_longitude;st_elevation;ec8_code;ec8_code_method;ec8_code_ref;vs30_m_sec;vs30_ref;vs30_calc_method;vs30_meas_type;slope_deg;vs30_m_sec_WA;epi_dist;epi_az;JB_dist;rup_dist;Rx_dist;Ry0_dist;instrument_type_code;late_triggered_flag_01;U_channel_code;U_azimuth_deg;V_channel_code;V_azimuth_deg;W_channel_code;U_hp;V_hp;W_hp;U_lp;V_lp;W_lp;U_pga;V_pga;W_pga;rotD50_pga;rotD100_pga;rotD00_pga;U_pgv;V_pgv;W_pgv;rotD50_pgv;rotD100_pgv;rotD00_pgv;U_pgd;V_pgd;W_pgd;rotD50_pgd;rotD100_pgd;rotD00_pgd;U_T90;V_T90;W_T90;rotD50_T90;rotD100_T90;rotD00_T90;U_housner;V_housner;W_housner;rotD50_housner;rotD100_housner;rotD00_housner;U_CAV;V_CAV;W_CAV;rotD50_CAV;rotD100_CAV;rotD00_CAV;U_ia;V_ia;W_ia;rotD50_ia;rotD100_ia;rotD00_ia;U_T0_010;U_T0_025;U_T0_040;U_T0_050;U_T0_070;U_T0_100;U_T0_150;U_T0_200;U_T0_250;U_T0_300;U_T0_350;U_T0_400;U_T0_450;U_T0_500;U_T0_600;U_T0_700;U_T0_750;U_T0_800;U_T0_900;U_T1_000;U_T1_200;U_T1_400;U_T1_600;U_T1_800;U_T2_000;U_T2_500;U_T3_000;U_T3_500;U_T4_000;U_T4_500;U_T5_000;U_T6_000;U_T7_000;U_T8_000;U_T9_000;U_T10_000;V_T0_010;V_T0_025;V_T0_040;V_T0_050;V_T0_070;V_T0_100;V_T0_150;V_T0_200;V_T0_250;V_T0_300;V_T0_350;V_T0_400;V_T0_450;V_T0_500;V_T0_600;V_T0_700;V_T0_750;V_T0_800;V_T0_900;V_T1_000;V_T1_200;V_T1_400;V_T1_600;V_T1_800;V_T2_000;V_T2_500;V_T3_000;V_T3_500;V_T4_000;V_T4_500;V_T5_000;V_T6_000;V_T7_000;V_T8_000;V_T9_000;V_T10_000;W_T0_010;W_T0_025;W_T0_040;W_T0_050;W_T0_070;W_T0_100;W_T0_150;W_T0_200;W_T0_250;W_T0_300;W_T0_350;W_T0_400;W_T0_450;W_T0_500;W_T0_600;W_T0_700;W_T0_750;W_T0_800;W_T0_900;W_T1_000;W_T1_200;W_T1_400;W_T1_600;W_T1_800;W_T2_000;W_T2_500;W_T3_000;W_T3_500;W_T4_000;W_T4_500;W_T5_000;W_T6_000;W_T7_000;W_T8_000;W_T9_000;W_T10_000;rotD50_T0_010;rotD50_T0_025;rotD50_T0_040;rotD50_T0_050;rotD50_T0_070;rotD50_T0_100;rotD50_T0_150;rotD50_T0_200;rotD50_T0_250;rotD50_T0_300;rotD50_T0_350;rotD50_T0_400;rotD50_T0_450;rotD50_T0_500;rotD50_T0_600;rotD50_T0_700;rotD50_T0_750;rotD50_T0_800;rotD50_T0_900;rotD50_T1_000;rotD50_T1_200;rotD50_T1_400;rotD50_T1_600;rotD50_T1_800;rotD50_T2_000;rotD50_T2_500;rotD50_T3_000;rotD50_T3_500;rotD50_T4_000;rotD50_T4_500;rotD50_T5_000;rotD50_T6_000;rotD50_T7_000;rotD50_T8_000;rotD50_T9_000;rotD50_T10_000;rotD100_T0_010;rotD100_T0_025;rotD100_T0_040;rotD100_T0_050;rotD100_T0_070;rotD100_T0_100;rotD100_T0_150;rotD100_T0_200;rotD100_T0_250;rotD100_T0_300;rotD100_T0_350;rotD100_T0_400;rotD100_T0_450;rotD100_T0_500;rotD100_T0_600;rotD100_T0_700;rotD100_T0_750;rotD100_T0_800;rotD100_T0_900;rotD100_T1_000;rotD100_T1_200;rotD100_T1_400;rotD100_T1_600;rotD100_T1_800;rotD100_T2_000;rotD100_T2_500;rotD100_T3_000;rotD100_T3_500;rotD100_T4_000;rotD100_T4_500;rotD100_T5_000;rotD100_T6_000;rotD100_T7_000;rotD100_T8_000;rotD100_T9_000;rotD100_T10_000;rotD00_T0_010;rotD00_T0_025;rotD00_T0_040;rotD00_T0_050;rotD00_T0_070;rotD00_T0_100;rotD00_T0_150;rotD00_T0_200;rotD00_T0_250;rotD00_T0_300;rotD00_T0_350;rotD00_T0_400;rotD00_T0_450;rotD00_T0_500;rotD00_T0_600;rotD00_T0_700;rotD00_T0_750;rotD00_T0_800;rotD00_T0_900;rotD00_T1_000;rotD00_T1_200;rotD00_T1_400;rotD00_T1_600;rotD00_T1_800;rotD00_T2_000;rotD00_T2_500;rotD00_T3_000;rotD00_T3_500;rotD00_T4_000;rotD00_T4_500;rotD00_T5_000;rotD00_T6_000;rotD00_T7_000;rotD00_T8_000;rotD00_T9_000;rotD00_T10_000
AL-2014-0005;2014-01-20 14:40:48;;usb000m4t2;;;AL;41.2985;19.4484;28.26;USGS-webservice;U;4;ISC-webservice;4.07;ISC-webservice;;;;;;;;;;;;;;;;AC;FIER;0;HN;;3;BUI;BF;AL;40.7174;19.5669;;B;VS30;Vs30_ref;374;IGEWE;0;MASW;2.06929;433.659784;65.3;351.3;;;;;D;0;E;90;N;0;Z;0.1;0.1;0.1;25;25;25;0.17398;0.218647;-0.094556;0.1914145;0.218647;0.157793;0.01311;-0.008063;0.004606;0.01157725;0.015148;0.00806334;-0.002431;-0.001436;0.0008;0.001891745;0.00265532;0.00138876;36.175;34.59;47.24;35.735;37.14;34.33;0.0448885;0.0339214;0.0182435;0.04004705;0.0452792;0.0330592;1.30889903997;1.42343644548;0.936425810353;1.36328091014;1.42343644548;1.30889903997;7.77610362916E-05;9.68819554052E-05;3.33761330245E-05;8.73214897388E-05;9.69991357271E-05;7.76438252563E-05;0.174141;0.175912;0.181185;0.176796;0.193824;0.285214;0.390129;0.608854;0.620715;0.618726;0.451441;0.630535;0.393049;0.239933;0.225561;0.209641;0.211905;0.214794;0.21446;0.180753;0.10779;0.064886;0.0615;0.038448;0.03544;0.031432;0.013838;0.013925;0.01329;0.011582;0.006813;0.004474;0.002934;0.002288;0.00178;0.001501;0.21931;0.222077;0.230712;0.224002;0.291881;0.394294;0.59643;0.925261;0.534372;0.507799;0.470022;0.264096;0.238594;0.257644;0.194265;0.14587;0.131124;0.100623;0.101249;0.097989;0.089999;0.059707;0.047265;0.029363;0.030449;0.024425;0.019416;0.011179;0.008926;0.008702;0.003859;0.002553;0.002131;0.001406;0.001286;0.000955;0.094589;0.097409;0.104132;0.146372;0.186519;0.31821;0.263691;0.254388;0.272129;0.281079;0.280368;0.18678;0.116293;0.137119;0.128029;0.098389;0.071689;0.064201;0.046122;0.045294;0.044644;0.03338;0.028541;0.020827;0.017664;0.011036;0.009453;0.006273;0.007141;0.005475;0.003453;0.002907;0.002023;0.001149;0.000883;0.000622;0.191842;0.1939715;0.2006155;0.208674;0.242683;0.316037;0.5155;0.7749965;0.6174785;0.5083505;0.4562105;0.459821;0.33272;0.2582325;0.1962005;0.1617405;0.1847295;0.16126;0.169921;0.1414945;0.096876;0.0650385;0.048592;0.036364;0.03452;0.0279405;0.01738;0.0122975;0.0114935;0.0107445;0.0059685;0.0034795;0.002484;0.001856;0.0013875;0.0011725;0.21931;0.222077;0.230712;0.23173;0.300698;0.399879;0.596521;0.928772;0.693934;0.665688;0.488082;0.631221;0.451578;0.269318;0.23687;0.209641;0.212105;0.219293;0.225145;0.19526;0.118406;0.069101;0.064195;0.040209;0.037795;0.03254;0.020615;0.015061;0.015156;0.012669;0.006855;0.004902;0.003241;0.002289;0.001885;0.001648;0.157806;0.157917;0.16257;0.17178;0.189458;0.269709;0.37173;0.511837;0.532862;0.435568;0.379153;0.250238;0.196679;0.221402;0.140901;0.142225;0.111899;0.100623;0.084084;0.088924;0.086185;0.053997;0.033628;0.029332;0.026494;0.023848;0.012796;0.010137;0.008776;0.006618;0.003835;0.002287;0.001832;0.001362;0.001165;0.00083
AL-2014-0005;2014-01-20 14:40:48;;usb000m4t2;;;AL;41.2985;19.4484;28.26;USGS-webservice;U;4;ISC-webservice;4.07;ISC-webservice;;;;;;;;;;;;;;;;AC;KKS;0;HN;;2;HOU;P;AL;42.0756;20.4113;300;B;VS30;Vs30_ref;745;IGEWE;0;MASW;7.682096;742.104917;117.8;223.2;;;;;D;0;E;90;N;0;Z;0.15;0.15;0.15;30;30;30;0.078331;-0.073147;-0.041145;0.071497;0.080892;0.061481;-0.003468;0.003357;0.003509;0.00344151;0.00464514;0.00298993;-0.000808;0.000469;0.00073;0.0006427245;0.000828672;0.000430714;30.015;30.2;30.485;30.0275;30.51;29.765;0.0154977;0.0124658;0.0136807;0.01411165;0.0156379;0.0122818;0.500720529845;0.486545464806;0.297661250109;0.495041314799;0.508339580115;0.478010960036;1.50318602373E-05;1.4235635045E-05;5.23274297945E-06;1.46337514262E-05;1.54615249513E-05;1.38059831289E-05;0.078876;0.081788;0.089185;0.101625;0.135066;0.231277;0.189933;0.259896;0.175176;0.130721;0.088313;0.079407;0.060616;0.053628;0.040017;0.043409;0.059147;0.071781;0.056184;0.040726;0.039439;0.03513;0.027181;0.024656;0.024313;0.008848;0.004551;0.003234;0.003508;0.002721;0.002852;0.001735;0.001109;0.000779;0.00059;0.000476;0.07316;0.077432;0.089466;0.09295;0.144909;0.246074;0.2292;0.167739;0.117155;0.109213;0.083075;0.06704;0.065217;0.080405;0.059653;0.037075;0.045493;0.045109;0.042821;0.047993;0.041464;0.030212;0.017205;0.018594;0.011958;0.008205;0.005328;0.003112;0.002319;0.001958;0.001444;0.001168;0.000997;0.000687;0.000462;0.00035;0.041802;0.044454;0.062246;0.070449;0.083314;0.135583;0.110855;0.146168;0.101263;0.074379;0.067384;0.043784;0.039515;0.046481;0.05202;0.047293;0.047587;0.045043;0.044989;0.059555;0.059702;0.044305;0.025047;0.015104;0.013103;0.00805;0.005192;0.003656;0.002534;0.002545;0.001862;0.001199;0.000745;0.000661;0.000466;0.000364;0.0716225;0.0749065;0.0847295;0.09232;0.143651;0.234783;0.2275895;0.2050655;0.1395715;0.121169;0.090499;0.067834;0.0661865;0.0704335;0.0468525;0.0402085;0.053554;0.0591705;0.047593;0.045892;0.041083;0.033192;0.0212945;0.021229;0.0201405;0.008249;0.004847;0.0031435;0.002859;0.002527;0.0021385;0.001323;0.00104;0.000681;0.0004985;0.000394;0.081075;0.084506;0.092607;0.103946;0.14836;0.247079;0.236282;0.260587;0.190402;0.135546;0.103731;0.079407;0.072127;0.084819;0.065865;0.056864;0.074476;0.07961;0.059125;0.051588;0.047598;0.041793;0.027287;0.024736;0.024458;0.009008;0.005364;0.003337;0.00358;0.002757;0.002913;0.001751;0.001252;0.000831;0.000624;0.000487;0.061854;0.064332;0.072447;0.081491;0.125218;0.220322;0.173016;0.145592;0.084457;0.078904;0.074262;0.06141;0.048715;0.051805;0.036843;0.030459;0.027483;0.031919;0.039592;0.038729;0.039012;0.019287;0.015204;0.016184;0.011916;0.006407;0.004239;0.002791;0.002294;0.001816;0.001211;0.00101;0.000785;0.000627;0.000455;0.000352
AL-2014-0005;2014-01-20 14:40:48;;usb000m4t2;;;AL;41.2985;19.4484;28.26;USGS-webservice;U;4;ISC-webservice;4.07;ISC-webservice;;;;;;;;;;;;;;;;AC;SDA;0;HN;;2;HOU;P;AL;42.0505;19.5022;57;A;VS30;Vs30_ref;1118;IGEWE;0;MASW;10.578848;827.425475;83.6;183.1;;;;;D;0;E;90;N;0;Z;0.15;0.15;0.15;30;30;30;-0.082025;-0.105984;-0.067542;0.095173;0.106211;0.07112;-0.003209;0.003528;-0.002137;0.00323048;0.00360387;0.00284707;0.00047;0.000436;0.000337;0.0004495035;0.000511691;0.000362463;28.065;26.61;25.815;26.8925;28.405;26.555;0.00880349;0.0110794;0.00918383;0.00997979;0.0113451;0.00856182;0.358740619921;0.458601344983;0.455744490132;0.414306064818;0.458601344983;0.358740619921;7.80308720562E-06;1.40191936623E-05;1.20338236966E-05;1.09111353402E-05;1.40191936623E-05;7.80308720562E-06;0.083056;0.087665;0.093185;0.127494;0.179068;0.298371;0.199783;0.143813;0.111082;0.096065;0.071397;0.059324;0.076457;0.075252;0.052498;0.032625;0.031836;0.030645;0.027736;0.021703;0.021042;0.020353;0.011305;0.009262;0.008898;0.007581;0.005958;0.00313;0.002921;0.001997;0.001313;0.000902;0.000521;0.00049;0.000348;0.000286;0.106509;0.111244;0.12634;0.137857;0.226252;0.422246;0.339753;0.291707;0.160332;0.085474;0.070379;0.065308;0.093507;0.094105;0.047779;0.044028;0.041248;0.0526;0.044263;0.037486;0.017543;0.018691;0.020327;0.013736;0.008714;0.007752;0.004009;0.0032;0.003031;0.002532;0.001927;0.001016;0.000885;0.000464;0.000509;0.000386;0.067953;0.072226;0.096355;0.15971;0.281108;0.231995;0.217582;0.113797;0.092751;0.091324;0.06895;0.110342;0.080221;0.076409;0.047557;0.034091;0.028803;0.030441;0.027744;0.025475;0.019259;0.013335;0.014041;0.012504;0.013118;0.007157;0.003418;0.00337;0.002972;0.002932;0.001746;0.000803;0.00058;0.000413;0.000375;0.000277;0.095378;0.09991;0.1118705;0.1304855;0.2124295;0.3466375;0.3027895;0.225684;0.1462865;0.090009;0.0736085;0.06412;0.0830155;0.082478;0.0507525;0.0409465;0.0368015;0.0439615;0.0351105;0.029121;0.0185005;0.0196415;0.015616;0.0118845;0.008302;0.007343;0.005025;0.003127;0.003;0.002283;0.0016635;0.000895;0.0006335;0.000447;0.00039;0.0002905;0.106929;0.111626;0.12634;0.148921;0.248922;0.428981;0.364994;0.295709;0.165587;0.096451;0.091631;0.070922;0.104897;0.094371;0.055456;0.045185;0.041248;0.057738;0.046024;0.038719;0.024279;0.02393;0.02098;0.014272;0.009043;0.007938;0.006466;0.003277;0.003342;0.002593;0.001979;0.001035;0.000886;0.000492;0.000518;0.000382;0.071513;0.073885;0.079322;0.11213;0.179068;0.193842;0.17929;0.131819;0.110914;0.080898;0.057382;0.055343;0.076115;0.073511;0.04541;0.032095;0.02682;0.029207;0.024224;0.021465;0.013835;0.015823;0.010909;0.008184;0.006607;0.0059;0.003386;0.00275;0.002354;0.001539;0.001046;0.00077;0.000427;0.000407;0.000343;0.000246
AL-2016-0001;2016-09-12 17:53:52;;us10006p3d;;;MK;41.993;21.4464;16.23;USGS-webservice;U;4;EMSC-CSEM-webservice;;;;;;;;;;;;;;;;;;AC;DURR;0;HN;;0;FIB;P;AL;41.3199;19.4573;;C;VS30;Vs30_ref;202;IGEWE;0;MASW;0.868584;345.440083;181.8;65.1;;;;;D;0;E;90;N;0;Z;0.25;0.25;0.25;30;30;30;0.09217;0.079481;0.058083;0.0862865;0.09217;0.065733;-0.009429;-0.009098;0.00359;0.00906511;0.010193;0.0069307;-0.001455;-0.001771;0.000471;0.00169426;0.00226771;0.00120094;55.205;49.555;70.43;53.1625;55.72;47.24;0.0431589;0.0458364;0.015183;0.04435555;0.0532679;0.0345526;0.858652790172;0.857351459809;0.802985779892;0.85800212499;0.906431075076;0.801916820278;2.59463207044E-05;2.69714254661E-05;1.8498638021E-05;2.64588787344E-05;3.04418993077E-05;2.24758563166E-05;0.092278;0.093044;0.097003;0.10573;0.134105;0.154905;0.103801;0.107321;0.124708;0.208104;0.262531;0.18542;0.200803;0.225678;0.165292;0.163719;0.163107;0.212783;0.22696;0.266709;0.116683;0.102506;0.069252;0.04852;0.058033;0.021429;0.015835;0.011656;0.008544;0.006107;0.004032;0.002143;0.001575;0.001209;0.000953;0.00083;0.079595;0.080105;0.082383;0.086073;0.111147;0.158355;0.100406;0.105145;0.183415;0.187384;0.278879;0.250519;0.217367;0.188615;0.189353;0.165321;0.198629;0.219677;0.16156;0.142396;0.115542;0.116265;0.081198;0.078707;0.068745;0.026992;0.013393;0.010753;0.008334;0.006123;0.00429;0.002657;0.001923;0.001405;0.00114;0.000959;0.05814;0.060661;0.084945;0.094853;0.157824;0.22475;0.094071;0.106887;0.116987;0.155059;0.127946;0.15273;0.109941;0.095939;0.085263;0.079854;0.064284;0.071282;0.061472;0.060528;0.056587;0.042297;0.027649;0.012701;0.010908;0.006413;0.004169;0.002377;0.002136;0.001672;0.001055;0.000761;0.000553;0.000442;0.000381;0.000334;0.0863105;0.087428;0.092819;0.101589;0.1270115;0.15663;0.099129;0.1047975;0.1392065;0.1963485;0.2597125;0.2139265;0.213425;0.197227;0.1722755;0.16452;0.187346;0.21623;0.194674;0.216193;0.1161125;0.1101335;0.072024;0.066665;0.06415;0.024125;0.0133895;0.0112035;0.0084615;0.006114;0.004234;0.002504;0.001837;0.001354;0.0010925;0.000915;0.092278;0.093044;0.101957;0.110223;0.152426;0.207515;0.109544;0.109082;0.196374;0.212088;0.280559;0.251481;0.224589;0.225678;0.199898;0.187914;0.244155;0.293309;0.254763;0.286181;0.15484;0.117776;0.082392;0.084608;0.0853;0.029973;0.01613;0.012595;0.011102;0.008634;0.005632;0.003217;0.002338;0.001814;0.001449;0.001184;0.065753;0.067675;0.070923;0.077429;0.107112;0.136306;0.072389;0.082967;0.124708;0.170058;0.223185;0.178569;0.183509;0.157484;0.136737;0.116153;0.109134;0.13552;0.108588;0.087012;0.078832;0.100187;0.066605;0.037289;0.036292;0.01694;0.01176;0.008782;0.005104;0.003737;0.00265;0.001621;0.001232;0.000986;0.000794;0.000685
AL-2016-0001;2016-09-12 17:53:52;;us10006p3d;;;MK;41.993;21.4464;16.23;USGS-webservice;U;4;EMSC-CSEM-webservice;;;;;;;;;;;;;;;;;;AC;KBN;0;HN;;3;BUI;P;AL;40.6232;20.7874;991;B;VS30;Vs30_ref;742;IGEWE;0;MASW;1.972256;426.771071;161.8;19.7;;;;;D;0;E;90;N;0;Z;0.25;0.25;0.25;25;25;25;-0.019497;-0.018162;0.008264;0.0195635;0.022144;0.017659;-0.001421;-0.001788;0.000958;0.00167061;0.00180114;0.00136903;0.000218;0.000287;-0.000202;0.0002407415;0.000293304;0.00017457;49.715;44.9;52.5;46.81;50.735;42.94;0.00606717;0.00814966;0.00459638;0.00715982;0.00814968;0.00606704;0.178942460082;0.214169594995;0.137503299964;0.195496915029;0.214535635079;0.178421935099;1.15020374465E-06;1.70936402031E-06;5.86450429566E-07;1.42978405687E-06;1.70936402031E-06;1.15020374465E-06;0.019503;0.019759;0.020245;0.022893;0.022414;0.022813;0.029594;0.037826;0.050466;0.044942;0.0575;0.055139;0.056684;0.048422;0.044608;0.03742;0.036436;0.037181;0.029543;0.022803;0.017145;0.01374;0.007864;0.006414;0.004375;0.00197;0.001591;0.000949;0.000907;0.000627;0.000447;0.000354;0.000302;0.000235;0.000183;0.000156;0.018192;0.018334;0.020269;0.018588;0.019907;0.022476;0.033415;0.037115;0.055079;0.053541;0.059216;0.067769;0.077878;0.073545;0.087903;0.060953;0.052444;0.047571;0.040943;0.027204;0.020977;0.01703;0.011733;0.007124;0.005546;0.003289;0.001653;0.001483;0.001002;0.001114;0.000831;0.000531;0.00033;0.000302;0.000232;0.000183;0.008264;0.008823;0.011118;0.009739;0.011394;0.022699;0.022481;0.021572;0.027371;0.022154;0.028245;0.026322;0.024575;0.027898;0.027345;0.028519;0.029517;0.025358;0.019876;0.018858;0.013028;0.009793;0.008665;0.005992;0.004268;0.002209;0.001579;0.00091;0.000751;0.000607;0.000612;0.000426;0.000339;0.000231;0.000193;0.000223;0.0195655;0.01975;0.020318;0.021629;0.021914;0.0228925;0.034692;0.0412055;0.0515655;0.0534075;0.061531;0.064344;0.0713985;0.057461;0.072176;0.048321;0.0462025;0.041899;0.035883;0.0264735;0.017913;0.015699;0.0097425;0.006282;0.005189;0.0028855;0.00172;0.0012845;0.000991;0.000894;0.000666;0.000465;0.00031;0.000271;0.000199;0.000162;0.022151;0.022332;0.024144;0.023945;0.024624;0.028883;0.038208;0.04985;0.069895;0.055925;0.06956;0.071702;0.079475;0.077401;0.088018;0.061109;0.056604;0.055193;0.041248;0.030833;0.021687;0.017103;0.012318;0.007124;0.005736;0.003544;0.001864;0.001566;0.001074;0.001119;0.000836;0.000529;0.000333;0.000305;0.000232;0.000184;0.017667;0.018043;0.018387;0.018588;0.019348;0.021342;0.026584;0.033565;0.040902;0.043599;0.049826;0.048728;0.053141;0.044244;0.043745;0.037284;0.027463;0.02628;0.029443;0.022803;0.015329;0.012927;0.007864;0.005007;0.003691;0.001869;0.001531;0.000948;0.000892;0.000589;0.000447;0.000287;0.000237;0.000178;0.000154;0.000134
AL-2016-0001;2016-09-12 17:53:52;;us10006p3d;;;MK;41.993;21.4464;16.23;USGS-webservice;U;4;EMSC-CSEM-webservice;;;;;;;;;;;;;;;;;;AC;LACI;0;HN;;3;BUI;P;AL;41.6359;19.7199;55;A;VS30;Vs30_ref;1490;IGEWE;0;MASW;9.382239;796.378812;148.8;74;;;;;D;0;E;90;N;0;Z;0.25;0.25;0.25;25;25;25;0.013499;0.009185;-0.01151;0.0109085;0.014342;0.00886;-0.001075;-0.00099;-0.001238;0.001018785;0.00107631;0.000862391;0.000221;0.000227;0.000216;0.000226329;0.000246669;0.000180534;39.08;41.645;40.21;39.415;42.275;38.435;0.00548077;0.00544232;0.00525122;0.005461485;0.0062521;0.00417637;0.116020274961;0.0899632450726;0.105255984993;0.104809252532;0.118802460013;0.0854841250204;6.71091693462E-07;4.01547493573E-07;5.38234109576E-07;5.36319800254E-07;7.06465872619E-07;3.66173053717E-07;0.013502;0.013951;0.017383;0.017402;0.018039;0.024564;0.025631;0.02729;0.037866;0.041875;0.031573;0.036665;0.037421;0.034538;0.044149;0.024584;0.022004;0.026272;0.018987;0.017272;0.015904;0.012638;0.011319;0.008198;0.005813;0.00287;0.001569;0.000963;0.000758;0.0006;0.000472;0.00035;0.000227;0.000205;0.000166;0.000132;0.00919;0.009373;0.009813;0.01064;0.012122;0.012652;0.013782;0.01642;0.024705;0.024531;0.019808;0.027105;0.029137;0.025838;0.025609;0.022512;0.023107;0.019249;0.017159;0.01749;0.013432;0.014022;0.011101;0.008057;0.006803;0.005557;0.002897;0.00148;0.001081;0.000951;0.000699;0.00044;0.00022;0.000187;0.000147;0.000124;0.01153;0.011623;0.012524;0.011723;0.014612;0.018738;0.020216;0.021345;0.022505;0.028752;0.031297;0.033892;0.027402;0.030014;0.039684;0.049072;0.037738;0.029444;0.027514;0.018871;0.012009;0.00952;0.006441;0.007568;0.005458;0.003572;0.001485;0.001078;0.00071;0.000688;0.00042;0.000353;0.000255;0.000226;0.000156;0.000125;0.0109225;0.011191;0.0130205;0.013407;0.014166;0.0176175;0.0207435;0.023502;0.029305;0.034353;0.026563;0.0294485;0.031807;0.0283965;0.033157;0.022315;0.022236;0.022878;0.0178705;0.0173805;0.0138975;0.01321;0.01121;0.007928;0.006289;0.004189;0.002137;0.001139;0.000963;0.0007645;0.0006165;0.000402;0.0002295;0.0001955;0.0001555;0.0001275;0.014349;0.014758;0.018358;0.018616;0.018844;0.024787;0.025682;0.029562;0.041252;0.048332;0.032243;0.041245;0.037442;0.034538;0.045371;0.025991;0.025979;0.027888;0.021698;0.023291;0.016014;0.01745;0.0132;0.008467;0.007237;0.005918;0.002907;0.001515;0.001188;0.000955;0.000699;0.000442;0.000261;0.000212;0.000182;0.000138;0.00886;0.009051;0.009505;0.009594;0.011296;0.011808;0.012928;0.015185;0.020773;0.02087;0.018831;0.025201;0.028027;0.025318;0.023641;0.019923;0.017135;0.014615;0.01401;0.010601;0.012227;0.007226;0.007874;0.00651;0.004633;0.002066;0.001288;0.000958;0.000701;0.000545;0.000471;0.000322;0.000215;0.00017;0.000136;0.000102
