event_id;event_time;ISC_ev_id;USGS_ev_id;INGV_ev_id;EMSC_ev_id;ev_nation_code;ev_latitude;ev_longitude;ev_depth_km;ev_hyp_ref;fm_type_code;ML;ML_ref;Mw;Mw_ref;Ms;Ms_ref;EMEC_Mw;EMEC_Mw_type;EMEC_Mw_ref;event_source_id;es_strike;es_dip;es_rake;es_strike_dip_rake_ref;es_z_top;es_z_top_ref;es_length;es_width;es_geometry_ref;network_code;station_code;location_code;instrument_code;sensor_depth_m;proximity_code;housing_code;installation_code;st_nation_code;st_latitude;st_longitude;st_elevation;ec8_code;ec8_code_method;ec8_code_ref;vs30_m_sec;vs30_ref;vs30_calc_method;vs30_meas_type;slope_deg;vs30_m_sec_WA;epi_dist;epi_az;JB_dist;rup_dist;Rx_dist;Ry0_dist;instrument_type_code;late_triggered_flag_01;U_channel_code;U_azimuth_deg;V_channel_code;V_azimuth_deg;W_channel_code;U_hp;V_hp;W_hp;U_lp;V_lp;W_lp;U_pga;V_pga;W_pga;rotD50_pga;rotD100_pga;rotD00_pga;U_pgv;V_pgv;W_pgv;rotD50_pgv;rotD100_pgv;rotD00_pgv;U_pgd;V_pgd;W_pgd;rotD50_pgd;rotD100_pgd;rotD00_pgd;U_T90;V_T90;W_T90;rotD50_T90;rotD100_T90;rotD00_T90;U_housner;V_housner;W_housner;rotD50_housner;rotD100_housner;rotD00_housner;U_CAV;V_CAV;W_CAV;rotD50_CAV;rotD100_CAV;rotD00_CAV;U_ia;V_ia;W_ia;rotD50_ia;rotD100_ia;rotD00_ia;U_T0_010;U_T0_025;U_T0_040;U_T0_050;U_T0_070;U_T0_100;U_T0_150;U_T0_200;U_T0_250;U_T0_300;U_T0_350;U_T0_400;U_T0_450;U_T0_500;U_T0_600;U_T0_700;U_T0_750;U_T0_800;U_T0_900;U_T1_000;U_T1_200;U_T1_400;U_T1_600;U_T1_800;U_T2_000;U_T2_500;U_T3_000;U_T3_500;U_T4_000;U_T4_500;U_T5_000;U_T6_000;U_T7_000;U_T8_000;U_T9_000;U_T10_000;V_T0_010;V_T0_025;V_T0_040;V_T0_050;V_T0_070;V_T0_100;V_T0_150;V_T0_200;V_T0_250;V_T0_300;V_T0_350;V_T0_400;V_T0_450;V_T0_500;V_T0_600;V_T0_700;V_T0_750;V_T0_800;V_T0_900;V_T1_000;V_T1_200;V_T1_400;V_T1_600;V_T1_800;V_T2_000;V_T2_500;V_T3_000;V_T3_500;V_T4_000;V_T4_500;V_T5_000;V_T6_000;V_T7_000;V_T8_000;V_T9_000;V_T10_000;W_T0_010;W_T0_025;W_T0_040;W_T0_050;W_T0_070;W_T0_100;W_T0_150;W_T0_200;W_T0_250;W_T0_300;W_T0_350;W_T0_400;W_T0_450;W_T0_500;W_T0_600;W_T0_700;W_T0_750;W_T0_800;W_T0_900;W_T1_000;W_T1_200;W_T1_400;W_T1_600;W_T1_800;W_T2_000;W_T2_500;W_T3_000;W_T3_500;W_T4_000;W_T4_500;W_T5_000;W_T6_000;W_T7_000;W_T8_000;W_T9_000;W_T10_000;rotD50_T0_010;rotD50_T0_025;rotD50_T0_040;rotD50_T0_050;rotD50_T0_070;rotD50_T0_100;rotD50_T0_150;rotD50_T0_200;rotD50_T0_250;rotD50_T0_300;rotD50_T0_350;rotD50_T0_400;rotD50_T0_450;rotD50_T0_500;rotD50_T0_600;rotD50_T0_700;rotD50_T0_750;rotD50_T0_800;rotD50_T0_900;rotD50_T1_000;rotD50_T1_200;rotD50_T1_400;rotD50_T1_600;rotD50_T1_800;rotD50_T2_000;rotD50_T2_500;rotD50_T3_000;rotD50_T3_500;rotD50_T4_000;rotD50_T4_500;rotD50_T5_000;rotD50_T6_000;rotD50_T7_000;rotD50_T8_000;rotD50_T9_000;rotD50_T10_000;rotD100_T0_010;rotD100_T0_025;rotD100_T0_040;rotD100_T0_050;rotD100_T0_070;rotD100_T0_100;rotD100_T0_150;rotD100_T0_200;rotD100_T0_250;rotD100_T0_300;rotD100_T0_350;rotD100_T0_400;rotD100_T0_450;rotD100_T0_500;rotD100_T0_600;rotD100_T0_700;rotD100_T0_750;rotD100_T0_800;rotD100_T0_900;rotD100_T1_000;rotD100_T1_200;rotD100_T1_400;rotD100_T1_600;rotD100_T1_800;rotD100_T2_000;rotD100_T2_500;rotD100_T3_000;rotD100_T3_500;rotD100_T4_000;rotD100_T4_500;rotD100_T5_000;rotD100_T6_000;rotD100_T7_000;rotD100_T8_000;rotD100_T9_000;rotD100_T10_000;rotD00_T0_010;rotD00_T0_025;rotD00_T0_040;rotD00_T0_050;rotD00_T0_070;rotD00_T0_100;rotD00_T0_150;rotD00_T0_200;rotD00_T0_250;rotD00_T0_300;rotD00_T0_350;rotD00_T0_400;rotD00_T0_450;rotD00_T0_500;rotD00_T0_600;rotD00_T0_700;rotD00_T0_750;rotD00_T0_800;rotD00_T0_900;rotD00_T1_000;rotD00_T1_200;rotD00_T1_400;rotD00_T1_600;rotD00_T1_800;rotD00_T2_000;rotD00_T2_500;rotD00_T3_000;rotD00_T3_500;rotD00_T4_000;rotD00_T4_500;rotD00_T5_000;rotD00_T6_000;rotD00_T7_000;rotD00_T8_000;rotD00_T9_000;rotD00_T10_000
AM-1988-0005;1988-12-31 04:07:09;419354;usp0003qbz;;;AM;40.9471;44.0456;2.2;ISC-webservice;TF;;;;;4.1;ISC-webservice;;;;;;;;;;;;;;A;STRS;0;HN;0;1;BUI;;AM;40.928;43.873;1870;A*;GEO;ESM;;;;;4.433492;561.587983;14.7;81.6;;;;;U;0;E;90;N;0;Z;0.8;0.8;0.8;40;40;40;104.962848;172.144894;-54.911768;157.5794375;178.085205;102.793747;2.618907;-3.856806;0.922802;3.80931;4.35836;2.36997;-0.086054;-0.148714;0.030696;0.1256215;0.149577;0.0725918;2.295;2.185;2.915;2.275;2.39;1.99;3.24963;4.3009;1.08674;3.87182;4.66075;2.64452;96.8834292298;106.194887223;47.2844668159;100.207144971;106.194887223;94.3715350173;5.89735335103;8.3346848941;1.30570012788;7.11601931157;8.36229113333;5.86974765443;105.958;111.523;126.695;156.87;235.933;290.043;412.796;339.179;166.711;57.6648;52.5683;46.6222;31.0088;26.5311;14.5808;11.8607;9.96597;7.8902;6.40786;4.9405;3.75774;2.48031;1.7216;1.41948;1.29224;1.02917;0.780537;0.596301;0.474734;0.406337;0.351405;0.292253;0.247633;0.21377;0.187527;0.166885;173.07;181.254;193.574;231.151;379.833;533.257;434.187;469.133;166.998;85.5588;45.3216;47.5072;42.5246;30.8311;24.6474;18.1591;13.6022;9.33539;9.63151;8.34155;6.25906;4.38842;3.17546;2.44942;1.99539;1.37902;1.05442;0.848549;0.71242;0.640459;0.554094;0.450363;0.378215;0.325609;0.286641;0.256128;55.7007;65.0533;96.0696;102.395;218.918;210.743;94.0946;58.0391;29.0759;20.6739;16.9861;12.064;9.16839;8.89477;6.55327;7.13644;7.01369;5.59105;3.32383;1.99869;1.22482;0.986198;0.83876;0.690733;0.606169;0.340049;0.21393;0.189891;0.164484;0.146513;0.137632;0.123981;0.110392;0.098084;0.087435;0.078437;157.99;162.01;175.899;208.7245;290.868;440.403;440.251;409.555;171.498;72.67455;47.7515;47.0027;36.2333;28.74575;20.33505;13.6728;11.8306;9.35326;8.11219;7.11693;5.403745;3.66379;2.64893;2.129185;1.81877;1.297155;0.972674;0.7810465;0.6596075;0.5879225;0.498815;0.3996305;0.332896;0.2839345;0.250237;0.226828;179.644;184.677;201.331;240.102;379.833;537.475;499.995;563.736;211.951;97.6149;62.2898;66.1146;49.3722;40.3803;28.6967;18.7402;13.8572;11.6996;10.574;8.51455;6.27907;4.37407;3.18004;2.47139;2.01994;1.38654;1.09745;0.926032;0.79821;0.718923;0.625103;0.510892;0.430489;0.371406;0.326319;0.290826;102.995;109.116;126.696;148.71;219.165;290.042;379.923;185.966;132.424;53.2843;38.2698;24.3622;18.4534;15.9021;12.1969;9.77374;8.29407;7.06397;4.67228;3.29614;2.82778;1.88603;1.31919;1.13648;1.01857;0.799927;0.637178;0.516696;0.437127;0.379255;0.318145;0.255187;0.21306;0.184942;0.16565;0.14989
AM-1989-0006;1989-01-04 07:29:40;414389;usp0003qgf;;;AM;40.9318;44.2621;2.7;ISC-webservice;TF;;;;;4.1;ISC-webservice;;;;;;;;;;;;;;A;MET;0;HN;0;0;ERR;;AM;40.827;44.113;;C*;GEO;ESM;;;;;5.687818;618.95622;17.1;47.1;;;;;U;1;E;90;N;0;Z;0.4;0.4;0.4;40;40;40;33.319386;-25.352328;20.694447;27.806102;34.979439;22.035046;-1.071059;1.028368;-0.671339;1.04788;1.14934;0.932107;-0.111871;-0.068481;0.042601;0.0880976;0.12383;0.0684809;3.56;3.75;3.375;3.7075;4.01;3.24;2.65394;2.70054;1.19423;2.69327;2.78547;2.54305;24.13694736;31.3533017197;12.7266539755;27.9474174282;32.9717165455;21.9796923355;0.321994167232;0.475208872487;0.113079486405;0.398601510141;0.552128987205;0.245074032447;33.4675;35.5078;37.0069;50.4922;68.7497;70.4906;79.279;35.8155;27.7072;31.3256;31.3301;57.3306;59.9191;38.3613;19.5715;16.8773;15.8221;14.6097;10.1208;7.06252;5.00387;3.39414;2.68473;2.04651;1.29803;0.887957;0.637339;0.477879;0.372375;0.312284;0.247627;0.179669;0.138293;0.111005;0.092025;0.07935;25.3963;26.925;39.5013;48.6989;57.8875;93.165;65.6184;40.0937;45.5675;46.3194;44.9746;54.2168;72.3961;52.0704;21.9753;10.7341;11.6767;11.8045;8.84774;6.07108;3.83135;2.53832;2.36653;1.79715;1.38165;0.95621;0.538343;0.33984;0.268521;0.23056;0.187134;0.136845;0.106194;0.086298;0.07255;0.063318;20.7339;26.6695;48.472;42.3768;33.6582;54.8193;44.7436;24.6021;19.9097;16.3922;16.709;19.726;18.9458;15.4205;7.94912;6.3266;5.43356;4.50092;3.93523;2.86012;2.57833;1.84069;1.23249;1.08492;0.797102;0.37758;0.257175;0.181575;0.135071;0.110599;0.088112;0.064151;0.05442;0.048035;0.042997;0.038915;27.8604;29.24655;39.13525;46.0093;66.4074;82.9981;66.4274;40.15675;36.9167;43.6891;38.55795;54.1802;65.99515;45.50715;20.37905;15.7911;15.1531;13.19465;9.775865;6.4992;4.276845;3.17944;2.53228;1.92255;1.299015;0.8829555;0.5573345;0.3660225;0.284927;0.2437035;0.1995585;0.1481755;0.11686;0.0960195;0.0816;0.07072;35.4504;38.0702;49.925;50.4922;78.0965;99.1488;84.9721;51.6261;45.5817;54.6295;45.2192;62.4365;84.0002;54.338;22.9877;17.5277;17.6689;16.0094;10.7088;7.40453;5.00386;3.49405;3.08182;2.05589;1.55169;1.06663;0.650967;0.49606;0.390249;0.329036;0.261842;0.189984;0.146145;0.117121;0.096783;0.08191;22.334;24.0137;30.4392;37.1539;40.4698;42.1203;40.7534;33.7551;24.0053;25.6604;30.7862;47.7902;35.8978;27.387;17.2617;10.734;9.78445;8.62026;7.45324;5.12459;3.4974;2.53864;1.95294;1.39079;1.14754;0.698826;0.481982;0.331825;0.263535;0.218613;0.166903;0.125669;0.100999;0.084446;0.072491;0.063388
AM-1989-0006;1989-01-04 07:29:40;414389;usp0003qgf;;;AM;40.9318;44.2621;2.7;ISC-webservice;TF;;;;;4.1;ISC-webservice;;;;;;;;;;;;;;A;NAB;0;HN;0;0;ERR;;AM;40.849;44.158;;B*;GEO;ESM;;;;;2.49283;463.738234;12.7;43.6;;;;;U;0;E;90;N;0;Z;0.5;0.5;0.5;40;40;40;52.65553;75.436507;30.344352;66.5010795;77.025703;48.948742;2.242911;-1.764471;-0.686638;1.88062;2.25349;1.27433;0.097907;-0.091585;-0.069845;0.0953882;0.12248;0.075927;3.545;2.75;3.24;3.195;3.57;2.71;2.95923;3.09053;1.55815;3.06089;3.52619;2.39968;39.129214039;46.3548331182;24.2201788091;44.1551697331;46.9165509356;38.1682779826;0.915865232656;1.61820074106;0.332084887533;1.26703303353;1.64851283527;0.885553028942;52.6934;54.5658;66.7918;79.8264;119.284;150.347;130.344;83.7891;85.2685;81.1573;72.6314;68.1552;54.8388;40.4055;26.2643;17.5117;13.8129;11.0517;7.92581;6.03017;3.63132;2.43985;1.79604;1.40371;1.13759;0.746331;0.538274;0.423204;0.365595;0.330519;0.289397;0.23974;0.204813;0.178859;0.158571;0.142329;75.7222;79.8557;86.0084;104.982;183.925;159.171;242.673;105.516;90.3709;93.6941;75.6542;73.9146;51.5463;33.5795;20.3077;12.5642;13.6806;14.3124;10.2784;7.25058;3.07899;2.35769;1.94169;1.64432;1.41374;1.01954;0.776091;0.615283;0.50571;0.440747;0.367334;0.284948;0.231479;0.194631;0.167495;0.146794;30.7293;32.3792;38.0911;51.5681;76.2917;112.048;76.4582;35.1964;34.4505;25.3125;29.0129;24.2312;16.9273;14.1045;10.4076;9.07967;8.28206;7.18009;5.63308;3.27947;2.47805;1.83071;1.60579;1.08657;1.08067;0.770521;0.51675;0.38066;0.309921;0.264397;0.211841;0.153712;0.117557;0.093619;0.07692;0.065602;66.93755;71.41765;86.16455;94.4778;156.6395;151.0335;200.117;91.80145;87.7541;86.93125;74.42665;70.88055;53.11485;37.32005;22.82785;16.4907;13.68725;11.90275;9.168655;6.644475;3.53043;2.602575;1.961355;1.508775;1.192915;0.8179355;0.590485;0.4564515;0.3715595;0.3309265;0.283687;0.228678;0.1894835;0.1624835;0.1420595;0.1257525;77.2215;81.1241;101.866;106.396;187.755;162.303;242.95;106.907;107.675;107.985;102.894;93.9047;68.1433;46.1169;27.5033;17.4397;14.472;15.5807;11.5456;7.17998;4.52433;3.00015;2.36572;1.93591;1.60489;1.06743;0.794528;0.617724;0.495109;0.423246;0.344098;0.258682;0.207149;0.175098;0.155182;0.13932;49.615;51.588;64.049;70.6331;110.577;123.444;116.442;74.4463;66.0699;40.4984;39.0373;27.8892;23.2336;21.2604;15.5202;11.8731;11.6351;10.3274;7.24177;4.65556;2.91677;1.98222;1.74977;1.2946;0.938897;0.635641;0.460053;0.364194;0.301284;0.257651;0.213702;0.163755;0.128033;0.103848;0.089375;0.079898
AM-1989-0006;1989-01-04 07:29:40;414389;usp0003qgf;;;AM;40.9318;44.2621;2.7;ISC-webservice;TF;;;;;4.1;ISC-webservice;;;;;;;;;;;;;;A;STPV;0;HN;0;1;BUI;P;AM;40.997;44.396;1450;A*;GEO;ESM;;;;;1.810461;415.286684;13.4;237.3;;;;;U;0;E;90;N;0;Z;0.5;0.5;0.5;40;40;40;18.185112;26.844704;18.746871;22.541953;27.620653;17.110895;0.524835;-0.588062;0.405422;0.5679875;0.60757;0.455718;0.045158;-0.052245;-0.047186;0.04849875;0.0561047;0.0381868;3.855;3.015;3.26;3.285;3.975;2.96;1.26492;1.29697;1.14357;1.31076;1.40825;1.25138;20.9487751947;22.1988257745;16.8431796232;21.7071193824;22.5624039038;20.935210195;0.210752515128;0.284570028259;0.156055828694;0.24766127722;0.285701644488;0.209620919865;18.3192;19.4222;22.6344;28.5904;55.9233;61.4723;41.4471;13.5218;19.2061;16.1541;12.4059;11.0353;7.53894;7.58565;7.48529;8.9711;7.47769;5.60759;4.10967;3.08603;3.63146;3.15004;2.10247;1.11159;0.765312;0.508849;0.334438;0.248454;0.173483;0.130612;0.117031;0.085875;0.06345;0.050191;0.042628;0.039028;27.0515;28.4865;31.0757;37.7358;85.2731;126.254;53.9072;27.9813;17.4078;17.3063;12.6979;10.1028;7.38221;7.42751;10.4014;8.6006;7.8613;7.02839;6.17367;6.16041;2.91452;1.72486;1.13817;0.840673;0.71549;0.415458;0.253218;0.195691;0.163434;0.140826;0.11248;0.078735;0.057234;0.046558;0.039942;0.035106;18.9847;19.9603;22.9598;30.6243;74.8034;75.068;31.7614;12.1403;11.3993;10.7404;9.73847;11.3705;9.62392;9.13423;8.43797;8.58596;6.69209;5.00632;4.8871;5.56443;3.52921;1.88077;1.11258;0.770629;0.639453;0.371067;0.255629;0.213533;0.174455;0.147761;0.115974;0.090609;0.070238;0.054952;0.043927;0.035978;22.5463;24.0108;29.23725;31.31025;60.8979;93.53285;47.56065;20.68715;19.80445;16.3606;11.7237;10.5391;7.757825;7.452805;10.2881;8.79774;7.459765;6.29166;5.836235;4.844215;3.141245;2.4653;1.62093;1.140155;0.8257315;0.456867;0.305071;0.220295;0.163962;0.136375;0.105916;0.076278;0.0600445;0.0497585;0.043018;0.037834;27.9267;29.4074;33.7967;38.1689;85.3224;126.957;55.7452;28.1826;21.2052;22.2466;12.7479;12.7017;8.95123;8.32632;11.509;9.48962;8.57431;8.07202;6.6664;6.22996;4.4;3.4761;2.19872;1.33903;0.929931;0.495402;0.355512;0.260437;0.188032;0.147721;0.116401;0.086988;0.067583;0.054465;0.04564;0.040572;17.2095;18.1737;21.9018;27.4893;51.9863;58.7617;31.4385;13.5184;15.0396;11.014;10.1677;7.42673;6.86032;6.18342;7.36116;8.12468;5.86692;4.67242;3.87579;2.72568;2.42237;1.64538;1.05444;0.823405;0.676767;0.380833;0.242553;0.185686;0.138678;0.109937;0.083755;0.063312;0.049006;0.041579;0.036401;0.031596
AM-1989-0006;1989-01-04 07:29:40;414389;usp0003qgf;;;AM;40.9318;44.2621;2.7;ISC-webservice;TF;;;;;4.1;ISC-webservice;;;;;;;;;;;;;;A;STRS;0;HN;0;1;BUI;;AM;40.928;43.873;1870;A*;GEO;ESM;;;;;4.433492;561.587983;32.8;89.1;;;;;U;1;E;90;N;0;Z;0.6;0.6;0.6;40;40;40;21.575273;26.864015;-6.742708;25.741729;29.057148;16.338547;0.675239;0.659111;0.256194;0.652522;0.763057;0.443374;-0.038604;0.028493;0.015373;0.03352045;0.0386045;0.0239399;2.98;2.76;3.585;2.9025;3.2;2.575;1.04957;1.08766;0.4506;1.06067;1.2367;0.838186;17.7432548926;19.5040535683;6.94740332486;18.4331008385;19.5413752057;17.6500030528;0.203517063919;0.27310551396;0.0275871523522;0.23831130231;0.283661453812;0.19296112473;21.5774;22.4178;24.1325;28.8941;40.5114;43.3487;95.3773;52.3956;27.251;16.0947;9.67741;10.052;7.80676;6.8089;8.01447;6.76187;7.03399;5.67614;3.07832;2.35174;1.73221;1.33179;0.958257;0.73502;0.560103;0.340071;0.234605;0.179227;0.132885;0.106995;0.08334;0.064944;0.055906;0.049155;0.043881;0.039634;26.894;27.9683;28.9303;35.9161;52.4187;67.247;111.993;71.7994;25.3722;16.5168;14.4602;14.8937;10.9562;8.47366;5.8912;6.19771;5.45984;4.81685;3.36386;2.66521;1.80483;1.15959;0.96798;0.717112;0.50911;0.288985;0.206404;0.151773;0.119884;0.10746;0.092762;0.075673;0.063791;0.055115;0.048508;0.043313;6.75004;8.82605;9.03869;10.9948;17.4331;32.0492;19.7358;12.0577;10.031;5.89637;4.00301;3.69229;3.20854;3.45479;2.57726;2.75103;2.16832;1.66203;1.61972;1.63269;0.816881;0.669319;0.543762;0.432206;0.345315;0.230318;0.117523;0.08412;0.0638;0.05295;0.041719;0.030333;0.023558;0.020033;0.017668;0.015819;25.8213;26.82035;28.4096;34.85145;49.9686;62.49365;104.7025;53.05485;26.61525;16.30575;12.30515;11.6565;9.726595;6.930485;6.546805;6.478235;6.291835;5.26245;3.115385;2.314645;1.713;1.22925;0.9633135;0.727016;0.5466635;0.315719;0.225333;0.174632;0.136383;0.1163315;0.096526;0.075639;0.062249;0.0535755;0.0468995;0.0419195;29.2324;30.2936;33.1416;39.1163;63.9059;72.707;126.397;72.4378;29.6261;21.442;16.8272;15.6104;11.9508;9.17403;9.1224;8.90864;8.89799;7.37338;4.22121;2.72733;2.10418;1.49997;1.04693;0.857509;0.668364;0.365759;0.256015;0.187537;0.14827;0.125771;0.106579;0.08557;0.071848;0.061998;0.054554;0.048797;16.4234;17.0133;18.0869;20.4193;31.0193;40.6606;76.5165;46.424;22.4934;11.3203;8.42686;7.31007;6.22921;5.01606;4.7533;3.22884;2.71634;2.27192;1.86324;1.77353;1.464;1.07183;0.720217;0.51302;0.405519;0.266811;0.192052;0.143761;0.11984;0.103561;0.081809;0.061666;0.049235;0.040896;0.034963;0.031335
AM-1989-0008;1989-03-30 16:36:23;411528;usp0003tfa;;;AM;41.0547;43.9487;3.2;ISC-webservice;TF;;;;;4;ISC-webservice;;;;;;;;;;;;;;A;STRS;0;HN;0;1;BUI;;AM;40.928;43.873;1870;A*;GEO;ESM;;;;;4.433492;561.587983;15.4;24.3;;;;;U;0;E;90;N;0;Z;0.5;0.5;0.5;40;40;40;-187.082079;205.13876;-119.730646;186.741165;209.672806;171.190384;4.65669;-6.452505;-2.31596;4.957845;6.45393;4.53118;0.236351;0.427336;0.252144;0.32347;0.427336;0.210061;2.43;2.17;2.43;2.3125;2.47;2.09;5.94536;10.6545;4.6313;8.5717;10.6262;5.87377;131.152502705;157.512381945;92.6074570085;147.752866375;163.362847281;129.11816934;11.1211708601;15.9826458811;5.13363245097;13.5519080804;16.4232560124;10.6805598222;188.363;229.86;288.745;344.787;434.199;438.764;512.275;408.033;212.427;111.978;76.2692;72.9463;72.0463;56.6188;38.0089;32.17;27.442;22.542;14.1897;10.3015;6.52037;5.09096;4.10287;3.24563;2.73712;1.927;1.44254;1.12755;0.912311;0.785476;0.644273;0.518295;0.443373;0.386244;0.341616;0.305987;205.408;245.039;413.461;434.068;380.493;560.126;801.335;531.584;237.914;136.306;98.0857;95.234;96.6037;93.5087;81.2874;72.6239;67.0136;58.5328;38.7321;25.3343;14.4282;12.6347;10.0545;8.64392;6.98947;3.96318;2.93411;2.18338;1.67747;1.39104;1.08812;0.779801;0.601123;0.486184;0.406848;0.359217;119.766;140.024;236.877;298.869;420.19;360.646;182.423;133.554;48.4313;52.5847;45.4853;35.2275;34.4286;26.667;17.4237;15.3713;14.5893;14.0333;12.4512;12.1868;12.5083;9.95697;7.20255;6.11256;4.46076;2.4357;1.61825;1.05602;0.856853;0.733251;0.592533;0.436178;0.337711;0.272478;0.226517;0.192774;187.5355;223.3755;301.1095;364.193;410.9355;505.732;657.173;459.9195;222.1915;124.404;78.2497;85.60295;89.35725;79.42315;59.48365;52.99345;49.41925;42.463;28.2758;19.99645;12.4829;9.48291;7.874975;6.64048;5.0163;3.065815;2.236975;1.69847;1.33091;1.131465;0.9180845;0.6980445;0.5635885;0.470326;0.4022315;0.3509425;210.663;250.9;423.485;451.982;493.096;616.289;837.251;608.193;293.388;154.599;101.712;98.8471;96.8734;108.592;83.609;74.2125;68.3332;60.0363;38.8233;25.1308;14.9303;13.2935;10.8522;8.97243;7.01195;3.89335;2.83294;2.11737;1.64878;1.38457;1.10348;0.81332;0.636755;0.520489;0.438658;0.37823;171.424;174.003;237.425;261.754;319.349;334.976;383.774;408.042;135.749;77.4156;66.4688;56.2564;54.4228;43.7519;27.6962;16.7323;13.7591;11.9557;9.45475;8.20148;6.05414;5.17071;4.1383;3.23015;2.74553;1.93169;1.43006;1.09821;0.885676;0.767391;0.628019;0.506325;0.432509;0.3729;0.327506;0.292096
