event_id;event_time;ISC_ev_id;USGS_ev_id;INGV_ev_id;EMSC_ev_id;ev_nation_code;ev_latitude;ev_longitude;ev_depth_km;ev_hyp_ref;fm_type_code;ML;ML_ref;Mw;Mw_ref;Ms;Ms_ref;EMEC_Mw;EMEC_Mw_type;EMEC_Mw_ref;event_source_id;es_strike;es_dip;es_rake;es_strike_dip_rake_ref;es_z_top;es_z_top_ref;es_length;es_width;es_geometry_ref;network_code;station_code;location_code;instrument_code;sensor_depth_m;proximity_code;housing_code;installation_code;st_nation_code;st_latitude;st_longitude;st_elevation;ec8_code;ec8_code_method;ec8_code_ref;vs30_m_sec;vs30_ref;vs30_calc_method;vs30_meas_type;slope_deg;vs30_m_sec_WA;epi_dist;epi_az;JB_dist;rup_dist;Rx_dist;Ry0_dist;instrument_type_code;late_triggered_flag_01;U_channel_code;U_azimuth_deg;V_channel_code;V_azimuth_deg;W_channel_code;U_hp;V_hp;W_hp;U_lp;V_lp;W_lp;U_pga;V_pga;W_pga;rotD50_pga;rotD100_pga;rotD00_pga;U_pgv;V_pgv;W_pgv;rotD50_pgv;rotD100_pgv;rotD00_pgv;U_pgd;V_pgd;W_pgd;rotD50_pgd;rotD100_pgd;rotD00_pgd;U_T90;V_T90;W_T90;rotD50_T90;rotD100_T90;rotD00_T90;U_housner;V_housner;W_housner;rotD50_housner;rotD100_housner;rotD00_housner;U_CAV;V_CAV;W_CAV;rotD50_CAV;rotD100_CAV;rotD00_CAV;U_ia;V_ia;W_ia;rotD50_ia;rotD100_ia;rotD00_ia;U_T0_010;U_T0_025;U_T0_040;U_T0_050;U_T0_070;U_T0_100;U_T0_150;U_T0_200;U_T0_250;U_T0_300;U_T0_350;U_T0_400;U_T0_450;U_T0_500;U_T0_600;U_T0_700;U_T0_750;U_T0_800;U_T0_900;U_T1_000;U_T1_200;U_T1_400;U_T1_600;U_T1_800;U_T2_000;U_T2_500;U_T3_000;U_T3_500;U_T4_000;U_T4_500;U_T5_000;U_T6_000;U_T7_000;U_T8_000;U_T9_000;U_T10_000;V_T0_010;V_T0_025;V_T0_040;V_T0_050;V_T0_070;V_T0_100;V_T0_150;V_T0_200;V_T0_250;V_T0_300;V_T0_350;V_T0_400;V_T0_450;V_T0_500;V_T0_600;V_T0_700;V_T0_750;V_T0_800;V_T0_900;V_T1_000;V_T1_200;V_T1_400;V_T1_600;V_T1_800;V_T2_000;V_T2_500;V_T3_000;V_T3_500;V_T4_000;V_T4_500;V_T5_000;V_T6_000;V_T7_000;V_T8_000;V_T9_000;V_T10_000;W_T0_010;W_T0_025;W_T0_040;W_T0_050;W_T0_070;W_T0_100;W_T0_150;W_T0_200;W_T0_250;W_T0_300;W_T0_350;W_T0_400;W_T0_450;W_T0_500;W_T0_600;W_T0_700;W_T0_750;W_T0_800;W_T0_900;W_T1_000;W_T1_200;W_T1_400;W_T1_600;W_T1_800;W_T2_000;W_T2_500;W_T3_000;W_T3_500;W_T4_000;W_T4_500;W_T5_000;W_T6_000;W_T7_000;W_T8_000;W_T9_000;W_T10_000;rotD50_T0_010;rotD50_T0_025;rotD50_T0_040;rotD50_T0_050;rotD50_T0_070;rotD50_T0_100;rotD50_T0_150;rotD50_T0_200;rotD50_T0_250;rotD50_T0_300;rotD50_T0_350;rotD50_T0_400;rotD50_T0_450;rotD50_T0_500;rotD50_T0_600;rotD50_T0_700;rotD50_T0_750;rotD50_T0_800;rotD50_T0_900;rotD50_T1_000;rotD50_T1_200;rotD50_T1_400;rotD50_T1_600;rotD50_T1_800;rotD50_T2_000;rotD50_T2_500;rotD50_T3_000;rotD50_T3_500;rotD50_T4_000;rotD50_T4_500;rotD50_T5_000;rotD50_T6_000;rotD50_T7_000;rotD50_T8_000;rotD50_T9_000;rotD50_T10_000;rotD100_T0_010;rotD100_T0_025;rotD100_T0_040;rotD100_T0_050;rotD100_T0_070;rotD100_T0_100;rotD100_T0_150;rotD100_T0_200;rotD100_T0_250;rotD100_T0_300;rotD100_T0_350;rotD100_T0_400;rotD100_T0_450;rotD100_T0_500;rotD100_T0_600;rotD100_T0_700;rotD100_T0_750;rotD100_T0_800;rotD100_T0_900;rotD100_T1_000;rotD100_T1_200;rotD100_T1_400;rotD100_T1_600;rotD100_T1_800;rotD100_T2_000;rotD100_T2_500;rotD100_T3_000;rotD100_T3_500;rotD100_T4_000;rotD100_T4_500;rotD100_T5_000;rotD100_T6_000;rotD100_T7_000;rotD100_T8_000;rotD100_T9_000;rotD100_T10_000;rotD00_T0_010;rotD00_T0_025;rotD00_T0_040;rotD00_T0_050;rotD00_T0_070;rotD00_T0_100;rotD00_T0_150;rotD00_T0_200;rotD00_T0_250;rotD00_T0_300;rotD00_T0_350;rotD00_T0_400;rotD00_T0_450;rotD00_T0_500;rotD00_T0_600;rotD00_T0_700;rotD00_T0_750;rotD00_T0_800;rotD00_T0_900;rotD00_T1_000;rotD00_T1_200;rotD00_T1_400;rotD00_T1_600;rotD00_T1_800;rotD00_T2_000;rotD00_T2_500;rotD00_T3_000;rotD00_T3_500;rotD00_T4_000;rotD00_T4_500;rotD00_T5_000;rotD00_T6_000;rotD00_T7_000;rotD00_T8_000;rotD00_T9_000;rotD00_T10_000
AM-1988-0004;1988-12-30 13:28:49;;;;;AM;40.92;43.98;10;ICS;TF;4.2;ICS;;;3.9;ICS;;;;;;;;;;;;;;A;STRS;0;HN;0;1;BUI;;AM;40.928;43.873;1870;A*;GEO;ESM;;;;;4.433492;561.587983;9.1;95.6;;;;;U;0;E;90;N;0;Z;0.4;0.4;0.4;40;40;40;-23.952838;27.189574;11.208656;24.53333;29.398033;18.782539;-0.634706;-0.81023;0.267445;0.7467305;0.845376;0.570765;0.045672;0.057668;-0.037451;0.0545768;0.0583968;0.0383819;2.99;2.78;4.135;2.9025;3.285;2.77;1.09403;1.66758;0.554785;1.467235;1.66777;1.09671;22.6857175068;25.7931049474;11.6439550235;24.3588740833;27.7961496788;19.7992411658;0.287534234573;0.368762142649;0.0666983446703;0.328148174722;0.439690147515;0.216606255493;23.9959;26.8051;40.1896;53.6465;82.2299;58.8779;47.846;76.8502;45.0519;27.2778;17.2651;12.5153;8.22335;6.70587;8.03597;6.33407;4.63212;3.38603;2.31894;1.61121;1.1995;1.47547;1.18674;0.843512;0.700337;0.534148;0.369352;0.281009;0.232632;0.203134;0.167612;0.126202;0.099079;0.080608;0.067388;0.057993;27.315;28.8857;37.3707;54.56;77.3567;64.8092;80.2656;63.1393;50.7399;34.0114;16.9501;12.9467;13.4546;11.6299;7.96489;8.58288;6.87071;5.00159;5.0298;4.65554;3.61006;3.18894;2.3436;1.78902;1.23941;0.583333;0.356386;0.234744;0.181379;0.166581;0.140656;0.12468;0.108886;0.095215;0.083908;0.074688;11.2418;12.7369;24.2278;35.8537;43.463;27.4417;14.9237;8.79409;8.69923;6.234;5.53477;3.65259;3.27549;3.63236;3.46139;2.76871;2.54717;2.32738;1.83398;1.71136;1.21629;0.988297;0.794485;0.67515;0.54834;0.367766;0.299254;0.224726;0.160853;0.136972;0.115002;0.08787;0.069133;0.056041;0.046545;0.039397;24.79735;26.857;39.5317;51.755;79.7943;63.9171;67.1627;70.61825;50.3039;30.3791;17.91865;13.28565;11.4103;10.512;8.053525;7.27122;6.0408;5.090885;3.9415;3.684015;2.614745;2.392935;1.81482;1.329865;0.990818;0.575484;0.396762;0.2959275;0.2285765;0.1912825;0.152489;0.1122325;0.0875495;0.071514;0.060564;0.0534785;29.4089;31.4875;43.1964;55.9867;100.492;70.079;80.4376;80.86;53.6282;36.5871;19.658;15.7488;13.7731;12.7092;10.2529;8.55763;6.75906;5.47207;5.27986;4.83116;3.5898;3.15165;2.28633;1.80203;1.28485;0.638178;0.429833;0.328068;0.257248;0.216138;0.171599;0.124732;0.096468;0.078154;0.065539;0.056367;18.9489;19.0212;27.246;37.6541;40.4097;45.9504;43.898;54.2801;41.4279;19.8647;15.3978;9.62456;7.62463;6.69247;6.86802;4.92117;4.14596;3.29664;2.16095;1.51605;1.18794;1.5391;1.21037;0.775694;0.677156;0.504487;0.312226;0.232716;0.182568;0.149806;0.118106;0.086815;0.068041;0.05719;0.048803;0.042281
AM-1988-0005;1988-12-31 04:07:09;419354;usp0003qbz;;;AM;40.9471;44.0456;2.2;ISC-webservice;TF;;;;;4.1;ISC-webservice;;;;;;;;;;;;;;A;DZHN;0;HN;0;0;ERR;;AM;40.79;44.189;;C*;GEO;ESM;;;;;1.822364;416.131493;21.2;325.3;;;;;U;0;E;90;N;0;Z;0.5;0.5;0.5;40;40;40;-49.859807;-41.771009;-15.701386;47.1637975;51.314491;38.294182;1.573088;-1.278016;-0.59286;1.41652;1.89731;1.27802;0.088418;-0.086538;-0.051841;0.08747785;0.101486;0.0659511;2.675;3.04;5.18;2.96;3.04;2.675;2.73748;3.13595;1.46979;2.999955;3.36853;2.42375;47.78314072;47.6860907643;27.52783441;47.7346157421;51.9431988722;43.9092890551;1.38633459654;1.21829444675;0.311182058368;1.30231445165;1.54313445667;1.0614946897;50.1706;51.4593;53.5864;60.565;78.8665;128.473;196.882;123.918;110.987;94.2582;69.0897;68.0493;36.3722;18.5376;19.1701;12.5478;8.2759;6.78081;4.95236;3.75047;2.96456;2.14035;2.14009;1.84444;1.30178;0.840167;0.686254;0.504507;0.412058;0.327159;0.234089;0.179897;0.140081;0.121922;0.114446;0.107033;41.9664;42.9488;44.718;47.447;68.3864;107.422;173.273;112.353;88.8168;128.785;66.7916;58.5487;47.6622;37.342;32.2825;15.536;13.4302;11.014;8.48255;6.74848;3.49257;3.00046;1.71709;1.45732;1.36856;0.77988;0.55536;0.458125;0.375754;0.316042;0.24457;0.189973;0.156791;0.130081;0.109634;0.094403;15.7336;15.8951;17.0951;22.4651;35.0834;62.8478;43.8744;37.784;76.2512;63.6591;32.687;20.2351;16.6168;10.4799;5.25718;4.87898;4.32325;4.04084;2.74344;2.28554;3.06638;2.6014;1.22201;0.906763;1.03891;0.725793;0.453985;0.302432;0.217485;0.204701;0.157576;0.104387;0.082767;0.066398;0.054956;0.046877;47.39205;48.3788;51.1846;53.9409;69.3478;116.585;176.0165;113.096;99.9493;111.9015;67.9949;63.673;42.83905;30.37535;27.2683;14.58945;10.9315;9.917545;7.07523;5.31135;3.46861;2.59166;1.984345;1.556115;1.305075;0.854138;0.598331;0.476128;0.366496;0.3074965;0.247586;0.1826965;0.1472175;0.1252495;0.110531;0.098477;51.4543;52.3253;55.7011;60.7894;81.3287;134.847;200.186;139.216;110.978;137.621;89.0724;77.6538;51.3979;37.4265;33.9878;17.6822;14.4887;11.2255;9.09109;7.49861;4.4285;3.1523;2.37524;1.84755;1.46227;0.961915;0.717229;0.514318;0.407771;0.332327;0.257685;0.209962;0.179753;0.157306;0.139579;0.125299;38.4525;39.6764;41.7635;43.2508;61.2315;99.214;144.64;84.2217;75.3331;82.1583;44.0917;41.952;30.1873;18.6648;16.0326;9.82967;7.19429;6.58195;4.79091;3.36207;2.35605;1.64619;1.5283;1.27409;1.05715;0.727907;0.516097;0.403816;0.329459;0.280614;0.220407;0.163862;0.135174;0.114182;0.098605;0.087493
AM-1988-0005;1988-12-31 04:07:09;419354;usp0003qbz;;;AM;40.9471;44.0456;2.2;ISC-webservice;TF;;;;;4.1;ISC-webservice;;;;;;;;;;;;;;A;LEN;0;HN;0;0;ERR;;AM;40.814;43.847;;C*;GEO;ESM;;;;;0.079036;216.555583;22.3;48.5;;;;;U;0;E;90;N;0;Z;0.5;0.5;0.5;40;40;40;18.323065;-29.656025;9.366068;23.325756;32.25544;13.521205;-0.752646;0.860511;0.353037;0.7602945;1.00522;0.552651;-0.103472;-0.093226;0.052149;0.0949621;0.105529;0.0760554;3.585;3.79;4.735;3.6875;3.88;3.585;2.78804;1.97179;1.15722;2.39882;2.80667;1.90316;23.0603123379;23.588078702;12.2243150932;23.3544169071;25.7181684108;20.8744597969;0.265048090382;0.333033325885;0.0638014512966;0.299040696269;0.406156326333;0.191925115313;18.3323;18.829;20.6268;25.8132;27.5865;42.3795;63.2073;79.5889;41.4673;26.4874;18.0373;16.2855;12.273;12.8022;15.7812;14.1519;10.5557;8.22252;7.85767;9.31732;7.60818;5.87235;4.777;3.64928;2.86601;1.70155;0.900595;0.531989;0.390699;0.332227;0.271593;0.199265;0.149431;0.115954;0.093062;0.076959;29.6988;31.0921;32.8171;45.855;39.196;47.8787;109.084;85.4089;34.8615;20.0718;13.2755;9.47559;12.7273;13.6968;9.61944;6.66005;6.92387;6.37196;7.91975;9.7689;4.4638;2.62573;2.45395;2.16489;1.53042;0.898229;0.644035;0.395453;0.305617;0.262989;0.207639;0.145736;0.120299;0.103698;0.09032;0.079506;9.43696;10.1153;11.9282;15.5999;37.9575;41.3161;25.1441;12.0282;12.8344;12.0177;10.2119;7.23957;7.78385;6.19968;5.11496;3.81249;4.21646;4.10468;4.33461;4.42962;5.08424;2.82506;1.55437;1.12351;0.951428;0.549823;0.293431;0.204179;0.146179;0.117025;0.109231;0.088138;0.065536;0.048167;0.038342;0.032851;23.3907;24.5672;28.22705;37.6287;34.8389;43.7671;90.85715;78.20415;36.27285;22.9684;13.52425;12.258;12.50145;13.2447;15.3432;11.16035;9.053505;7.80364;8.642745;9.400645;5.851435;4.374025;3.699165;2.743355;2.23054;1.182595;0.752322;0.466387;0.3312075;0.273472;0.217806;0.1616465;0.1264565;0.1041265;0.086718;0.075027;32.5635;34.1667;36.5605;51.7779;47.0098;52.3877;122.107;91.0814;41.705;27.0506;18.1099;16.2981;16.1917;16.3225;16.5286;15.7561;12.798;10.048;10.095;10.8534;8.09267;5.87875;4.90443;3.87969;2.90331;1.66938;0.911366;0.55312;0.40001;0.331805;0.26408;0.19223;0.146878;0.117024;0.096336;0.081425;13.7051;14.8113;16.1608;18.3314;24.9945;37.7081;48.5351;56.5184;26.4209;17.1394;11.5924;9.03268;9.57295;9.65219;9.23183;6.73145;6.63876;6.49739;7.4604;4.37622;3.80532;2.47012;1.71149;1.4864;1.41375;0.76434;0.521827;0.374144;0.283098;0.229152;0.177935;0.129888;0.102929;0.081951;0.066862;0.055822
AM-1988-0005;1988-12-31 04:07:09;419354;usp0003qbz;;;AM;40.9471;44.0456;2.2;ISC-webservice;TF;;;;;4.1;ISC-webservice;;;;;;;;;;;;;;A;MET;0;HN;0;0;ERR;;AM;40.827;44.113;;C*;GEO;ESM;;;;;5.687818;618.95622;14.5;337;;;;;U;1;E;90;N;0;Z;0.4;0.4;0.4;40;40;40;29.425496;27.302177;16.624485;28.133984;29.425495;26.400986;1.242827;-1.413697;0.710261;1.30046;1.56047;1.01967;0.112765;0.109085;-0.064811;0.1096005;0.148132;0.0934326;4.805;4.725;4.345;4.7375;5.13;4.46;2.97028;4.27394;1.38409;3.59706;4.50386;2.65434;39.1023727371;45.7235632769;17.8265304368;42.5336004511;47.2243805668;36.8255591813;0.639938351803;0.851029480785;0.153514133012;0.745483917805;0.911521748431;0.579446171357;29.4397;29.4847;30.5134;32.9504;39.6033;65.1337;125.948;104.709;60.1205;47.2589;52.5102;62.2054;39.6513;30.9313;28.4363;16.1547;12.1537;10.8974;7.15608;5.86536;4.78565;2.80347;2.19421;2.31574;2.33915;1.5648;1.12547;0.663806;0.50905;0.413005;0.308622;0.205852;0.150004;0.116591;0.094734;0.0814;27.3884;37.5226;45.6015;46.3434;63.6117;88.8296;88.22;75.9325;90.8956;95.6654;66.1363;87.8904;59.6476;39.1174;29.566;27.2505;20.8046;17.2676;15.7839;13.0382;6.91123;5.21732;4.24751;3.69299;2.63246;1.73543;0.939042;0.64899;0.480946;0.391859;0.300455;0.212077;0.162969;0.132518;0.113864;0.101023;16.9863;17.5143;35.6289;30.1511;38.6238;43.6894;32.7788;49.9948;29.9285;20.2294;22.8366;18.5404;13.3561;7.82266;9.12331;6.74452;5.28867;5.3003;3.581;3.38655;1.80236;1.83366;1.76226;1.51905;1.29215;0.952948;0.816689;0.539801;0.319054;0.252343;0.184959;0.122548;0.089638;0.07003;0.057203;0.048214;28.2746;29.51575;33.60205;38.30195;47.85865;79.54535;106.504;83.5719;75.1944;70.33785;61.645;76.0465;52.4685;36.92505;29.0012;20.78945;16.0926;13.343;12.6714;10.20765;5.1288;3.972875;3.11233;2.798375;2.42918;1.582335;1.124505;0.737723;0.4817565;0.394363;0.3034015;0.2093855;0.159326;0.12696;0.106867;0.0916555;29.4397;39.0851;47.5204;48.3111;66.3831;90.9075;126.332;105.306;97.185;97.1334;69.3856;105.831;69.2852;40.652;37.085;28.964;21.6697;17.9635;16.9632;13.9051;6.94981;5.23486;4.39747;3.95159;3.04074;1.88793;1.22418;0.840361;0.611789;0.491254;0.372635;0.262406;0.202836;0.165993;0.140654;0.122343;26.4279;27.7354;28.7379;30.8701;38.3559;59.7779;84.7285;65.6449;57.0888;45.4189;41.1939;36.8287;30.7888;24.9541;17.0726;11.2969;11.3197;9.69366;6.82907;5.30166;4.38856;2.77521;1.94073;1.59481;1.49715;1.21458;0.86692;0.634175;0.429816;0.313561;0.228575;0.161385;0.126121;0.102872;0.087355;0.076668
AM-1988-0005;1988-12-31 04:07:09;419354;usp0003qbz;;;AM;40.9471;44.0456;2.2;ISC-webservice;TF;;;;;4.1;ISC-webservice;;;;;;;;;;;;;;A;NAB;0;HN;0;0;ERR;;AM;40.849;44.158;;B*;GEO;ESM;;;;;2.49283;463.738234;14.4;319;;;;;U;0;E;90;N;0;Z;0.5;0.5;0.5;40;40;40;121.41628;129.330648;38.403307;126.0041505;130.287964;118.069855;3.821111;-4.080771;-1.33301;3.933615;4.11497;3.30297;0.227477;0.27881;-0.087814;0.2274315;0.279813;0.193212;1.185;1.13;2.395;1.14;1.395;1.06;5.01528;6.39466;2.7838;5.7849;6.44982;4.79923;79.6723045692;64.1284090965;35.10300197;73.1029085856;82.9947835452;60.5389607228;5.84568068486;4.13973574191;0.786382832276;4.99270850778;6.10894395547;3.87647253254;121.42;124.167;130.198;137.641;176.843;227.181;508.845;499.53;217.069;91.5167;66.5233;48.4607;34.345;34.4414;23.4255;14.1827;11.4527;10.8141;10.4941;8.6201;6.68546;4.71023;3.89991;3.98423;3.26131;1.99969;1.41961;1.0694;0.866955;0.759152;0.64711;0.521395;0.435605;0.373723;0.326258;0.28892;129.782;133.014;140.709;144.717;170.481;223.672;523.346;331.075;221.023;155.721;100.598;78.9411;61.9938;48.3433;32.3816;22.848;20.9004;18.3691;19.7921;16.3929;9.90319;7.75535;6.70321;5.35122;4.0193;2.252;1.54209;1.14184;0.900952;0.769189;0.629905;0.479374;0.386473;0.329303;0.285905;0.252491;38.6313;40.9563;44.1305;51.3324;66.9092;124.14;110.101;113.711;79.9553;55.1981;25.6894;23.1538;24.757;22.8274;22.8778;18.8647;15.3556;11.8896;9.54067;8.45696;6.47401;3.65085;2.56316;1.71001;1.11721;0.783979;0.636914;0.485538;0.376011;0.314006;0.250137;0.186695;0.149503;0.124987;0.107462;0.094377;126.2385;128.397;133.8285;140.849;174.1155;223.5065;518.336;425.997;220.386;144.7875;84.8748;66.3857;51.48975;39.9968;27.4641;20.6386;18.20975;16.03865;15.4135;12.85275;8.536005;6.353905;5.143245;4.116695;3.38686;2.040685;1.41289;1.066455;0.866627;0.741775;0.6154085;0.4690445;0.38224;0.322911;0.27899;0.2456555;130.585;133.797;140.91;147.596;178.721;235.509;529.311;501.597;270.915;160.72;100.75;79.2353;62.2144;48.6361;32.2609;22.8315;20.7151;19.4995;20.47;17.1261;10.9473;7.84625;6.74692;5.29424;3.98469;2.25011;1.55206;1.16285;0.921821;0.786181;0.662498;0.526863;0.435421;0.371298;0.323172;0.285814;118.623;121.586;126.496;127.706;156.604;206.63;498.153;323.363;197.066;91.848;66.3959;45.8355;32.8046;30.7828;20.8725;12.962;10.1965;9.39949;7.5112;6.46114;4.23964;3.95928;3.97818;3.53312;2.85667;1.6296;1.1472;0.892332;0.737407;0.650771;0.548547;0.422963;0.342054;0.283386;0.24741;0.220271
AM-1988-0005;1988-12-31 04:07:09;419354;usp0003qbz;;;AM;40.9471;44.0456;2.2;ISC-webservice;TF;;;;;4.1;ISC-webservice;;;;;;;;;;;;;;A;STPV;0;HN;0;1;BUI;P;AM;40.997;44.396;1450;A*;GEO;ESM;;;;;1.810461;415.286684;30;259.5;;;;;U;0;E;90;N;0;Z;0.8;0.8;0.8;40;40;40;-25.451752;23.013762;-6.77293;22.9584885;28.309818;20.767235;1.113116;-0.735112;0.247845;0.9242635;1.13508;0.676154;0.067992;0.040487;-0.016399;0.0558369;0.077359;0.0291172;1.205;1.215;5.58;1.21;1.3;0.96;1.87865;1.46102;0.531102;1.689365;2.03389;1.17307;15.1389936024;12.6820944388;6.94267407644;13.6047123839;15.5784317263;12.0772370751;0.212437404227;0.150007538898;0.0250597423445;0.181222476676;0.213421400847;0.149023525886;25.4964;26.2396;28.4633;27.0759;30.4658;54.3353;47.1843;65.6337;65.2848;68.5488;47.7569;39.818;32.8573;25.4419;13.6278;8.91902;8.03776;7.75788;5.61139;3.99171;2.28433;1.65392;1.22298;0.932255;0.887321;0.565521;0.390368;0.328243;0.276951;0.240283;0.196756;0.151224;0.123743;0.105628;0.092237;0.081826;23.1135;23.5368;24.6152;25.3431;28.4289;33.4272;66.0026;60.2403;67.1331;49.5362;32.0435;23.8239;20.6166;18.5259;13.2313;9.29422;7.11672;5.49631;3.55698;2.47841;1.56099;1.05499;0.919728;0.706015;0.519416;0.310856;0.231121;0.180238;0.143983;0.122807;0.100378;0.08056;0.06737;0.057242;0.049959;0.044984;6.78511;6.8965;8.29219;11.3448;14.9851;18.7619;21.5251;16.055;12.953;12.41;15.7835;9.03175;4.32308;4.06351;3.50698;3.17286;2.32919;1.93806;1.70524;1.55955;0.912244;0.740468;0.483549;0.32742;0.275755;0.168453;0.119315;0.07497;0.051553;0.044216;0.041203;0.039346;0.034327;0.028306;0.022893;0.018541;22.97225;23.50195;24.55895;25.62325;29.76325;55.6195;51.89875;57.8957;66.3024;60.7755;41.7503;34.1328;27.9836;22.3496;13.426;9.102355;7.58244;6.536775;4.679055;3.296975;1.943855;1.37539;1.07472;0.8259385;0.722498;0.4549555;0.317138;0.257759;0.2137595;0.1846295;0.151177;0.115285;0.0936375;0.0790795;0.0685075;0.060522;28.3321;28.9319;31.0617;30.0205;35.0781;63.7697;67.0759;65.9905;69.5966;69.9441;47.7724;40.133;34.8475;27.1863;17.7287;11.4931;9.46323;8.99779;6.49824;4.57522;2.69199;1.91244;1.49357;1.15429;1.0128;0.636695;0.443972;0.361766;0.30001;0.258992;0.212245;0.161614;0.131202;0.110653;0.095671;0.084437;20.8444;21.3186;22.358;22.8774;26.5152;29.8471;38.8;42.7394;62.1828;49.4686;30.5456;19.24;13.4279;11.3672;7.01992;3.94885;2.92097;2.70547;1.95682;1.49724;1.23163;0.770937;0.720656;0.562443;0.427371;0.267758;0.205329;0.167829;0.136372;0.118544;0.09987;0.080309;0.066665;0.056906;0.050146;0.044899
