event_id;event_time;ISC_ev_id;USGS_ev_id;INGV_ev_id;EMSC_ev_id;ev_nation_code;ev_latitude;ev_longitude;ev_depth_km;ev_hyp_ref;fm_type_code;ML;ML_ref;Mw;Mw_ref;Ms;Ms_ref;EMEC_Mw;EMEC_Mw_type;EMEC_Mw_ref;event_source_id;es_strike;es_dip;es_rake;es_strike_dip_rake_ref;es_z_top;es_z_top_ref;es_length;es_width;es_geometry_ref;network_code;station_code;location_code;instrument_code;sensor_depth_m;proximity_code;housing_code;installation_code;st_nation_code;st_latitude;st_longitude;st_elevation;ec8_code;ec8_code_method;ec8_code_ref;vs30_m_sec;vs30_ref;vs30_calc_method;vs30_meas_type;slope_deg;vs30_m_sec_WA;epi_dist;epi_az;JB_dist;rup_dist;Rx_dist;Ry0_dist;instrument_type_code;late_triggered_flag_01;U_channel_code;U_azimuth_deg;V_channel_code;V_azimuth_deg;W_channel_code;U_hp;V_hp;W_hp;U_lp;V_lp;W_lp;U_pga;V_pga;W_pga;rotD50_pga;rotD100_pga;rotD00_pga;U_pgv;V_pgv;W_pgv;rotD50_pgv;rotD100_pgv;rotD00_pgv;U_pgd;V_pgd;W_pgd;rotD50_pgd;rotD100_pgd;rotD00_pgd;U_T90;V_T90;W_T90;rotD50_T90;rotD100_T90;rotD00_T90;U_housner;V_housner;W_housner;rotD50_housner;rotD100_housner;rotD00_housner;U_CAV;V_CAV;W_CAV;rotD50_CAV;rotD100_CAV;rotD00_CAV;U_ia;V_ia;W_ia;rotD50_ia;rotD100_ia;rotD00_ia;U_T0_010;U_T0_025;U_T0_040;U_T0_050;U_T0_070;U_T0_100;U_T0_150;U_T0_200;U_T0_250;U_T0_300;U_T0_350;U_T0_400;U_T0_450;U_T0_500;U_T0_600;U_T0_700;U_T0_750;U_T0_800;U_T0_900;U_T1_000;U_T1_200;U_T1_400;U_T1_600;U_T1_800;U_T2_000;U_T2_500;U_T3_000;U_T3_500;U_T4_000;U_T4_500;U_T5_000;U_T6_000;U_T7_000;U_T8_000;U_T9_000;U_T10_000;V_T0_010;V_T0_025;V_T0_040;V_T0_050;V_T0_070;V_T0_100;V_T0_150;V_T0_200;V_T0_250;V_T0_300;V_T0_350;V_T0_400;V_T0_450;V_T0_500;V_T0_600;V_T0_700;V_T0_750;V_T0_800;V_T0_900;V_T1_000;V_T1_200;V_T1_400;V_T1_600;V_T1_800;V_T2_000;V_T2_500;V_T3_000;V_T3_500;V_T4_000;V_T4_500;V_T5_000;V_T6_000;V_T7_000;V_T8_000;V_T9_000;V_T10_000;W_T0_010;W_T0_025;W_T0_040;W_T0_050;W_T0_070;W_T0_100;W_T0_150;W_T0_200;W_T0_250;W_T0_300;W_T0_350;W_T0_400;W_T0_450;W_T0_500;W_T0_600;W_T0_700;W_T0_750;W_T0_800;W_T0_900;W_T1_000;W_T1_200;W_T1_400;W_T1_600;W_T1_800;W_T2_000;W_T2_500;W_T3_000;W_T3_500;W_T4_000;W_T4_500;W_T5_000;W_T6_000;W_T7_000;W_T8_000;W_T9_000;W_T10_000;rotD50_T0_010;rotD50_T0_025;rotD50_T0_040;rotD50_T0_050;rotD50_T0_070;rotD50_T0_100;rotD50_T0_150;rotD50_T0_200;rotD50_T0_250;rotD50_T0_300;rotD50_T0_350;rotD50_T0_400;rotD50_T0_450;rotD50_T0_500;rotD50_T0_600;rotD50_T0_700;rotD50_T0_750;rotD50_T0_800;rotD50_T0_900;rotD50_T1_000;rotD50_T1_200;rotD50_T1_400;rotD50_T1_600;rotD50_T1_800;rotD50_T2_000;rotD50_T2_500;rotD50_T3_000;rotD50_T3_500;rotD50_T4_000;rotD50_T4_500;rotD50_T5_000;rotD50_T6_000;rotD50_T7_000;rotD50_T8_000;rotD50_T9_000;rotD50_T10_000;rotD100_T0_010;rotD100_T0_025;rotD100_T0_040;rotD100_T0_050;rotD100_T0_070;rotD100_T0_100;rotD100_T0_150;rotD100_T0_200;rotD100_T0_250;rotD100_T0_300;rotD100_T0_350;rotD100_T0_400;rotD100_T0_450;rotD100_T0_500;rotD100_T0_600;rotD100_T0_700;rotD100_T0_750;rotD100_T0_800;rotD100_T0_900;rotD100_T1_000;rotD100_T1_200;rotD100_T1_400;rotD100_T1_600;rotD100_T1_800;rotD100_T2_000;rotD100_T2_500;rotD100_T3_000;rotD100_T3_500;rotD100_T4_000;rotD100_T4_500;rotD100_T5_000;rotD100_T6_000;rotD100_T7_000;rotD100_T8_000;rotD100_T9_000;rotD100_T10_000;rotD00_T0_010;rotD00_T0_025;rotD00_T0_040;rotD00_T0_050;rotD00_T0_070;rotD00_T0_100;rotD00_T0_150;rotD00_T0_200;rotD00_T0_250;rotD00_T0_300;rotD00_T0_350;rotD00_T0_400;rotD00_T0_450;rotD00_T0_500;rotD00_T0_600;rotD00_T0_700;rotD00_T0_750;rotD00_T0_800;rotD00_T0_900;rotD00_T1_000;rotD00_T1_200;rotD00_T1_400;rotD00_T1_600;rotD00_T1_800;rotD00_T2_000;rotD00_T2_500;rotD00_T3_000;rotD00_T3_500;rotD00_T4_000;rotD00_T4_500;rotD00_T5_000;rotD00_T6_000;rotD00_T7_000;rotD00_T8_000;rotD00_T9_000;rotD00_T10_000
AL-2016-0011;2016-03-06 03:11:49;;us10004vld;;;GR;40.7425;21.182;10.38;USGS-webservice;U;4.3;ISC-webservice;3.9;ISC-webservice;;;;;;;;;;;;;;;;AC;FIER;0;HN;;3;BUI;BF;AL;40.7174;19.5669;;B;VS30;Vs30_ref;374;IGEWE;0;MASW;2.06929;433.659784;136.5;88.3;;;;;D;0;E;90;N;0;Z;0.15;0.15;0.15;25;25;25;0.112614;0.111892;-0.048619;0.11881;0.134875;0.097829;-0.006417;0.007312;0.00313;0.006903975;0.00775408;0.00578421;0.000911;-0.001112;0.000558;0.00102952;0.00127769;0.000687972;39.125;35.7;48.54;37.4575;39.125;34.835;0.0249932;0.0274085;0.0126686;0.02607795;0.0298471;0.0225052;1.03230933493;1.01205914539;0.563801469892;1.0210258825;1.11017979026;0.927085684816;4.25173487029E-05;4.27148679206E-05;9.76174125802E-06;4.26161083118E-05;5.00262391376E-05;3.52059843724E-05;0.112732;0.113949;0.117347;0.11938;0.124174;0.15053;0.250649;0.310382;0.55422;0.401672;0.348005;0.259196;0.237809;0.223168;0.177223;0.19376;0.125078;0.106049;0.13527;0.097955;0.048055;0.037108;0.024761;0.02196;0.015011;0.008584;0.009275;0.007679;0.00536;0.003808;0.002339;0.001507;0.001168;0.000773;0.000606;0.000498;0.112183;0.113585;0.115033;0.11844;0.129755;0.154189;0.240773;0.436627;0.470881;0.398448;0.318677;0.308628;0.353942;0.339139;0.182151;0.165338;0.161225;0.138069;0.10766;0.063425;0.065379;0.040459;0.030661;0.024756;0.027395;0.013051;0.011027;0.008954;0.011254;0.007223;0.003406;0.002832;0.001517;0.001109;0.000919;0.000662;0.048634;0.048765;0.049515;0.050024;0.052452;0.065021;0.084575;0.118679;0.143451;0.121336;0.168417;0.135997;0.123496;0.140346;0.101114;0.076126;0.075369;0.070949;0.043794;0.044603;0.025285;0.015771;0.014241;0.013458;0.010984;0.007744;0.006076;0.004995;0.005204;0.00349;0.002346;0.001662;0.000977;0.000586;0.000435;0.000419;0.118865;0.120263;0.1233255;0.124386;0.1307795;0.1577105;0.265178;0.388436;0.490284;0.4276995;0.3519695;0.258057;0.301905;0.2781855;0.181091;0.1818385;0.142064;0.1204035;0.1166755;0.0770295;0.054766;0.0399165;0.0287375;0.0225595;0.0198215;0.011867;0.009648;0.0083955;0.008976;0.0054295;0.0030135;0.0022675;0.001328;0.0009835;0.000777;0.000612;0.135146;0.136234;0.13961;0.140926;0.150553;0.171416;0.28917;0.438078;0.591398;0.46542;0.395961;0.317315;0.402519;0.363304;0.196693;0.218957;0.187469;0.146052;0.136932;0.098247;0.071845;0.0484;0.036296;0.026861;0.027482;0.01357;0.011458;0.010865;0.011636;0.007473;0.0037;0.003164;0.001792;0.001175;0.000935;0.000734;0.097882;0.098982;0.100822;0.101677;0.110712;0.140255;0.206063;0.308244;0.4334;0.389951;0.263341;0.193599;0.194281;0.190367;0.153215;0.093911;0.103149;0.097284;0.083073;0.060897;0.040443;0.02883;0.019461;0.018419;0.011737;0.008371;0.007292;0.005483;0.005086;0.003123;0.002029;0.001262;0.000845;0.000703;0.000533;0.000492
AL-2016-0011;2016-03-06 03:11:49;;us10004vld;;;GR;40.7425;21.182;10.38;USGS-webservice;U;4.3;ISC-webservice;3.9;ISC-webservice;;;;;;;;;;;;;;;;AC;KBN;0;HN;;3;BUI;P;AL;40.6232;20.7874;991;B;VS30;Vs30_ref;742;IGEWE;0;MASW;1.972256;426.771071;35.9;68.2;;;;;D;0;E;90;N;0;Z;0.2;0.2;0.2;30;30;30;-0.973765;0.878647;0.62156;0.901555;1.017777;0.748915;0.022152;-0.025646;-0.01682;0.02717405;0.0302336;0.0207136;-0.001133;0.001519;-0.00116;0.00147548;0.00158335;0.00111746;9.645;9.65;11.005;9.6475;10.885;8.645;0.0456784;0.0597177;0.0354589;0.0533925;0.0598277;0.0450276;2.47722809907;2.25482694089;1.78846212921;2.38007793447;2.57291126625;2.17566788518;0.000836803124666;0.000708221440995;0.00040754601166;0.000772512239686;0.000918654141824;0.000626370349481;0.977402;1.00644;1.15529;1.23981;1.99144;3.13349;2.94413;2.5043;1.93515;1.0464;0.751584;0.460001;0.301386;0.406524;0.26663;0.184058;0.19972;0.193965;0.140795;0.0878;0.082531;0.046396;0.039593;0.024952;0.026247;0.014264;0.011398;0.008826;0.005641;0.004724;0.004361;0.003343;0.002567;0.00218;0.001901;0.001646;0.882918;0.899519;0.9519;1.10765;1.79661;2.95138;2.19026;1.95321;2.43776;2.08335;1.09742;0.811779;0.50216;0.600303;0.30454;0.282918;0.273199;0.23586;0.138426;0.129996;0.119285;0.082698;0.062983;0.041239;0.028251;0.017215;0.011854;0.009346;0.006813;0.005562;0.004142;0.003796;0.002954;0.002553;0.002195;0.001867;0.627962;0.660249;0.719273;0.93028;1.38191;1.866;2.43997;1.25349;1.04338;0.478526;0.484981;0.365853;0.273686;0.237436;0.157898;0.113623;0.120808;0.129955;0.146992;0.092787;0.080092;0.045719;0.044839;0.033376;0.029319;0.012765;0.006922;0.007249;0.006157;0.005177;0.00499;0.00309;0.003007;0.002229;0.001536;0.001245;0.904783;0.924761;0.9514475;1.183805;1.814945;2.87538;2.64563;2.09149;2.32669;1.61257;0.92884;0.627784;0.457489;0.5068115;0.2996435;0.2536245;0.240693;0.206872;0.1396105;0.108762;0.097423;0.063334;0.054912;0.035922;0.027379;0.015974;0.012123;0.0088345;0.0059525;0.0051055;0.004353;0.003282;0.0027125;0.0023385;0.002034;0.0018375;1.02063;1.04913;1.19448;1.2728;2.02984;3.37565;3.33089;2.52689;2.78885;2.0872;1.23212;0.811779;0.525236;0.669989;0.349092;0.28612;0.29056;0.239165;0.171619;0.129996;0.121421;0.085974;0.063317;0.043779;0.033864;0.019306;0.01343;0.009386;0.006849;0.005779;0.004629;0.003883;0.003111;0.002704;0.002341;0.002025;0.754704;0.769866;0.881208;1.05674;1.69707;2.19648;1.89677;1.66493;1.24601;0.862452;0.640333;0.440554;0.301386;0.269434;0.240472;0.179294;0.187506;0.163522;0.110181;0.086643;0.062068;0.041963;0.029698;0.024952;0.019787;0.013577;0.010768;0.008185;0.005532;0.004662;0.003751;0.002908;0.002319;0.001953;0.001676;0.001482
AL-2016-0011;2016-03-06 03:11:49;;us10004vld;;;GR;40.7425;21.182;10.38;USGS-webservice;U;4.3;ISC-webservice;3.9;ISC-webservice;;;;;;;;;;;;;;;;AC;LACI;0;HN;;3;BUI;P;AL;41.6359;19.7199;55;A;VS30;Vs30_ref;1490;IGEWE;0;MASW;9.382239;796.378812;157.8;128.5;;;;;D;0;E;90;N;0;Z;0.25;0.25;0.25;30;30;30;-0.019342;-0.021487;-0.01705;0.019707;0.022617;0.015024;-0.001217;-0.001538;0.001238;0.00133386;0.00154809;0.00110585;0.000231;-0.000229;0.000243;0.000234123;0.000312779;0.000196411;37.32;37.355;38.89;37.3525;38.935;36.335;0.00627375;0.0067466;0.00575183;0.006534315;0.00718698;0.00583619;0.192658055094;0.158803980049;0.156355810026;0.175914102514;0.195742659998;0.156954180159;1.71079623588E-06;1.22289107863E-06;1.12195124004E-06;1.46684347822E-06;1.77114822523E-06;1.16253517284E-06;0.019365;0.019762;0.020887;0.022168;0.025445;0.037483;0.05149;0.043294;0.066684;0.088342;0.057823;0.057783;0.0493;0.05608;0.039427;0.031025;0.028807;0.026073;0.027138;0.020665;0.016656;0.010118;0.009071;0.007092;0.006666;0.003707;0.002555;0.002104;0.001452;0.000797;0.000543;0.000301;0.000198;0.000174;0.000147;0.000126;0.021519;0.021748;0.023352;0.024172;0.026066;0.026718;0.033791;0.043215;0.055469;0.08556;0.074379;0.054719;0.057749;0.061424;0.050021;0.023073;0.024327;0.020833;0.027145;0.027417;0.025788;0.013627;0.008364;0.00545;0.007102;0.002582;0.002199;0.001398;0.001099;0.000746;0.000644;0.000389;0.00028;0.000224;0.0002;0.000146;0.017053;0.017224;0.018135;0.018567;0.025692;0.024729;0.038141;0.037835;0.039876;0.050817;0.052841;0.049703;0.049189;0.031749;0.02776;0.023487;0.032988;0.036164;0.0363;0.029718;0.014785;0.009595;0.008765;0.005949;0.004574;0.003276;0.002151;0.001795;0.00108;0.000824;0.000539;0.000452;0.000307;0.000233;0.00017;0.000151;0.019749;0.0201215;0.021048;0.022364;0.025158;0.032899;0.0396905;0.042528;0.0551455;0.082834;0.0631045;0.054449;0.054882;0.0555195;0.044263;0.029779;0.0292205;0.02419;0.026741;0.0235735;0.0209685;0.011378;0.008707;0.006168;0.006849;0.003588;0.0023655;0.001673;0.001233;0.0008245;0.0005815;0.00038;0.000278;0.000223;0.0001835;0.00014;0.022657;0.022915;0.025171;0.025095;0.026627;0.038217;0.05173;0.043403;0.06702;0.089614;0.089191;0.061184;0.059406;0.061474;0.058327;0.033399;0.03329;0.029357;0.028338;0.027417;0.026589;0.013627;0.009971;0.008241;0.008817;0.004282;0.002795;0.002172;0.001467;0.000865;0.000703;0.000415;0.000298;0.000237;0.000204;0.00016;0.015024;0.015315;0.015537;0.016466;0.019064;0.022918;0.033791;0.039254;0.046451;0.058223;0.039777;0.050904;0.0493;0.045803;0.029156;0.022402;0.023214;0.020054;0.02455;0.01876;0.01462;0.009553;0.006348;0.004745;0.004869;0.002368;0.001851;0.001087;0.000986;0.00073;0.00051;0.000299;0.000198;0.000162;0.000132;0.000123
AL-2016-0011;2016-03-06 03:11:49;;us10004vld;;;GR;40.7425;21.182;10.38;USGS-webservice;U;4.3;ISC-webservice;3.9;ISC-webservice;;;;;;;;;;;;;;;;AC;TIR1;0;HN;;3;BUI;P;AL;41.3357;19.8078;150;C;VS30;Vs30_ref;311;IGEWE;0;MASW;0.936647;351.53349;133;119.2;;;;;D;0;E;90;N;0;Z;0.2;0.2;0.2;30;30;30;0.130884;-0.145889;-0.067763;0.1432305;0.162822;0.119088;-0.009578;-0.010797;0.004097;0.01124495;0.012179;0.00829922;0.001485;-0.001217;-0.000548;0.00124091;0.00157093;0.00100095;31.08;34.645;39.035;34.1625;35.425;30.455;0.037863;0.0400071;0.0169091;0.0390177;0.0403492;0.0347705;0.832419115181;0.968768254786;0.555282085053;0.919619017555;0.985544469697;0.830865240049;4.25225301832E-05;5.72480911071E-05;1.55548559032E-05;4.98853239249E-05;5.81973460335E-05;4.15732692158E-05;0.130955;0.131647;0.138391;0.148542;0.172224;0.17255;0.250157;0.408679;0.404455;0.532876;0.354455;0.527138;0.362349;0.252381;0.291565;0.202319;0.210495;0.176671;0.142986;0.107282;0.100585;0.059136;0.061267;0.043471;0.035587;0.021618;0.01222;0.008166;0.007062;0.0051;0.003524;0.002489;0.001895;0.001241;0.001009;0.000945;0.146128;0.149919;0.153934;0.174172;0.221283;0.162884;0.222041;0.348367;0.456913;0.499873;0.518555;0.54176;0.468238;0.45345;0.370526;0.248707;0.222819;0.186034;0.139615;0.092248;0.09489;0.071303;0.051515;0.044626;0.033562;0.017224;0.008996;0.006381;0.004874;0.003075;0.002784;0.001712;0.001278;0.001257;0.00108;0.000846;0.068049;0.07004;0.098162;0.122111;0.227426;0.204557;0.13829;0.148932;0.133597;0.192014;0.176813;0.1251;0.104338;0.09972;0.124735;0.133433;0.141893;0.108777;0.079201;0.048644;0.050585;0.025769;0.024242;0.01655;0.017283;0.006507;0.004404;0.002846;0.002731;0.001858;0.001539;0.00113;0.000743;0.000466;0.000395;0.000332;0.143393;0.1443755;0.1593085;0.157735;0.1929595;0.170566;0.2340105;0.3682535;0.414067;0.5044415;0.47298;0.534449;0.3712005;0.3882615;0.302716;0.2231895;0.2036175;0.1821275;0.14097;0.0964955;0.0921825;0.064385;0.056823;0.04381;0.0351925;0.019582;0.0109725;0.007562;0.0056305;0.0040655;0.0031765;0.0018345;0.001441;0.001245;0.000995;0.0008325;0.162843;0.16685;0.172641;0.176753;0.221283;0.186875;0.255097;0.422744;0.460595;0.550504;0.520915;0.655229;0.496791;0.489637;0.394846;0.252688;0.222819;0.205282;0.166857;0.108533;0.100585;0.071729;0.069725;0.052519;0.040279;0.024444;0.013569;0.008821;0.007402;0.005315;0.003546;0.002553;0.001942;0.001349;0.001093;0.000979;0.119295;0.12195;0.128737;0.141065;0.156275;0.15107;0.183011;0.26664;0.311355;0.381978;0.310796;0.302492;0.278835;0.225112;0.240302;0.196633;0.174929;0.143738;0.099238;0.090879;0.067819;0.045909;0.034432;0.024572;0.026579;0.016523;0.007904;0.005661;0.004694;0.003072;0.002727;0.001639;0.001133;0.000968;0.000761;0.000676
AL-2016-0011;2016-03-06 03:11:49;;us10004vld;;;GR;40.7425;21.182;10.38;USGS-webservice;U;4.3;ISC-webservice;3.9;ISC-webservice;;;;;;;;;;;;;;;;AC;TPE;0;HN;;3;BUI;BF;AL;40.2948;20.0155;367;B;VS30;Vs30_ref;686;IGEWE;0;MASW;12.052644;866.001371;110.6;62.9;;;;;D;0;E;90;N;0;Z;0.2;0.2;0.2;25;25;25;-0.063563;-0.048963;-0.038288;0.0572155;0.063563;0.048662;-0.003464;0.003541;0.003095;0.00338673;0.00367003;0.00296801;0.000496;0.000444;0.000329;0.00047597;0.0005671;0.000386059;45.21;53.34;43.575;48.5125;53.785;44.825;0.0146658;0.013739;0.0106656;0.0142006;0.0158765;0.0120847;0.649687920001;0.559124330187;0.429162230196;0.608123815052;0.651754549851;0.558165194982;1.60580573188E-05;1.12055744577E-05;7.33893971607E-06;1.36318244932E-05;1.60735088266E-05;1.11901247525E-05;0.063725;0.065365;0.074041;0.067704;0.120843;0.184368;0.160684;0.167403;0.132132;0.125867;0.13363;0.127219;0.094671;0.106573;0.078745;0.079522;0.100492;0.104361;0.094271;0.057225;0.048239;0.021311;0.019787;0.013889;0.009457;0.0045;0.003273;0.002404;0.001754;0.001179;0.001068;0.000777;0.000647;0.000466;0.000393;0.000333;0.049118;0.049681;0.072585;0.090092;0.093342;0.113392;0.136655;0.143523;0.175396;0.117576;0.103691;0.086134;0.073652;0.075343;0.078372;0.090841;0.090618;0.098035;0.089235;0.062814;0.045293;0.018493;0.013874;0.010022;0.010628;0.005676;0.003701;0.002345;0.001651;0.001462;0.001165;0.000767;0.000581;0.000436;0.00035;0.000291;0.038599;0.040924;0.054289;0.057539;0.056568;0.102189;0.125309;0.148477;0.086667;0.111368;0.111013;0.078048;0.104432;0.09221;0.066473;0.078778;0.083307;0.067989;0.06044;0.042055;0.025836;0.017487;0.008901;0.009281;0.007407;0.004838;0.002037;0.001473;0.001134;0.001007;0.000716;0.000503;0.000519;0.000371;0.0003;0.000258;0.057427;0.0588595;0.0724745;0.085607;0.106621;0.146951;0.135242;0.1578295;0.150082;0.1220975;0.134191;0.124066;0.0817605;0.082475;0.08018;0.079881;0.097244;0.1008895;0.091753;0.065557;0.046377;0.019127;0.0172025;0.0121965;0.0096015;0.005022;0.003324;0.0026355;0.0017255;0.0012765;0.0011395;0.0007615;0.0005945;0.0004555;0.000372;0.000314;0.063725;0.065365;0.074791;0.092724;0.121349;0.185585;0.161505;0.183846;0.175842;0.133759;0.154457;0.139681;0.095365;0.106949;0.094851;0.111565;0.108395;0.136561;0.120432;0.07357;0.050521;0.021895;0.023121;0.016078;0.012209;0.005716;0.004545;0.003302;0.00184;0.001485;0.001291;0.000875;0.000666;0.000483;0.00041;0.000345;0.048857;0.049681;0.064564;0.067704;0.088694;0.10721;0.11401;0.118218;0.119675;0.106015;0.090657;0.074808;0.068806;0.073604;0.074943;0.07397;0.064046;0.061951;0.056938;0.052189;0.028246;0.017214;0.012605;0.008516;0.007426;0.004242;0.002777;0.002134;0.001613;0.001115;0.000993;0.000619;0.000538;0.000391;0.000309;0.000255
AL-2016-0011;2016-03-06 03:11:49;;us10004vld;;;GR;40.7425;21.182;10.38;USGS-webservice;U;4.3;ISC-webservice;3.9;ISC-webservice;;;;;;;;;;;;;;;;AC;VLO;0;HN;0;3;BUI;P;AL;40.4704;19.4965;159;B;VS30;Vs30_ref;375;IGEWE;0;MASW;11.051286;839.748438;145.8;77.5;;;;;D;0;E;90;N;0;Z;0.2;0.2;0.2;20;20;20;0.156149;0.13177;-0.065508;0.142617;0.158001;0.118083;-0.00808;-0.010785;-0.004442;0.00817723;0.0111363;0.0071567;-0.000733;0.001474;0.000581;0.001125765;0.00149305;0.00070948;42.185;35.575;38.95;38.5225;42.74;35.285;0.0270104;0.0481865;0.0173365;0.0387685;0.0496171;0.0248346;1.02586745041;1.03488254512;0.513914444854;1.03037499777;1.09426844018;0.969176185413;4.44439129045E-05;5.28462453E-05;1.26491047642E-05;4.86450792338E-05;5.29285098319E-05;4.43616805245E-05;0.156628;0.159645;0.190271;0.175077;0.181336;0.212804;0.396397;0.481753;0.382528;0.441541;0.232971;0.298264;0.262875;0.315817;0.210446;0.200812;0.182513;0.122058;0.083152;0.10338;0.061993;0.043103;0.023357;0.016432;0.018618;0.015462;0.00679;0.005061;0.003535;0.003198;0.002448;0.001462;0.001176;0.00087;0.000736;0.000644;0.131871;0.133992;0.149565;0.149993;0.131785;0.178753;0.299208;0.52304;0.343621;0.418116;0.504945;0.472828;0.288608;0.276427;0.31034;0.396772;0.344928;0.260036;0.249382;0.19737;0.134207;0.083894;0.065165;0.052332;0.035937;0.017729;0.009609;0.00652;0.00622;0.005007;0.002875;0.00223;0.001769;0.00152;0.001196;0.001018;0.065692;0.066375;0.06748;0.070668;0.079136;0.11004;0.092307;0.196005;0.178541;0.206685;0.158015;0.205871;0.172036;0.150596;0.141675;0.106479;0.111924;0.097105;0.065382;0.07896;0.060617;0.024162;0.01513;0.013114;0.010313;0.007441;0.005217;0.007742;0.004397;0.003214;0.002127;0.001078;0.000822;0.000521;0.000389;0.000333;0.142892;0.144611;0.1644505;0.162651;0.158545;0.187876;0.3506655;0.497956;0.3479365;0.4221195;0.4309395;0.367928;0.281577;0.2952;0.265347;0.287863;0.26346;0.203214;0.193225;0.1523745;0.1055315;0.0651415;0.0507465;0.038478;0.0269505;0.0153415;0.0080865;0.0064425;0.005139;0.0038145;0.002455;0.001701;0.001382;0.0010925;0.000854;0.0007475;0.15854;0.161409;0.190361;0.175273;0.182385;0.212804;0.490573;0.604036;0.429708;0.456283;0.506448;0.47727;0.311133;0.340207;0.320897;0.406335;0.350647;0.264663;0.256338;0.206366;0.13874;0.087611;0.067534;0.054206;0.037428;0.019006;0.01048;0.007881;0.006518;0.005249;0.002934;0.002237;0.001776;0.00152;0.001203;0.001023;0.118868;0.121706;0.140693;0.140972;0.129767;0.133984;0.239565;0.401977;0.315525;0.33087;0.232971;0.265762;0.257259;0.240543;0.158274;0.150785;0.128792;0.098507;0.082437;0.08922;0.044316;0.041902;0.022879;0.015373;0.01704;0.009778;0.006135;0.004516;0.002689;0.00236;0.001931;0.001335;0.000906;0.00079;0.000684;0.000601
