event_id;event_time;ISC_ev_id;USGS_ev_id;INGV_ev_id;EMSC_ev_id;ev_nation_code;ev_latitude;ev_longitude;ev_depth_km;ev_hyp_ref;fm_type_code;ML;ML_ref;Mw;Mw_ref;Ms;Ms_ref;EMEC_Mw;EMEC_Mw_type;EMEC_Mw_ref;event_source_id;es_strike;es_dip;es_rake;es_strike_dip_rake_ref;es_z_top;es_z_top_ref;es_length;es_width;es_geometry_ref;network_code;station_code;location_code;instrument_code;sensor_depth_m;proximity_code;housing_code;installation_code;st_nation_code;st_latitude;st_longitude;st_elevation;ec8_code;ec8_code_method;ec8_code_ref;vs30_m_sec;vs30_ref;vs30_calc_method;vs30_meas_type;slope_deg;vs30_m_sec_WA;epi_dist;epi_az;JB_dist;rup_dist;Rx_dist;Ry0_dist;instrument_type_code;late_triggered_flag_01;U_channel_code;U_azimuth_deg;V_channel_code;V_azimuth_deg;W_channel_code;U_hp;V_hp;W_hp;U_lp;V_lp;W_lp;U_pga;V_pga;W_pga;rotD50_pga;rotD100_pga;rotD00_pga;U_pgv;V_pgv;W_pgv;rotD50_pgv;rotD100_pgv;rotD00_pgv;U_pgd;V_pgd;W_pgd;rotD50_pgd;rotD100_pgd;rotD00_pgd;U_T90;V_T90;W_T90;rotD50_T90;rotD100_T90;rotD00_T90;U_housner;V_housner;W_housner;rotD50_housner;rotD100_housner;rotD00_housner;U_CAV;V_CAV;W_CAV;rotD50_CAV;rotD100_CAV;rotD00_CAV;U_ia;V_ia;W_ia;rotD50_ia;rotD100_ia;rotD00_ia;U_T0_010;U_T0_025;U_T0_040;U_T0_050;U_T0_070;U_T0_100;U_T0_150;U_T0_200;U_T0_250;U_T0_300;U_T0_350;U_T0_400;U_T0_450;U_T0_500;U_T0_600;U_T0_700;U_T0_750;U_T0_800;U_T0_900;U_T1_000;U_T1_200;U_T1_400;U_T1_600;U_T1_800;U_T2_000;U_T2_500;U_T3_000;U_T3_500;U_T4_000;U_T4_500;U_T5_000;U_T6_000;U_T7_000;U_T8_000;U_T9_000;U_T10_000;V_T0_010;V_T0_025;V_T0_040;V_T0_050;V_T0_070;V_T0_100;V_T0_150;V_T0_200;V_T0_250;V_T0_300;V_T0_350;V_T0_400;V_T0_450;V_T0_500;V_T0_600;V_T0_700;V_T0_750;V_T0_800;V_T0_900;V_T1_000;V_T1_200;V_T1_400;V_T1_600;V_T1_800;V_T2_000;V_T2_500;V_T3_000;V_T3_500;V_T4_000;V_T4_500;V_T5_000;V_T6_000;V_T7_000;V_T8_000;V_T9_000;V_T10_000;W_T0_010;W_T0_025;W_T0_040;W_T0_050;W_T0_070;W_T0_100;W_T0_150;W_T0_200;W_T0_250;W_T0_300;W_T0_350;W_T0_400;W_T0_450;W_T0_500;W_T0_600;W_T0_700;W_T0_750;W_T0_800;W_T0_900;W_T1_000;W_T1_200;W_T1_400;W_T1_600;W_T1_800;W_T2_000;W_T2_500;W_T3_000;W_T3_500;W_T4_000;W_T4_500;W_T5_000;W_T6_000;W_T7_000;W_T8_000;W_T9_000;W_T10_000;rotD50_T0_010;rotD50_T0_025;rotD50_T0_040;rotD50_T0_050;rotD50_T0_070;rotD50_T0_100;rotD50_T0_150;rotD50_T0_200;rotD50_T0_250;rotD50_T0_300;rotD50_T0_350;rotD50_T0_400;rotD50_T0_450;rotD50_T0_500;rotD50_T0_600;rotD50_T0_700;rotD50_T0_750;rotD50_T0_800;rotD50_T0_900;rotD50_T1_000;rotD50_T1_200;rotD50_T1_400;rotD50_T1_600;rotD50_T1_800;rotD50_T2_000;rotD50_T2_500;rotD50_T3_000;rotD50_T3_500;rotD50_T4_000;rotD50_T4_500;rotD50_T5_000;rotD50_T6_000;rotD50_T7_000;rotD50_T8_000;rotD50_T9_000;rotD50_T10_000;rotD100_T0_010;rotD100_T0_025;rotD100_T0_040;rotD100_T0_050;rotD100_T0_070;rotD100_T0_100;rotD100_T0_150;rotD100_T0_200;rotD100_T0_250;rotD100_T0_300;rotD100_T0_350;rotD100_T0_400;rotD100_T0_450;rotD100_T0_500;rotD100_T0_600;rotD100_T0_700;rotD100_T0_750;rotD100_T0_800;rotD100_T0_900;rotD100_T1_000;rotD100_T1_200;rotD100_T1_400;rotD100_T1_600;rotD100_T1_800;rotD100_T2_000;rotD100_T2_500;rotD100_T3_000;rotD100_T3_500;rotD100_T4_000;rotD100_T4_500;rotD100_T5_000;rotD100_T6_000;rotD100_T7_000;rotD100_T8_000;rotD100_T9_000;rotD100_T10_000;rotD00_T0_010;rotD00_T0_025;rotD00_T0_040;rotD00_T0_050;rotD00_T0_070;rotD00_T0_100;rotD00_T0_150;rotD00_T0_200;rotD00_T0_250;rotD00_T0_300;rotD00_T0_350;rotD00_T0_400;rotD00_T0_450;rotD00_T0_500;rotD00_T0_600;rotD00_T0_700;rotD00_T0_750;rotD00_T0_800;rotD00_T0_900;rotD00_T1_000;rotD00_T1_200;rotD00_T1_400;rotD00_T1_600;rotD00_T1_800;rotD00_T2_000;rotD00_T2_500;rotD00_T3_000;rotD00_T3_500;rotD00_T4_000;rotD00_T4_500;rotD00_T5_000;rotD00_T6_000;rotD00_T7_000;rotD00_T8_000;rotD00_T9_000;rotD00_T10_000
AL-2016-0012;2016-05-21 17:16:40;;us10005j57;;;MK;41.2111;21.0831;13.17;USGS-webservice;SS;4;ISC-webservice;4.2;USGS-webservice;;;;;;;;;;;;;;;;AC;DURR;0;HN;;0;FIB;P;AL;41.3199;19.4573;;C;VS30;Vs30_ref;202;IGEWE;0;MASW;0.868584;345.440083;136.8;94.5;;;;;D;0;E;90;N;0;Z;0.25;0.25;0.25;30;30;30;0.521813;-0.485882;0.272476;0.495907;0.521872;0.417439;-0.042837;0.043346;0.018856;0.04320055;0.0502034;0.0376504;-0.011719;0.008934;0.002935;0.00966096;0.011859;0.00660888;25.525;16.475;66.665;18.1175;27.68;16.165;0.203339;0.182145;0.0823254;0.183303;0.205489;0.179401;2.7381466757;3.36394050494;2.15646905535;3.12990295116;3.40407373837;2.72668361038;0.000405797806804;0.000710177909976;0.000143936987866;0.00055798783539;0.000731009220029;0.000384966539584;0.521977;0.524873;0.521056;0.533087;0.525326;0.583377;0.680112;0.840143;1.28718;1.23033;1.70485;1.79999;2.43833;1.5398;0.59565;0.540329;0.590437;0.586666;0.532969;0.581573;0.591782;0.43212;0.421604;0.345035;0.239643;0.179982;0.090387;0.052853;0.040183;0.033472;0.025532;0.017143;0.012394;0.009638;0.00777;0.006465;0.486164;0.488111;0.49282;0.491325;0.493773;0.509833;0.78613;0.812222;0.951296;1.23735;1.75734;2.6104;2.75736;1.72097;0.836969;0.619578;0.58064;0.479254;0.384228;0.40099;0.594961;0.311254;0.283692;0.260174;0.231901;0.140172;0.061549;0.03927;0.028529;0.023393;0.0185;0.012625;0.009278;0.00736;0.006063;0.00511;0.272597;0.274033;0.278495;0.281515;0.325543;0.359175;0.40345;0.561722;0.638931;0.579075;0.738321;0.973619;1.22115;0.736021;0.330886;0.223966;0.164248;0.154086;0.215483;0.226627;0.199293;0.191868;0.133854;0.14137;0.118361;0.04046;0.023775;0.021043;0.013118;0.009332;0.006489;0.004222;0.003201;0.002502;0.002038;0.001724;0.496048;0.4981645;0.504273;0.5054335;0.5036775;0.5323285;0.679047;0.813396;1.0967;1.21972;1.624865;2.006025;2.563295;1.53571;0.7931365;0.582122;0.5855385;0.531536;0.505596;0.5778295;0.5933715;0.354255;0.356595;0.3145035;0.235772;0.161176;0.077457;0.0493355;0.034764;0.0261925;0.01931;0.0133055;0.00987;0.0077815;0.006369;0.005352;0.522381;0.525262;0.526447;0.534141;0.539306;0.583377;0.78732;0.924777;1.32772;1.36135;1.78831;2.6104;2.79889;1.79345;0.881482;0.722146;0.801256;0.743663;0.589501;0.683123;0.688384;0.475264;0.428244;0.372647;0.259899;0.199243;0.106665;0.054361;0.040501;0.033717;0.025752;0.017277;0.012489;0.009697;0.007813;0.006497;0.417754;0.41842;0.422964;0.420705;0.417512;0.466585;0.600755;0.630492;0.906879;0.902021;1.02799;1.30137;1.88803;1.23918;0.578677;0.374599;0.359473;0.352444;0.365126;0.40099;0.324935;0.262356;0.283692;0.197804;0.154631;0.083469;0.049359;0.032135;0.024734;0.018216;0.014299;0.009604;0.006946;0.005493;0.004546;0.003815
AL-2016-0012;2016-05-21 17:16:40;;us10005j57;;;MK;41.2111;21.0831;13.17;USGS-webservice;SS;4;ISC-webservice;4.2;USGS-webservice;;;;;;;;;;;;;;;;AC;KBN;0;HN;;3;BUI;P;AL;40.6232;20.7874;991;B;VS30;Vs30_ref;742;IGEWE;0;MASW;1.972256;426.771071;69.9;20.8;;;;;D;0;E;90;N;0;Z;0.2;0.2;0.2;30;30;30;0.306977;0.284795;0.215518;0.295859;0.321715;0.257721;0.010638;-0.012913;0.006549;0.01339245;0.0149716;0.0105421;0.00145;-0.00152;0.000739;0.00148023;0.00208127;0.000752978;12.62;14.06;16.45;13.885;14.25;12.35;0.0379889;0.045291;0.021187;0.04161935;0.0490966;0.0311331;1.13268758479;1.17518356473;0.874900624607;1.1521459681;1.17555808571;1.12095336488;0.000135836192523;0.000129469634827;6.93444502496E-05;0.000132652925064;0.000136102316043;0.00012920348805;0.308691;0.315484;0.332872;0.364369;0.471722;0.975858;1.4577;0.784711;0.578312;0.647682;0.610674;0.64714;0.498764;0.314854;0.206728;0.099858;0.102631;0.079573;0.075259;0.084603;0.093402;0.081107;0.052694;0.043413;0.032281;0.019627;0.012735;0.008703;0.005671;0.004303;0.003131;0.002139;0.001708;0.001361;0.001067;0.000871;0.284871;0.287745;0.291519;0.326639;0.368529;0.717218;1.11488;1.16141;0.756445;0.957127;0.96697;0.714402;0.399784;0.336794;0.254117;0.176174;0.13412;0.122883;0.118557;0.121079;0.112562;0.095908;0.055902;0.043145;0.035257;0.021052;0.012213;0.007544;0.005581;0.004347;0.003524;0.002531;0.0017;0.001339;0.001067;0.000909;0.21584;0.224111;0.290415;0.250687;0.337895;0.529243;0.907675;0.656947;0.382657;0.279008;0.264146;0.346612;0.300408;0.238059;0.081471;0.08142;0.066567;0.05789;0.048664;0.048779;0.050991;0.038606;0.031943;0.02501;0.014894;0.009371;0.004707;0.002895;0.002844;0.002429;0.001663;0.001381;0.000961;0.000946;0.000673;0.000668;0.2959065;0.297619;0.3150665;0.3731685;0.423853;0.8753985;1.20756;1.08126;0.6569605;0.7866765;0.8076085;0.675446;0.432672;0.361035;0.2311735;0.1364355;0.109018;0.0988455;0.098279;0.104184;0.104196;0.0885855;0.054298;0.043279;0.033346;0.0203405;0.0124735;0.0081475;0.0056265;0.0043245;0.003317;0.0023445;0.001702;0.0013505;0.0010665;0.0009085;0.322847;0.33048;0.35404;0.395044;0.49246;1.1136;1.53492;1.17367;0.756445;1.06218;1.13113;0.928513;0.506945;0.413267;0.255694;0.183819;0.14052;0.132057;0.134064;0.144939;0.142149;0.114797;0.076735;0.054771;0.044413;0.02844;0.017471;0.011431;0.007886;0.005853;0.004677;0.003304;0.002401;0.001908;0.001507;0.001223;0.258294;0.265269;0.291519;0.322342;0.362908;0.601407;0.842456;0.783602;0.467603;0.439593;0.610511;0.536158;0.326976;0.313497;0.169519;0.08749;0.075348;0.069091;0.052705;0.051561;0.052174;0.036492;0.028167;0.02099;0.015586;0.008327;0.006951;0.004476;0.003915;0.002872;0.002192;0.001569;0.00138;0.001011;0.000848;0.000738
AL-2016-0012;2016-05-21 17:16:40;;us10005j57;;;MK;41.2111;21.0831;13.17;USGS-webservice;SS;4;ISC-webservice;4.2;USGS-webservice;;;;;;;;;;;;;;;;AC;KKS;0;HN;;2;HOU;P;AL;42.0756;20.4113;300;B;VS30;Vs30_ref;745;IGEWE;0;MASW;7.682096;742.104917;111.1;149.5;;;;;D;0;E;90;N;0;Z;0.2;0.2;0.2;25;25;25;0.105144;0.105043;0.060152;0.1050935;0.122996;0.082209;-0.004158;0.006548;-0.00453;0.00527887;0.00665291;0.00374656;0.00095;-0.001114;0.000713;0.0009576095;0.00135284;0.00075918;27.45;26.385;30.79;26.44;27.45;25.83;0.0175894;0.0211185;0.0164654;0.0192245;0.023196;0.0170957;0.568215709952;0.564479179999;0.335404020088;0.566347444975;0.60750000001;0.51404479972;2.00515079467E-05;2.07266503982E-05;6.45848277405E-06;2.03890834766E-05;2.36658502566E-05;1.71122912276E-05;0.105332;0.108094;0.115617;0.113461;0.198965;0.3217;0.361116;0.242654;0.180967;0.127125;0.136251;0.115351;0.12181;0.076455;0.122881;0.0771;0.066925;0.059967;0.060331;0.048925;0.054846;0.030833;0.029797;0.027786;0.01715;0.012903;0.008888;0.006871;0.005646;0.004396;0.002978;0.001732;0.00101;0.000745;0.000613;0.000493;0.105072;0.10842;0.116936;0.134213;0.191509;0.426796;0.336062;0.190874;0.177834;0.158656;0.1896;0.187152;0.205371;0.163289;0.092719;0.103209;0.093192;0.078694;0.055314;0.052963;0.037744;0.030935;0.035645;0.036312;0.030894;0.015548;0.009651;0.006347;0.00493;0.003594;0.002992;0.001523;0.001177;0.000951;0.000802;0.000623;0.060153;0.062039;0.061555;0.073115;0.121187;0.105595;0.161777;0.147146;0.108887;0.121148;0.102342;0.116033;0.135073;0.113786;0.080146;0.090666;0.070144;0.049339;0.059004;0.071059;0.043151;0.030872;0.026909;0.020304;0.01718;0.0119;0.008959;0.004833;0.002718;0.002002;0.001697;0.000965;0.000733;0.000596;0.000458;0.000366;0.1052015;0.108257;0.1162855;0.1295715;0.198889;0.3493995;0.343867;0.225245;0.1795375;0.141143;0.1674175;0.1663115;0.1566845;0.1320865;0.11124;0.087286;0.082652;0.0699075;0.0579465;0.050944;0.046611;0.0318655;0.0311825;0.0295445;0.026487;0.0155595;0.00922;0.0064825;0.0051935;0.0041165;0.0031085;0.001685;0.00118;0.0008435;0.0006705;0.000538;0.123107;0.126551;0.138126;0.149476;0.234689;0.433564;0.382828;0.261244;0.212681;0.15921;0.189756;0.187705;0.205861;0.167664;0.126926;0.116465;0.103307;0.098838;0.081461;0.07134;0.061595;0.039225;0.036163;0.036902;0.032327;0.018937;0.011185;0.007898;0.005991;0.004795;0.003387;0.001915;0.001331;0.001081;0.000915;0.00072;0.082273;0.084283;0.092714;0.101381;0.158361;0.281544;0.226776;0.174347;0.131961;0.118789;0.114699;0.109366;0.107624;0.076455;0.07166;0.060144;0.055314;0.046551;0.045836;0.039991;0.03576;0.026823;0.018321;0.023347;0.01715;0.010216;0.005381;0.004365;0.004669;0.003518;0.002461;0.001262;0.000965;0.000709;0.000556;0.000435
AL-2016-0012;2016-05-21 17:16:40;;us10005j57;;;MK;41.2111;21.0831;13.17;USGS-webservice;SS;4;ISC-webservice;4.2;USGS-webservice;;;;;;;;;;;;;;;;AC;LACI;0;HN;;3;BUI;P;AL;41.6359;19.7199;55;A;VS30;Vs30_ref;1490;IGEWE;0;MASW;9.382239;796.378812;123.3;112;;;;;D;0;E;90;N;0;Z;0.2;0.2;0.2;30;30;30;-0.033425;-0.043859;-0.03176;0.0356275;0.044571;0.028282;0.003246;-0.002697;0.002559;0.002885555;0.00332356;0.00245501;0.000772;-0.000563;-0.000474;0.0005682545;0.000791901;0.000529234;32.595;30.885;33.035;31.9525;32.67;30.47;0.0128678;0.0136509;0.0108809;0.01339955;0.0145621;0.0122657;0.2389320949;0.203095825065;0.201700920057;0.221173662461;0.243150215033;0.19905059997;3.43955617884E-06;2.79227151887E-06;2.54924027316E-06;3.11591565686E-06;3.643787939E-06;2.58803850834E-06;0.033439;0.033706;0.049252;0.058111;0.081983;0.071172;0.105012;0.081258;0.096456;0.070109;0.08051;0.083074;0.072412;0.057618;0.035255;0.027663;0.025646;0.021044;0.02238;0.029311;0.024235;0.028807;0.026439;0.025559;0.024006;0.015458;0.007222;0.005235;0.003358;0.002623;0.001666;0.000986;0.000672;0.000512;0.000463;0.000405;0.044115;0.047476;0.054285;0.052132;0.073628;0.104328;0.101376;0.088599;0.076713;0.052482;0.067256;0.075352;0.098823;0.084862;0.048955;0.03802;0.032197;0.031032;0.037682;0.042326;0.030412;0.026218;0.030995;0.030002;0.022229;0.007916;0.004941;0.00369;0.002382;0.001433;0.001385;0.000885;0.000586;0.000433;0.000379;0.000338;0.031978;0.032933;0.037838;0.049036;0.080094;0.085573;0.088389;0.088723;0.078258;0.055827;0.077651;0.073102;0.062752;0.061564;0.043903;0.028005;0.02546;0.018989;0.023986;0.023667;0.028295;0.030888;0.02259;0.019353;0.020853;0.006702;0.005037;0.003259;0.00161;0.001285;0.001087;0.000897;0.000603;0.000395;0.000348;0.000232;0.035763;0.0366865;0.0506;0.057753;0.077756;0.089702;0.100707;0.0880755;0.0901275;0.065005;0.0785245;0.0831765;0.0766635;0.07794;0.0475755;0.0344435;0.03098;0.0274045;0.0294825;0.0341175;0.0279315;0.0295595;0.028264;0.026909;0.023362;0.013484;0.006786;0.0045015;0.002473;0.0019355;0.0014025;0.000887;0.000616;0.0004675;0.000399;0.0003375;0.044946;0.048415;0.057015;0.060472;0.089154;0.104596;0.112615;0.102148;0.098251;0.071173;0.088816;0.089508;0.098823;0.085461;0.056226;0.04508;0.038468;0.031981;0.038995;0.048056;0.035103;0.036532;0.031178;0.03522;0.031099;0.015815;0.007493;0.005243;0.003356;0.002623;0.001718;0.001033;0.000739;0.000537;0.000471;0.000416;0.028378;0.030395;0.035141;0.052132;0.064712;0.064266;0.091328;0.061686;0.056265;0.051578;0.062354;0.062588;0.064035;0.053154;0.035255;0.027663;0.024535;0.020346;0.021011;0.024966;0.019999;0.020318;0.019482;0.015149;0.013476;0.007915;0.004046;0.002696;0.002147;0.001363;0.001131;0.000718;0.000465;0.000382;0.000337;0.000273
AL-2016-0012;2016-05-21 17:16:40;;us10005j57;;;MK;41.2111;21.0831;13.17;USGS-webservice;SS;4;ISC-webservice;4.2;USGS-webservice;;;;;;;;;;;;;;;;AC;POGR;0;HN;;3;BUI;BF;AL;40.8996;20.679;;C;VS30;Vs30_ref;352;IGEWE;0;MASW;1.831495;416.779587;48.5;44.3;;;;;D;0;E;90;N;0;Z;0.2;0.2;0.2;30;30;30;2.518928;3.755951;1.146397;2.6738485;3.761403;2.128187;0.075309;0.105383;0.037887;0.08593515;0.106175;0.0664766;-0.007132;0.006822;0.003085;0.006874725;0.00745717;0.00597533;14.2;13.645;18.54;13.97;14.305;13.115;0.229239;0.238968;0.12895;0.236645;0.250202;0.229151;7.58087148163;8.29079117423;5.31921719321;7.98174720051;8.37009643241;7.56910554176;0.00598538266262;0.00792790789927;0.00226279024291;0.0069566450284;0.00792790789927;0.00598538266262;2.52402;2.60539;2.81455;2.98849;4.81309;8.05943;9.92259;6.4842;4.79463;3.46156;2.55934;3.86707;2.71846;1.92066;1.50918;1.38963;0.995397;0.656977;0.455877;0.476732;0.434813;0.48364;0.375014;0.242877;0.148767;0.081787;0.058482;0.031286;0.021401;0.018043;0.015326;0.011808;0.009486;0.007773;0.006603;0.005743;3.79125;3.92388;3.83736;4.94772;7.90976;12.1434;8.3526;5.2616;4.19234;3.21031;2.80487;4.079;2.88261;2.46211;3.34582;1.4439;1.17732;0.876831;0.532752;0.357997;0.566625;0.37735;0.267062;0.195987;0.134606;0.061021;0.056839;0.033526;0.023082;0.018784;0.015837;0.012291;0.009461;0.007981;0.007053;0.00634;1.15224;1.26483;1.85126;2.87752;2.69736;3.39796;3.36938;1.99037;1.79736;1.37113;2.07716;2.85819;2.13512;1.74643;1.19054;1.0591;1.04274;0.691165;0.491305;0.382528;0.218633;0.13594;0.129771;0.062012;0.043936;0.026438;0.020576;0.014203;0.00998;0.008655;0.007902;0.005522;0.004529;0.003695;0.003148;0.002698;2.68722;2.78085;3.086995;3.528745;6.78441;9.878705;9.16299;6.0964;4.53011;3.3086;2.756935;3.862705;2.698075;1.97167;2.644065;1.57652;1.17672;0.829552;0.490016;0.4262635;0.474023;0.390641;0.331111;0.231457;0.142234;0.074218;0.0559635;0.0321865;0.0230515;0.019616;0.0156055;0.011809;0.0094585;0.00783;0.0067245;0.0058685;3.79583;3.93271;3.83736;4.97132;8.57461;12.1434;10.7684;7.79504;5.64472;3.92834;3.18061;4.17654;2.91054;2.47193;3.3615;1.79093;1.42517;0.988591;0.627376;0.493724;0.628193;0.484692;0.403702;0.252309;0.155404;0.083372;0.058765;0.034604;0.02473;0.021168;0.01737;0.012448;0.009845;0.008402;0.007196;0.006383;2.12832;2.15978;2.22513;2.81523;4.81309;6.19041;6.73419;3.73145;3.20976;2.28632;2.49751;3.37925;2.36555;1.66341;1.50918;1.3766;0.952933;0.635892;0.443636;0.357997;0.371061;0.349818;0.264251;0.191628;0.120339;0.060316;0.047357;0.029813;0.021228;0.017683;0.013931;0.010425;0.008428;0.006897;0.005777;0.005044
AL-2016-0012;2016-05-21 17:16:40;;us10005j57;;;MK;41.2111;21.0831;13.17;USGS-webservice;SS;4;ISC-webservice;4.2;USGS-webservice;;;;;;;;;;;;;;;;AC;TPE;0;HN;;3;BUI;BF;AL;40.2948;20.0155;367;B;VS30;Vs30_ref;686;IGEWE;0;MASW;12.052644;866.001371;135.9;41.2;;;;;D;0;E;90;N;0;Z;0.2;0.2;0.2;30;30;30;-0.124018;0.062039;0.061666;0.1040815;0.128858;0.061559;0.00781;0.005773;0.003422;0.00712612;0.00840829;0.00522514;-0.000943;-0.001005;0.000521;0.000974418;0.00132221;0.000629683;29.19;31.85;33.8;29.8075;32.9;27.82;0.0266015;0.0246909;0.0147146;0.0256291;0.0298377;0.0210061;0.6382870199;0.484484990041;0.386908890052;0.56009317493;0.641037084947;0.480909045081;2.65209964288E-05;1.3738999324E-05;8.89838437375E-06;2.01299952468E-05;2.66792622841E-05;1.35807475104E-05;0.124051;0.124998;0.126203;0.128845;0.128532;0.172719;0.205157;0.339227;0.214831;0.296952;0.333315;0.435291;0.241193;0.179982;0.106491;0.067654;0.068343;0.061425;0.062096;0.064745;0.111579;0.056951;0.035307;0.030727;0.028729;0.017068;0.008337;0.005511;0.003313;0.002445;0.001829;0.001391;0.001043;0.000871;0.000785;0.000645;0.06214;0.06307;0.066057;0.064938;0.069888;0.120662;0.139463;0.147012;0.186742;0.212402;0.279919;0.172215;0.204349;0.124825;0.098085;0.089699;0.067657;0.073654;0.092775;0.122708;0.101348;0.062552;0.044297;0.027606;0.017291;0.009976;0.008276;0.00524;0.004567;0.003432;0.002502;0.001451;0.001064;0.000955;0.000747;0.000603;0.061755;0.062322;0.064446;0.063792;0.07689;0.087304;0.135909;0.195694;0.146166;0.162392;0.221468;0.191076;0.145643;0.089739;0.055129;0.055714;0.05841;0.058909;0.054545;0.041714;0.036353;0.041643;0.021436;0.019333;0.014173;0.005823;0.003797;0.002383;0.001921;0.001888;0.001427;0.000897;0.000524;0.000467;0.000401;0.0003;0.1040875;0.1047635;0.1055325;0.1089295;0.1154155;0.1472505;0.1962775;0.255769;0.2042075;0.306083;0.320226;0.345046;0.229377;0.141347;0.104904;0.0869865;0.0688;0.0669495;0.080994;0.100632;0.1069465;0.059014;0.041704;0.0285085;0.0221325;0.0130145;0.0080705;0.00514;0.003687;0.002833;0.0021935;0.00142;0.001077;0.0008945;0.000798;0.000663;0.129017;0.129813;0.131194;0.133713;0.134719;0.176576;0.218604;0.361144;0.217903;0.334432;0.353186;0.441251;0.245379;0.18145;0.115319;0.111038;0.079727;0.075356;0.093864;0.133464;0.128823;0.074441;0.050653;0.036169;0.031184;0.017346;0.008925;0.005595;0.004833;0.003717;0.002851;0.001853;0.001325;0.001106;0.000917;0.000748;0.061655;0.062632;0.064141;0.063805;0.069887;0.106624;0.131774;0.139286;0.172398;0.195605;0.241191;0.172215;0.155126;0.103914;0.097138;0.066811;0.059311;0.052359;0.060108;0.064745;0.045817;0.037689;0.028605;0.018138;0.016979;0.009976;0.006922;0.004092;0.002858;0.002123;0.001496;0.001001;0.00071;0.000606;0.000533;0.000444
