event_id;event_time;ISC_ev_id;USGS_ev_id;INGV_ev_id;EMSC_ev_id;ev_nation_code;ev_latitude;ev_longitude;ev_depth_km;ev_hyp_ref;fm_type_code;ML;ML_ref;Mw;Mw_ref;Ms;Ms_ref;EMEC_Mw;EMEC_Mw_type;EMEC_Mw_ref;event_source_id;es_strike;es_dip;es_rake;es_strike_dip_rake_ref;es_z_top;es_z_top_ref;es_length;es_width;es_geometry_ref;network_code;station_code;location_code;instrument_code;sensor_depth_m;proximity_code;housing_code;installation_code;st_nation_code;st_latitude;st_longitude;st_elevation;ec8_code;ec8_code_method;ec8_code_ref;vs30_m_sec;vs30_ref;vs30_calc_method;vs30_meas_type;slope_deg;vs30_m_sec_WA;epi_dist;epi_az;JB_dist;rup_dist;Rx_dist;Ry0_dist;instrument_type_code;late_triggered_flag_01;U_channel_code;U_azimuth_deg;V_channel_code;V_azimuth_deg;W_channel_code;U_hp;V_hp;W_hp;U_lp;V_lp;W_lp;U_pga;V_pga;W_pga;rotD50_pga;rotD100_pga;rotD00_pga;U_pgv;V_pgv;W_pgv;rotD50_pgv;rotD100_pgv;rotD00_pgv;U_pgd;V_pgd;W_pgd;rotD50_pgd;rotD100_pgd;rotD00_pgd;U_T90;V_T90;W_T90;rotD50_T90;rotD100_T90;rotD00_T90;U_housner;V_housner;W_housner;rotD50_housner;rotD100_housner;rotD00_housner;U_CAV;V_CAV;W_CAV;rotD50_CAV;rotD100_CAV;rotD00_CAV;U_ia;V_ia;W_ia;rotD50_ia;rotD100_ia;rotD00_ia;U_T0_010;U_T0_025;U_T0_040;U_T0_050;U_T0_070;U_T0_100;U_T0_150;U_T0_200;U_T0_250;U_T0_300;U_T0_350;U_T0_400;U_T0_450;U_T0_500;U_T0_600;U_T0_700;U_T0_750;U_T0_800;U_T0_900;U_T1_000;U_T1_200;U_T1_400;U_T1_600;U_T1_800;U_T2_000;U_T2_500;U_T3_000;U_T3_500;U_T4_000;U_T4_500;U_T5_000;U_T6_000;U_T7_000;U_T8_000;U_T9_000;U_T10_000;V_T0_010;V_T0_025;V_T0_040;V_T0_050;V_T0_070;V_T0_100;V_T0_150;V_T0_200;V_T0_250;V_T0_300;V_T0_350;V_T0_400;V_T0_450;V_T0_500;V_T0_600;V_T0_700;V_T0_750;V_T0_800;V_T0_900;V_T1_000;V_T1_200;V_T1_400;V_T1_600;V_T1_800;V_T2_000;V_T2_500;V_T3_000;V_T3_500;V_T4_000;V_T4_500;V_T5_000;V_T6_000;V_T7_000;V_T8_000;V_T9_000;V_T10_000;W_T0_010;W_T0_025;W_T0_040;W_T0_050;W_T0_070;W_T0_100;W_T0_150;W_T0_200;W_T0_250;W_T0_300;W_T0_350;W_T0_400;W_T0_450;W_T0_500;W_T0_600;W_T0_700;W_T0_750;W_T0_800;W_T0_900;W_T1_000;W_T1_200;W_T1_400;W_T1_600;W_T1_800;W_T2_000;W_T2_500;W_T3_000;W_T3_500;W_T4_000;W_T4_500;W_T5_000;W_T6_000;W_T7_000;W_T8_000;W_T9_000;W_T10_000;rotD50_T0_010;rotD50_T0_025;rotD50_T0_040;rotD50_T0_050;rotD50_T0_070;rotD50_T0_100;rotD50_T0_150;rotD50_T0_200;rotD50_T0_250;rotD50_T0_300;rotD50_T0_350;rotD50_T0_400;rotD50_T0_450;rotD50_T0_500;rotD50_T0_600;rotD50_T0_700;rotD50_T0_750;rotD50_T0_800;rotD50_T0_900;rotD50_T1_000;rotD50_T1_200;rotD50_T1_400;rotD50_T1_600;rotD50_T1_800;rotD50_T2_000;rotD50_T2_500;rotD50_T3_000;rotD50_T3_500;rotD50_T4_000;rotD50_T4_500;rotD50_T5_000;rotD50_T6_000;rotD50_T7_000;rotD50_T8_000;rotD50_T9_000;rotD50_T10_000;rotD100_T0_010;rotD100_T0_025;rotD100_T0_040;rotD100_T0_050;rotD100_T0_070;rotD100_T0_100;rotD100_T0_150;rotD100_T0_200;rotD100_T0_250;rotD100_T0_300;rotD100_T0_350;rotD100_T0_400;rotD100_T0_450;rotD100_T0_500;rotD100_T0_600;rotD100_T0_700;rotD100_T0_750;rotD100_T0_800;rotD100_T0_900;rotD100_T1_000;rotD100_T1_200;rotD100_T1_400;rotD100_T1_600;rotD100_T1_800;rotD100_T2_000;rotD100_T2_500;rotD100_T3_000;rotD100_T3_500;rotD100_T4_000;rotD100_T4_500;rotD100_T5_000;rotD100_T6_000;rotD100_T7_000;rotD100_T8_000;rotD100_T9_000;rotD100_T10_000;rotD00_T0_010;rotD00_T0_025;rotD00_T0_040;rotD00_T0_050;rotD00_T0_070;rotD00_T0_100;rotD00_T0_150;rotD00_T0_200;rotD00_T0_250;rotD00_T0_300;rotD00_T0_350;rotD00_T0_400;rotD00_T0_450;rotD00_T0_500;rotD00_T0_600;rotD00_T0_700;rotD00_T0_750;rotD00_T0_800;rotD00_T0_900;rotD00_T1_000;rotD00_T1_200;rotD00_T1_400;rotD00_T1_600;rotD00_T1_800;rotD00_T2_000;rotD00_T2_500;rotD00_T3_000;rotD00_T3_500;rotD00_T4_000;rotD00_T4_500;rotD00_T5_000;rotD00_T6_000;rotD00_T7_000;rotD00_T8_000;rotD00_T9_000;rotD00_T10_000
AL-2016-0013;2016-06-04 16:38:25;;us20006226;;;GR;38.1924;20.307;20.64;USGS-webservice;U;4.7;ISC-webservice;4.5;ISC-webservice;;;;;;;;;;;;;;;;AC;FIER;0;HN;;3;BUI;BF;AL;40.7174;19.5669;;B;VS30;Vs30_ref;374;IGEWE;0;MASW;2.06929;433.659784;287.5;167;;;;;D;0;E;90;N;0;Z;0.2;0.2;0.2;30;30;30;-0.079078;0.074539;0.041626;0.082935;0.094327;0.066057;-0.009132;-0.008338;0.004053;0.008411885;0.00918071;0.00761066;-0.001506;-0.00174;0.000925;0.001828695;0.00223935;0.00150917;92.84;91.69;115.86;92.15;97.46;86.35;0.0445419;0.0426837;0.0202178;0.04390505;0.0447769;0.0418025;1.56192825036;1.40586062012;0.913613755176;1.47068683752;1.56220862513;1.40586062012;4.81395701373E-05;4.04951348632E-05;1.45629169193E-05;4.43173626256E-05;4.82435705513E-05;4.03911409215E-05;0.079088;0.079763;0.080054;0.079619;0.08509;0.090887;0.124839;0.21088;0.209532;0.230499;0.243315;0.201597;0.204491;0.220292;0.239844;0.226176;0.202524;0.18529;0.162999;0.125496;0.107812;0.113832;0.075091;0.089744;0.057205;0.033346;0.019213;0.013629;0.009987;0.008675;0.005572;0.002614;0.001813;0.001228;0.00095;0.000803;0.074539;0.075304;0.07645;0.075678;0.080942;0.10047;0.124384;0.226964;0.165383;0.184673;0.188115;0.20269;0.215089;0.20169;0.175775;0.172013;0.141607;0.139364;0.115175;0.150071;0.123826;0.117069;0.09094;0.075732;0.053824;0.04122;0.027295;0.012316;0.009832;0.007791;0.003984;0.002542;0.001924;0.001477;0.001118;0.000955;0.041814;0.042805;0.043391;0.046621;0.077985;0.123842;0.095283;0.094709;0.096733;0.105618;0.091164;0.092403;0.092381;0.122853;0.079897;0.077278;0.074476;0.075827;0.064366;0.055243;0.04556;0.048628;0.039186;0.033602;0.026031;0.021634;0.017951;0.010683;0.005486;0.003825;0.002918;0.00166;0.001146;0.000899;0.000646;0.000493;0.0830405;0.0837075;0.084352;0.0858325;0.09114;0.0978565;0.1246115;0.2125165;0.202198;0.224875;0.20503;0.2067165;0.2064975;0.22797;0.2289635;0.2190285;0.1690275;0.1635975;0.1401115;0.1310935;0.115928;0.114316;0.0812435;0.0830065;0.055562;0.0360645;0.023173;0.0126975;0.009886;0.007958;0.0048765;0.002976;0.001997;0.0015085;0.0011585;0.0009855;0.094451;0.094934;0.097992;0.098378;0.102912;0.115764;0.13778;0.228435;0.235445;0.258661;0.247157;0.235943;0.252391;0.267855;0.248833;0.23342;0.203316;0.193617;0.163025;0.153258;0.163496;0.127798;0.09094;0.09447;0.067912;0.044339;0.02933;0.014667;0.0112;0.009702;0.006247;0.003354;0.002522;0.001892;0.001438;0.001163;0.066089;0.066748;0.069385;0.072247;0.075393;0.088998;0.100364;0.17927;0.15792;0.169624;0.188115;0.191858;0.187929;0.20169;0.175775;0.164209;0.131198;0.117216;0.105064;0.095936;0.069865;0.097435;0.069492;0.064345;0.046159;0.026921;0.0151;0.011798;0.007286;0.006738;0.00394;0.002386;0.001753;0.001177;0.00095;0.000803
AL-2016-0013;2016-06-04 16:38:25;;us20006226;;;GR;38.1924;20.307;20.64;USGS-webservice;U;4.7;ISC-webservice;4.5;ISC-webservice;;;;;;;;;;;;;;;;AC;KBN;0;HN;;3;BUI;P;AL;40.6232;20.7874;991;B;VS30;Vs30_ref;742;IGEWE;0;MASW;1.972256;426.771071;273;188.9;;;;;D;0;E;90;N;0;Z;0.25;0.25;0.25;25;25;25;0.019452;0.022686;0.012747;0.019445;0.023297;0.017979;-0.002153;-0.002578;-0.001783;0.002214455;0.00257871;0.00211429;0.000444;-0.000513;0.000424;0.0005062295;0.000575914;0.000391114;91.035;90.505;97.575;90.6225;92.015;87.885;0.0117966;0.0131476;0.00886451;0.01222605;0.0133059;0.0114334;0.349399564969;0.408006519966;0.284063000065;0.376211572455;0.409853469997;0.349294990031;2.32266560891E-06;3.08941809103E-06;1.43835168744E-06;2.70603882175E-06;3.10561757661E-06;2.30646509703E-06;0.019452;0.019543;0.020857;0.020499;0.019806;0.023301;0.031112;0.034608;0.04138;0.056489;0.049299;0.05599;0.044772;0.051854;0.053316;0.047163;0.044486;0.037789;0.033439;0.044268;0.031208;0.032792;0.023394;0.01739;0.015644;0.009873;0.006111;0.003301;0.002932;0.00173;0.000981;0.000656;0.000464;0.00033;0.000258;0.000217;0.022688;0.022847;0.023334;0.023092;0.023605;0.023834;0.031711;0.030516;0.029166;0.043874;0.059929;0.0415;0.057989;0.067771;0.061412;0.052378;0.058291;0.057947;0.041445;0.036905;0.040257;0.031987;0.026393;0.0213;0.019887;0.011663;0.005907;0.003585;0.002812;0.001592;0.001192;0.000853;0.000612;0.000469;0.000373;0.000325;0.012764;0.013088;0.013032;0.015409;0.013409;0.019179;0.019243;0.024146;0.021815;0.028353;0.033064;0.036408;0.037948;0.031232;0.036508;0.028051;0.032345;0.032013;0.033062;0.02909;0.023252;0.0164;0.020521;0.018708;0.010973;0.007742;0.00422;0.0026;0.001933;0.001384;0.000903;0.000563;0.000516;0.000403;0.000327;0.000256;0.019459;0.019509;0.020654;0.020629;0.020427;0.022856;0.0313935;0.0305165;0.0339175;0.0507915;0.0538305;0.05237;0.050956;0.0578575;0.058518;0.0520625;0.046454;0.0501215;0.0381695;0.03663;0.0341225;0.0324175;0.023852;0.0191745;0.017576;0.010247;0.0064255;0.0035885;0.002875;0.001683;0.001186;0.000878;0.0005775;0.000449;0.00035;0.0003005;0.023313;0.023553;0.024139;0.023721;0.02468;0.023986;0.038026;0.035165;0.04163;0.056489;0.072257;0.058154;0.064065;0.070973;0.062829;0.05707;0.062534;0.059173;0.043278;0.04459;0.04106;0.037013;0.026479;0.025044;0.023234;0.012101;0.00736;0.003921;0.003307;0.002115;0.001315;0.000948;0.000731;0.000493;0.000382;0.00033;0.017988;0.018159;0.018466;0.018956;0.019062;0.020041;0.022974;0.028577;0.027412;0.03522;0.044892;0.039128;0.04226;0.046768;0.052075;0.042317;0.0411;0.03508;0.030718;0.032147;0.030471;0.027286;0.017382;0.013551;0.013264;0.009127;0.005503;0.003005;0.001996;0.001444;0.000879;0.000649;0.000464;0.000328;0.000248;0.000206
AM-1988-0001;1988-01-07 07:41:24;;;;;AM;40.91;44.25;6;ICS;TF;6.5;ICS;6.7;ICS;6.76;ICS;;;;;;;;;;;;;;A;GUK;0;HN;0;0;ERR;;AM;41.038;43.854;;C*;GEO;ESM;;;;;2.485111;463.189878;36.2;113;;;;;A;0;E;90;N;0;Z;0.2;0.2;0.2;25;25;25;178.752892;178.167393;130.206414;178.1107635;195.892853;153.647736;21.466717;-14.48219;-8.562458;17.71905;21.9419;13.4145;4.938742;2.962727;2.962149;3.95658;5.27962;2.50668;10.275;8.755;10.115;9.585;10.67;8.3;69.311;52.7805;36.2675;62.36655;70.6023;50.5578;361.537093419;393.66773989;237.861682553;379.342683835;395.225304039;348.911130338;25.8744426693;31.0213810852;9.79165728044;28.4479111164;31.3097672517;25.5860551244;178.802;180.839;192.981;207.073;229.807;226.913;288.072;273.718;247.641;310.032;472.478;343.213;352.338;345.581;352.659;338.18;402.836;428.655;380.516;342.409;230.666;137.515;114.393;101.605;59.5939;35.5355;34.9496;41.3645;31.8014;25.6634;18.2074;9.74775;6.46012;4.5017;3.54429;2.92277;178.211;179.015;209.203;266.986;289.325;421.652;398.963;428.786;440.46;532.115;428.791;495.097;465.097;419.135;270.191;192.304;193.3;185.363;233.851;216.74;173.601;93.3362;80.1;74.1094;44.3611;39.8186;32.1954;24.4494;17.3306;14.9619;10.9076;5.86027;4.0484;3.16941;2.45357;1.87982;130.305;137.194;169.754;221.601;266.521;248.058;166.416;206.089;155.767;151.294;192.826;160.904;91.7716;89.8638;80.365;120.503;130.155;138.421;156.249;122.934;112.617;83.8393;73.7746;44.8739;53.1304;41.3226;31.5846;21.4705;23.3823;15.2535;7.40079;4.41319;3.12336;2.67121;1.86783;1.72546;178.148;180.0125;209.3645;241.689;237.6565;308.519;341.6985;352.047;352.782;435.7235;476.444;422.17;362.8695;349.665;321.7935;252.7265;306.8305;343.905;315.489;280.032;199.5595;120.263;102.843;88.80435;52.72455;38.0702;34.08845;34.20165;25.4742;19.6188;13.9934;8.364665;5.20856;3.837755;2.95376;2.33317;195.894;198.527;225.948;280.166;291.731;425.67;399.733;437.21;447.923;532.117;494.273;529.795;467.652;436.847;372.907;339.847;402.835;428.661;381.414;342.453;231.541;137.41;117.248;113.793;66.0435;42.7868;40.0504;43.5589;31.7731;25.9556;18.3385;9.78807;6.54376;4.68181;3.67449;2.98743;153.816;154.97;165.48;184.33;192.262;195.396;232.789;198.533;231.394;285.186;415.014;328.766;298.272;285.828;240.887;173.47;175.21;185.325;225.478;216.562;172.842;85.9624;54.9172;46.5812;36.0433;31.9465;26.608;18.865;15.9377;14.2401;9.36134;5.67319;3.87842;2.89913;2.143;1.57572
AM-1988-0002;1988-01-07 07:45:45;;;;;AM;40.96;44.27;11;ICS;TF;;;;;5.8;ICS;;;;;;;;;;;;;;A;GUK;0;HN;0;0;ERR;;AM;41.038;43.854;;C*;GEO;ESM;;;;;2.485111;463.189878;36.1;103.8;;;;;A;0;E;90;N;0;Z;0.3;0.3;0.3;25;25;25;-97.595868;-141.955446;37.541613;107.869789;143.711777;85.125839;8.551233;10.018791;-2.761735;9.683655;11.8901;4.84877;1.384473;2.730885;0.558745;2.024115;2.85602;0.815381;8.875;5.825;10.52;6.6575;9.02;5.775;26.92;38.3747;9.64034;33.20655;41.5663;20.6;177.182039271;212.255719288;96.8999911576;195.962685887;214.881696771;176.927050083;6.88624736654;12.1113839677;1.645060998;9.49881603723;12.2668358678;6.73079452902;97.6453;99.7489;99.7239;106.049;130.065;152.87;178.869;190.86;151.558;139.197;155.528;162.738;192.886;202.909;185.821;199.127;182.815;162.643;101.707;74.1223;53.1538;37.5031;43.7812;37.2028;30.1932;22.1954;14.9925;8.59028;6.0181;4.78652;3.19525;2.03861;1.37762;0.97598;0.77044;0.667508;141.957;143.367;146.961;152.779;219.066;192.734;200.695;371.952;372.623;281.765;373.675;305.876;268.154;250.321;223.329;195.334;170.803;158.139;139.505;129.966;97.2609;76.3569;59.6202;55.12;42.3497;25.964;17.5234;13.1901;10.1608;8.13461;5.89863;3.77362;2.71209;2.1179;1.74184;1.47979;37.5509;38.595;42.473;53.2089;67.0295;81.6038;80.9539;105.509;113.708;74.7967;46.7035;68.7777;57.8299;60.7504;47.1007;46.7829;37.8386;25.3048;22.0995;20.0085;18.5499;20.7825;14.8441;16.1324;17.0862;6.59982;4.76733;3.70304;2.43111;1.69932;1.69515;1.17742;0.84258;0.651304;0.52387;0.421856;107.926;110.281;113.1;126.685;154.9125;176.923;199.918;303.1735;306.515;228.93;277.567;229.508;201.481;233.9985;189.619;196.2525;176.791;160.809;114.0845;105.2115;78.63115;59.7086;53.58755;47.2041;36.5922;24.5197;16.25065;11.0214;7.64706;6.1481;4.54477;2.987255;2.148735;1.64873;1.325865;1.10071;143.754;145.22;148.756;155.664;219.08;214.731;245.963;371.952;384.019;289.122;379.186;309.433;270.81;250.258;223.647;218.351;203.635;186.566;151.015;142.566;110.083;84.1735;71.8589;66.6656;48.8236;31.9948;21.5809;14.1392;10.6866;8.59635;6.35698;4.17094;2.99025;2.29224;1.83642;1.51902;85.2429;86.873;88.4086;96.6332;119.23;148.188;176.624;188.501;141.49;139.194;134.134;158.468;173.401;170.811;171.552;134.486;125.056;124.911;91.4214;59.8585;34.9945;23.7902;23.5605;18.3011;13.8017;14.0312;7.86432;4.08041;2.68795;2.20792;1.79263;1.29808;0.952202;0.764154;0.595015;0.485807
AM-1988-0004;1988-12-30 13:28:49;;;;;AM;40.92;43.98;10;ICS;TF;4.2;ICS;;;3.9;ICS;;;;;;;;;;;;;;A;LEN;0;HN;0;0;ERR;;AM;40.814;43.847;;C*;GEO;ESM;;;;;0.079036;216.555583;16.3;43.6;;;;;U;0;E;90;N;0;Z;0.6;0.6;0.6;40;40;40;11.109076;-4.583232;-4.162368;7.9979435;11.3108;4.50735;-0.396822;0.167358;0.120588;0.280979;0.397364;0.155291;0.02069;-0.018423;0.011595;0.02023265;0.0231953;0.0124797;3.305;5.19;4.53;3.9225;5.23;3.305;0.779799;0.441621;0.345645;0.6113955;0.77399;0.430109;8.45618687911;5.87445452663;4.9639508033;7.29129131165;8.45618687911;5.87304048002;0.0412040518654;0.0151367960296;0.0110481307136;0.0281704233932;0.0412040518654;0.0151367960296;11.11;11.3013;11.5665;12.5637;13.138;18.1232;33.6946;32.6247;22.9838;16.2869;13.3248;10.9888;5.98529;5.06309;6.49762;5.0189;3.88317;3.33411;2.50385;1.75118;1.57512;1.43948;0.651049;0.414018;0.328018;0.261057;0.183215;0.128205;0.089069;0.074178;0.060029;0.043266;0.030724;0.027033;0.0238;0.021552;4.58469;4.99618;5.58309;10.7628;8.10587;15.4178;21.1294;8.17318;8.83847;8.48341;8.62441;5.40152;3.92914;3.19936;2.98968;2.52637;1.90346;1.49262;1.49151;1.04649;0.625986;0.727685;0.425645;0.501051;0.454936;0.201623;0.104366;0.090554;0.070065;0.053777;0.038063;0.027141;0.022555;0.018914;0.016115;0.013963;4.1804;4.40799;5.00791;9.69268;14.0615;8.97736;12.3433;9.01871;8.98848;5.34583;4.51324;4.26915;3.86731;3.13174;2.20736;2.00917;2.16218;1.79501;1.00492;0.93113;0.852922;0.484864;0.310266;0.280488;0.2224;0.147003;0.071229;0.054345;0.046128;0.037516;0.031091;0.025583;0.019477;0.016508;0.014181;0.01234;8.005225;8.166235;9.46774;11.61765;9.89347;15.27845;24.1351;23.93425;16.3596;11.5513;11.4576;8.278645;4.68777;3.587955;4.81822;3.880425;3.19116;2.85383;2.038855;1.383775;1.11545;1.023475;0.5230845;0.4144985;0.385557;0.224476;0.128888;0.094499;0.073061;0.0598845;0.0436625;0.035112;0.0278865;0.0230315;0.019075;0.0170545;11.3109;11.5013;12.3104;14.3774;13.7001;18.2449;33.8819;32.7254;23.136;16.3326;13.9195;11.0101;6.08685;5.06623;6.51479;5.17206;3.888;3.51471;2.50725;1.80802;1.57554;1.4462;0.624794;0.466949;0.433084;0.249875;0.167282;0.12303;0.09138;0.074262;0.057889;0.043223;0.035305;0.030389;0.026847;0.024119;4.53386;4.87784;5.58271;8.71707;7.81396;12.3147;18.3008;8.17305;8.06612;7.95245;5.74323;5.402;3.85789;3.03436;2.88139;1.6164;1.70748;1.49477;1.45028;1.04542;0.558224;0.449629;0.356733;0.368233;0.31632;0.164236;0.093984;0.076555;0.053618;0.040785;0.032352;0.025952;0.021228;0.017858;0.015183;0.013054
AM-1988-0004;1988-12-30 13:28:49;;;;;AM;40.92;43.98;10;ICS;TF;4.2;ICS;;;3.9;ICS;;;;;;;;;;;;;;A;NAB;0;HN;0;0;ERR;;AM;40.849;44.158;;B*;GEO;ESM;;;;;2.49283;463.738234;16.9;297.8;;;;;U;0;E;90;N;0;Z;0.4;0.4;0.4;40;40;40;71.654441;-59.821761;28.864018;65.90432;91.282059;25.873255;2.048949;1.73378;0.791172;1.86877;2.533;1.02446;0.075868;0.128141;0.054593;0.1028684;0.144868;0.0664858;0.795;1.23;1.2;1.155;1.28;0.72;2.49335;2.51747;1.19962;2.507865;2.88691;2.12018;28.4677285341;29.470258534;13.6226707113;28.968993534;35.3293321202;19.727910393;1.02655699389;0.984954905307;0.183561381115;1.0057559496;1.66923234258;0.342279521709;71.664;73.3634;76.425;77.7625;101.487;140.135;238.498;154.245;83.0487;76.6366;56.1537;29.0781;17.3489;12.155;9.80289;8.1415;7.81031;7.74045;6.80013;5.85613;4.25843;2.26094;1.71062;1.5794;1.48521;0.923255;0.678163;0.550629;0.439169;0.369274;0.291602;0.211487;0.175875;0.156368;0.139285;0.124737;59.8388;61.2296;64.5041;63.5772;75.2302;95.213;235.759;169.495;87.6821;60.088;39.523;26.9017;19.4852;15.4178;10.4957;8.56229;7.34554;7.48043;6.94025;5.93182;3.30537;3.16388;2.53313;1.94413;1.61983;1.02671;0.812193;0.660208;0.550962;0.4839;0.405935;0.315727;0.256188;0.214308;0.183372;0.159764;29.0314;29.8443;32.1232;32.3665;37.9963;64.2319;89.1742;55.4007;37.1183;24.3692;26.3716;17.2034;12.0757;10.4574;5.00039;3.49401;3.55155;3.09984;2.04849;1.72101;1.9034;1.7195;1.33836;1.2266;0.907371;0.555902;0.524117;0.370853;0.31463;0.264236;0.199823;0.136512;0.0926;0.064855;0.053442;0.051269;66.0234;67.52195;70.8601;71.0692;88.91265;119.3775;237.1245;162.537;85.40885;72.2291;50.15125;31.0582;20.84265;13.8444;10.09655;8.468125;7.994405;7.744645;6.676025;5.62099;4.09423;2.57215;2.19322;1.871905;1.61997;1.05578;0.6586515;0.533931;0.4418095;0.386227;0.321135;0.248589;0.2012445;0.1697485;0.147595;0.1324855;91.5763;93.4137;96.4902;100.202;120.103;168.135;317.844;215.191;117.686;79.9806;56.2872;34.5204;25.1389;17.9671;11.9054;10.0636;9.68211;9.09872;7.05458;6.11065;4.50009;3.09885;2.51695;2.11266;1.94133;1.14849;0.902835;0.735192;0.610339;0.533047;0.443819;0.342509;0.276451;0.231122;0.198396;0.173586;25.9765;26.3153;28.2948;31.3168;42.8052;56.9864;91.1899;87.8798;52.3464;38.9846;29.538;24.4682;17.1471;11.6828;7.68708;6.96859;6.67767;6.04049;5.26687;5.06914;3.28683;2.10385;1.68221;1.5373;1.31954;0.726402;0.573297;0.409025;0.317407;0.26228;0.20289;0.142308;0.107135;0.090688;0.078417;0.068555
