event_id;event_time;ISC_ev_id;USGS_ev_id;INGV_ev_id;EMSC_ev_id;ev_nation_code;ev_latitude;ev_longitude;ev_depth_km;ev_hyp_ref;fm_type_code;ML;ML_ref;Mw;Mw_ref;Ms;Ms_ref;EMEC_Mw;EMEC_Mw_type;EMEC_Mw_ref;event_source_id;es_strike;es_dip;es_rake;es_strike_dip_rake_ref;es_z_top;es_z_top_ref;es_length;es_width;es_geometry_ref;network_code;station_code;location_code;instrument_code;sensor_depth_m;proximity_code;housing_code;installation_code;st_nation_code;st_latitude;st_longitude;st_elevation;ec8_code;ec8_code_method;ec8_code_ref;vs30_m_sec;vs30_ref;vs30_calc_method;vs30_meas_type;slope_deg;vs30_m_sec_WA;epi_dist;epi_az;JB_dist;rup_dist;Rx_dist;Ry0_dist;instrument_type_code;late_triggered_flag_01;U_channel_code;U_azimuth_deg;V_channel_code;V_azimuth_deg;W_channel_code;U_hp;V_hp;W_hp;U_lp;V_lp;W_lp;U_pga;V_pga;W_pga;rotD50_pga;rotD100_pga;rotD00_pga;U_pgv;V_pgv;W_pgv;rotD50_pgv;rotD100_pgv;rotD00_pgv;U_pgd;V_pgd;W_pgd;rotD50_pgd;rotD100_pgd;rotD00_pgd;U_T90;V_T90;W_T90;rotD50_T90;rotD100_T90;rotD00_T90;U_housner;V_housner;W_housner;rotD50_housner;rotD100_housner;rotD00_housner;U_CAV;V_CAV;W_CAV;rotD50_CAV;rotD100_CAV;rotD00_CAV;U_ia;V_ia;W_ia;rotD50_ia;rotD100_ia;rotD00_ia;U_T0_010;U_T0_025;U_T0_040;U_T0_050;U_T0_070;U_T0_100;U_T0_150;U_T0_200;U_T0_250;U_T0_300;U_T0_350;U_T0_400;U_T0_450;U_T0_500;U_T0_600;U_T0_700;U_T0_750;U_T0_800;U_T0_900;U_T1_000;U_T1_200;U_T1_400;U_T1_600;U_T1_800;U_T2_000;U_T2_500;U_T3_000;U_T3_500;U_T4_000;U_T4_500;U_T5_000;U_T6_000;U_T7_000;U_T8_000;U_T9_000;U_T10_000;V_T0_010;V_T0_025;V_T0_040;V_T0_050;V_T0_070;V_T0_100;V_T0_150;V_T0_200;V_T0_250;V_T0_300;V_T0_350;V_T0_400;V_T0_450;V_T0_500;V_T0_600;V_T0_700;V_T0_750;V_T0_800;V_T0_900;V_T1_000;V_T1_200;V_T1_400;V_T1_600;V_T1_800;V_T2_000;V_T2_500;V_T3_000;V_T3_500;V_T4_000;V_T4_500;V_T5_000;V_T6_000;V_T7_000;V_T8_000;V_T9_000;V_T10_000;W_T0_010;W_T0_025;W_T0_040;W_T0_050;W_T0_070;W_T0_100;W_T0_150;W_T0_200;W_T0_250;W_T0_300;W_T0_350;W_T0_400;W_T0_450;W_T0_500;W_T0_600;W_T0_700;W_T0_750;W_T0_800;W_T0_900;W_T1_000;W_T1_200;W_T1_400;W_T1_600;W_T1_800;W_T2_000;W_T2_500;W_T3_000;W_T3_500;W_T4_000;W_T4_500;W_T5_000;W_T6_000;W_T7_000;W_T8_000;W_T9_000;W_T10_000;rotD50_T0_010;rotD50_T0_025;rotD50_T0_040;rotD50_T0_050;rotD50_T0_070;rotD50_T0_100;rotD50_T0_150;rotD50_T0_200;rotD50_T0_250;rotD50_T0_300;rotD50_T0_350;rotD50_T0_400;rotD50_T0_450;rotD50_T0_500;rotD50_T0_600;rotD50_T0_700;rotD50_T0_750;rotD50_T0_800;rotD50_T0_900;rotD50_T1_000;rotD50_T1_200;rotD50_T1_400;rotD50_T1_600;rotD50_T1_800;rotD50_T2_000;rotD50_T2_500;rotD50_T3_000;rotD50_T3_500;rotD50_T4_000;rotD50_T4_500;rotD50_T5_000;rotD50_T6_000;rotD50_T7_000;rotD50_T8_000;rotD50_T9_000;rotD50_T10_000;rotD100_T0_010;rotD100_T0_025;rotD100_T0_040;rotD100_T0_050;rotD100_T0_070;rotD100_T0_100;rotD100_T0_150;rotD100_T0_200;rotD100_T0_250;rotD100_T0_300;rotD100_T0_350;rotD100_T0_400;rotD100_T0_450;rotD100_T0_500;rotD100_T0_600;rotD100_T0_700;rotD100_T0_750;rotD100_T0_800;rotD100_T0_900;rotD100_T1_000;rotD100_T1_200;rotD100_T1_400;rotD100_T1_600;rotD100_T1_800;rotD100_T2_000;rotD100_T2_500;rotD100_T3_000;rotD100_T3_500;rotD100_T4_000;rotD100_T4_500;rotD100_T5_000;rotD100_T6_000;rotD100_T7_000;rotD100_T8_000;rotD100_T9_000;rotD100_T10_000;rotD00_T0_010;rotD00_T0_025;rotD00_T0_040;rotD00_T0_050;rotD00_T0_070;rotD00_T0_100;rotD00_T0_150;rotD00_T0_200;rotD00_T0_250;rotD00_T0_300;rotD00_T0_350;rotD00_T0_400;rotD00_T0_450;rotD00_T0_500;rotD00_T0_600;rotD00_T0_700;rotD00_T0_750;rotD00_T0_800;rotD00_T0_900;rotD00_T1_000;rotD00_T1_200;rotD00_T1_400;rotD00_T1_600;rotD00_T1_800;rotD00_T2_000;rotD00_T2_500;rotD00_T3_000;rotD00_T3_500;rotD00_T4_000;rotD00_T4_500;rotD00_T5_000;rotD00_T6_000;rotD00_T7_000;rotD00_T8_000;rotD00_T9_000;rotD00_T10_000
AL-2016-0001;2016-09-12 17:53:52;;us10006p3d;;;MK;41.993;21.4464;16.23;USGS-webservice;U;4;EMSC-CSEM-webservice;;;;;;;;;;;;;;;;;;AC;POGR;0;HN;;3;BUI;BF;AL;40.8996;20.679;;C;VS30;Vs30_ref;352;IGEWE;0;MASW;1.831495;416.779587;137.3;27.6;;;;;D;0;E;90;N;0;Z;0.25;0.25;0.25;30;30;30;0.112998;0.149658;-0.101739;0.1497985;0.175951;0.112571;-0.011559;0.01537;0.009606;0.01339915;0.0155614;0.011255;-0.001791;-0.00234;0.001184;0.002369925;0.00270159;0.00161523;37.355;31.515;41.465;33.83;37.355;31.215;0.0557358;0.0703423;0.0343633;0.0638546;0.0705842;0.0550758;1.36259841518;1.49098169116;0.909245394904;1.43053656987;1.50190692467;1.35020182022;7.78305345086E-05;0.00010300485182;3.44829562071E-05;9.04176964888E-05;0.000103314187565;7.75212221544E-05;0.113131;0.113483;0.118156;0.121347;0.147022;0.153996;0.168745;0.245239;0.272777;0.354972;0.447971;0.423827;0.410919;0.343532;0.505385;0.341759;0.29637;0.321284;0.227161;0.188627;0.189061;0.1482;0.070644;0.058334;0.044006;0.021435;0.010557;0.008576;0.007054;0.00481;0.003473;0.002692;0.001869;0.001511;0.001279;0.001044;0.149886;0.151432;0.151506;0.158827;0.200639;0.267527;0.214326;0.242444;0.249295;0.411838;0.435419;0.613342;0.40853;0.409842;0.477621;0.481449;0.41722;0.414474;0.355395;0.34205;0.146901;0.188198;0.141374;0.07302;0.048284;0.02239;0.014281;0.010175;0.008113;0.006411;0.005515;0.003323;0.002735;0.00217;0.00176;0.001473;0.101822;0.102607;0.106195;0.114089;0.124452;0.155586;0.103145;0.112895;0.136927;0.189163;0.244475;0.202625;0.307036;0.295821;0.274469;0.397243;0.44609;0.298832;0.146701;0.113174;0.081188;0.066548;0.040453;0.027749;0.02398;0.011025;0.006708;0.004908;0.003478;0.002833;0.002509;0.001924;0.001477;0.001112;0.000891;0.000732;0.150069;0.151834;0.1557965;0.164949;0.186381;0.2035075;0.210799;0.265518;0.2597395;0.379419;0.4519215;0.548312;0.413685;0.373642;0.4884745;0.4470525;0.3947925;0.3425365;0.303395;0.2554525;0.150054;0.1628415;0.1200285;0.0660545;0.044085;0.023073;0.0124085;0.009276;0.008179;0.006367;0.004752;0.0034605;0.002654;0.0021455;0.001764;0.0014585;0.176026;0.177251;0.178594;0.175985;0.210978;0.287275;0.219589;0.320702;0.280998;0.412338;0.490433;0.670445;0.43787;0.476208;0.574984;0.495166;0.463985;0.422373;0.387646;0.352557;0.20415;0.201303;0.147876;0.076117;0.048863;0.026077;0.016557;0.011119;0.008561;0.00692;0.005784;0.00384;0.002836;0.002338;0.001959;0.001619;0.112731;0.113483;0.114518;0.121347;0.129956;0.148647;0.15952;0.210139;0.215456;0.341287;0.366738;0.421793;0.383849;0.322846;0.413549;0.328419;0.283824;0.282841;0.210759;0.18345;0.134542;0.113533;0.063152;0.047501;0.032788;0.018548;0.010289;0.008307;0.006906;0.00445;0.003344;0.002454;0.001761;0.00151;0.001242;0.000997
AL-2016-0002;2016-10-15 20:18:41;;us20007fnp;;;GR;39.7461;20.786;10;USGS-webservice;U;4.1;ISC-webservice;;;;;;;;;;;;;;;;;;AC;KBN;0;HN;;3;BUI;P;AL;40.6232;20.7874;991;B;VS30;Vs30_ref;742;IGEWE;0;MASW;1.972256;426.771071;97.4;180.1;;;;;D;0;E;90;N;0;Z;0.25;0.25;0.25;20;20;20;0.031102;-0.035245;0.026193;0.032095;0.039311;0.029131;-0.002807;0.003092;-0.002442;0.002966455;0.00359112;0.00260499;0.000678;-0.000572;0.000659;0.0006458985;0.000724083;0.000550602;49.16;47.46;47.345;47.9075;49.16;47.18;0.0136064;0.0133647;0.00983658;0.01348265;0.0142889;0.0124684;0.358819624886;0.37527119003;0.287611340102;0.365888569975;0.384501610184;0.347524324844;4.78320455012E-06;5.46474897428E-06;3.2315217032E-06;5.12397862587E-06;5.72696380607E-06;4.52099375109E-06;0.031102;0.031206;0.031707;0.033144;0.03372;0.046024;0.068753;0.088644;0.094562;0.121092;0.097026;0.090013;0.066191;0.055836;0.047326;0.035067;0.036107;0.039989;0.045638;0.037311;0.022114;0.028656;0.026312;0.02845;0.020648;0.013882;0.013252;0.00597;0.004971;0.003432;0.002375;0.001639;0.000839;0.000583;0.000424;0.000342;0.035299;0.035713;0.035973;0.036011;0.03958;0.049966;0.054388;0.070851;0.105269;0.100389;0.112631;0.131482;0.095554;0.111434;0.096086;0.083187;0.070074;0.053088;0.045121;0.036996;0.03418;0.02755;0.023265;0.015243;0.013878;0.009529;0.007126;0.005064;0.004408;0.003283;0.002153;0.001338;0.000996;0.000499;0.00044;0.000314;0.026293;0.02659;0.026594;0.028614;0.035479;0.060151;0.062316;0.067619;0.067439;0.073969;0.088841;0.064241;0.082159;0.098132;0.063532;0.036016;0.03713;0.03845;0.030339;0.030444;0.023593;0.017207;0.015274;0.013175;0.011839;0.00954;0.005309;0.005954;0.004061;0.004314;0.002857;0.001397;0.001009;0.000542;0.000433;0.000318;0.032125;0.0325515;0.0334495;0.0340195;0.0349365;0.0505875;0.066385;0.0773255;0.095782;0.1144075;0.105799;0.10491;0.0779005;0.0869075;0.074373;0.065799;0.057458;0.0493075;0.043902;0.0356925;0.027057;0.026696;0.0241795;0.0251015;0.0183485;0.012196;0.009596;0.005481;0.004621;0.0032895;0.0022265;0.001658;0.0009835;0.000584;0.0004515;0.000347;0.039389;0.039717;0.040238;0.040659;0.044879;0.05638;0.078616;0.090814;0.120441;0.121705;0.117064;0.136381;0.100054;0.113338;0.096086;0.090185;0.078673;0.055099;0.047837;0.037738;0.034812;0.029425;0.026606;0.028599;0.020784;0.016498;0.013525;0.007129;0.005162;0.004386;0.002685;0.001877;0.001052;0.000641;0.000481;0.000382;0.029131;0.029587;0.03043;0.030769;0.031446;0.044898;0.051536;0.067428;0.068631;0.089594;0.066167;0.064925;0.058357;0.051945;0.044515;0.03292;0.032306;0.038544;0.035803;0.029492;0.022084;0.021818;0.019773;0.01508;0.010701;0.008928;0.006716;0.004913;0.00411;0.002593;0.001616;0.001307;0.000827;0.000513;0.000399;0.00031
AL-2016-0002;2016-10-15 20:18:41;;us20007fnp;;;GR;39.7461;20.786;10;USGS-webservice;U;4.1;ISC-webservice;;;;;;;;;;;;;;;;;;AC;POGR;0;HN;;3;BUI;BF;AL;40.8996;20.679;;C;VS30;Vs30_ref;352;IGEWE;0;MASW;1.831495;416.779587;128.4;175.9;;;;;D;0;E;90;N;0;Z;0.15;0.15;0.15;25;25;25;-0.141783;-0.159113;0.080626;0.157471;0.182644;0.122692;-0.01521;0.015921;-0.007619;0.0149387;0.01614;0.0133239;0.002479;-0.002683;-0.001315;0.00254368;0.00277339;0.00222313;53.495;48.79;55.535;50.775;53.725;48.28;0.0663474;0.0789855;0.0284031;0.0717836;0.0795199;0.0660772;1.59776729035;1.80749921534;0.947637264941;1.69457610501;1.82982697976;1.58297194933;8.84760259821E-05;0.000118953149519;3.10578861481E-05;0.000103714591818;0.000123197408315;8.42317535295E-05;0.141787;0.142107;0.143764;0.150485;0.16261;0.151863;0.181379;0.220362;0.31366;0.313817;0.409579;0.36987;0.396161;0.483187;0.503571;0.273255;0.227689;0.245105;0.172898;0.199367;0.219976;0.135241;0.113833;0.114492;0.078724;0.046469;0.028529;0.022465;0.016205;0.013015;0.008272;0.006108;0.003508;0.002304;0.001867;0.001447;0.159147;0.159739;0.162269;0.163232;0.169754;0.190655;0.213279;0.25376;0.318264;0.420982;0.607315;0.796977;0.547842;0.410685;0.609037;0.461983;0.340165;0.332562;0.327857;0.231078;0.184401;0.174608;0.124139;0.098351;0.084069;0.068234;0.027028;0.021071;0.016143;0.013278;0.009282;0.005333;0.003893;0.002521;0.001946;0.001602;0.080786;0.081536;0.083894;0.081391;0.112662;0.089913;0.101061;0.123754;0.158297;0.242843;0.276446;0.220347;0.243646;0.24339;0.308571;0.183905;0.19218;0.17295;0.140113;0.123272;0.090668;0.04896;0.02867;0.023474;0.018518;0.009563;0.010202;0.006435;0.005587;0.006483;0.004913;0.004247;0.002043;0.001683;0.000943;0.000848;0.157515;0.158301;0.1604545;0.1610555;0.1696845;0.17923;0.201101;0.2430265;0.312069;0.385448;0.504054;0.6263245;0.4957775;0.412743;0.505579;0.401334;0.293951;0.2777765;0.2464525;0.2362955;0.2109725;0.1417435;0.1173695;0.105014;0.0799455;0.058212;0.0286925;0.021792;0.016559;0.0129555;0.008479;0.005641;0.003644;0.0024645;0.001863;0.0015985;0.182663;0.183312;0.184564;0.190981;0.191357;0.195542;0.226188;0.279402;0.33964;0.424857;0.631213;0.822923;0.572563;0.489738;0.652993;0.476424;0.344977;0.335312;0.327857;0.260108;0.226877;0.177211;0.133081;0.114639;0.09452;0.071731;0.030343;0.022888;0.017867;0.014157;0.009632;0.006376;0.003917;0.002545;0.001951;0.001662;0.122738;0.122897;0.126006;0.127748;0.142589;0.133172;0.15635;0.191231;0.245795;0.286945;0.405957;0.352898;0.35204;0.355387;0.381337;0.273255;0.224805;0.219702;0.17109;0.177553;0.149453;0.129612;0.103501;0.092034;0.064311;0.03997;0.024695;0.019502;0.014482;0.010302;0.007496;0.003981;0.003198;0.002144;0.001593;0.001248
AL-2016-0002;2016-10-15 20:18:41;;us20007fnp;;;GR;39.7461;20.786;10;USGS-webservice;U;4.1;ISC-webservice;;;;;;;;;;;;;;;;;;AC;TPE;0;HN;;3;BUI;BF;AL;40.2948;20.0155;367;B;VS30;Vs30_ref;686;IGEWE;0;MASW;12.052644;866.001371;89.7;132.6;;;;;D;0;E;90;N;0;Z;0.3;0.3;0.3;25;25;25;-0.279724;-0.177563;0.117879;0.2230865;0.283821;0.170541;-0.011664;-0.009167;-0.006036;0.0101518;0.0131132;0.00878584;-0.001103;-0.001155;-0.000747;0.0011376;0.00138762;0.000782588;41.815;42.665;42.69;41.9875;44.03;40.655;0.0401455;0.0390995;0.0211577;0.03957315;0.043583;0.0322851;1.54441811984;1.37363654578;0.922784694742;1.46117777998;1.55483656907;1.35337672476;0.000109180243985;8.03867775633E-05;3.57137380017E-05;9.47835129014E-05;0.00011354266082;7.60243391074E-05;0.280155;0.284051;0.292826;0.297163;0.314965;0.650641;0.554426;0.796081;0.642399;0.459249;0.458986;0.475318;0.431161;0.329989;0.207262;0.173896;0.209371;0.173009;0.174507;0.158282;0.108395;0.058521;0.042887;0.042507;0.041904;0.019313;0.008982;0.007396;0.004419;0.004132;0.002657;0.002173;0.001452;0.00118;0.000955;0.000842;0.177642;0.181368;0.195342;0.216315;0.222731;0.329233;0.435623;0.620746;0.418508;0.318701;0.343853;0.416198;0.477459;0.398199;0.153433;0.1736;0.169987;0.157698;0.211051;0.143672;0.121373;0.076109;0.038176;0.044735;0.041364;0.017594;0.010514;0.006187;0.0049;0.004341;0.002894;0.002044;0.001372;0.001038;0.000852;0.00072;0.118124;0.121253;0.142371;0.145427;0.177153;0.243434;0.392808;0.303688;0.295982;0.233046;0.26982;0.211148;0.249523;0.159375;0.12656;0.095415;0.084297;0.11835;0.094196;0.097413;0.042332;0.02745;0.028125;0.021536;0.019929;0.011113;0.007218;0.005554;0.004349;0.00341;0.00235;0.001378;0.000964;0.000642;0.00054;0.000473;0.223608;0.228122;0.237125;0.256178;0.2615075;0.5002585;0.4992355;0.6878135;0.5173645;0.3896135;0.3516345;0.425989;0.455454;0.3656075;0.1752105;0.1681745;0.1797995;0.1652575;0.1844785;0.142207;0.1153085;0.068085;0.0403815;0.0436225;0.0416305;0.017171;0.0099935;0.0068655;0.004885;0.004358;0.0027605;0.0020485;0.0014115;0.001116;0.0009145;0.000799;0.284391;0.288489;0.298822;0.308959;0.351097;0.690689;0.606859;0.855838;0.647236;0.479722;0.474389;0.534251;0.495084;0.422164;0.207735;0.180124;0.212668;0.176027;0.23016;0.160288;0.139786;0.090628;0.051236;0.058255;0.053314;0.019342;0.012404;0.007479;0.005688;0.005048;0.00338;0.002262;0.001597;0.001257;0.001069;0.000905;0.170629;0.173736;0.182791;0.205524;0.209767;0.321499;0.406374;0.477209;0.408553;0.317176;0.333654;0.397324;0.420873;0.280906;0.139528;0.134929;0.134698;0.144503;0.108985;0.100506;0.061948;0.042308;0.029381;0.021935;0.019353;0.013802;0.008017;0.005446;0.003963;0.003771;0.002519;0.001858;0.001247;0.001001;0.000839;0.000714
AL-2016-0003;2016-11-10 12:12:42;;us100076m6;;;GR;41.0713;22.6802;10;USGS-webservice;U;;;4.4;ISC-webservice;;;;;;;;;;;;;;;;AC;KBN;0;HN;;3;BUI;P;AL;40.6232;20.7874;991;B;VS30;Vs30_ref;742;IGEWE;0;MASW;1.972256;426.771071;167.2;72.1;;;;;D;0;E;90;N;0;Z;0.1;0.1;0.2;30;30;30;-0.048682;0.057708;-0.029478;0.0517135;0.057708;0.038257;-0.005808;0.008819;-0.00494;0.006407795;0.0088836;0.00512232;0.001954;-0.002276;0.001119;0.00213377;0.00235283;0.00159199;63.265;48.555;55.275;53.5725;63.265;47.525;0.0266217;0.0422131;0.0240576;0.03447515;0.0423681;0.0253283;0.520748914872;0.676127940007;0.482742499785;0.61102555495;0.677817189965;0.519317110017;7.11489607084E-06;1.49304435501E-05;6.32527871891E-06;1.1022670873E-05;1.49774599145E-05;7.06787735174E-06;0.04869;0.049102;0.049039;0.049874;0.050114;0.050942;0.055894;0.066543;0.079785;0.073742;0.077436;0.082197;0.116488;0.114274;0.103344;0.098437;0.082005;0.096227;0.137882;0.111147;0.061598;0.056817;0.063367;0.052429;0.029722;0.020961;0.015868;0.010376;0.010974;0.011372;0.008486;0.006891;0.00448;0.003029;0.001886;0.001439;0.057769;0.057867;0.059359;0.061378;0.061346;0.06424;0.062681;0.079827;0.105392;0.136326;0.126061;0.123716;0.168961;0.262674;0.218403;0.198728;0.229015;0.230801;0.170039;0.177471;0.130145;0.139031;0.090674;0.051618;0.037119;0.020474;0.011775;0.007734;0.007137;0.006572;0.005813;0.003845;0.002827;0.002317;0.00198;0.001912;0.029489;0.029653;0.030642;0.032883;0.032406;0.041344;0.040635;0.0473;0.050997;0.067099;0.075014;0.085825;0.100077;0.075692;0.086693;0.082746;0.110091;0.113458;0.095521;0.115042;0.085263;0.057868;0.046084;0.03628;0.025631;0.018761;0.009359;0.006324;0.005985;0.003864;0.003265;0.002067;0.001275;0.000891;0.000667;0.000546;0.051721;0.051936;0.052606;0.0530875;0.0539025;0.05603;0.056965;0.070908;0.083204;0.101296;0.101439;0.106734;0.1235115;0.187704;0.156319;0.163053;0.1721245;0.1750595;0.138622;0.136375;0.1156665;0.10487;0.0801075;0.051017;0.032475;0.019918;0.012936;0.0093705;0.009577;0.009188;0.007138;0.0056575;0.004139;0.002862;0.0019815;0.001712;0.057769;0.05844;0.059692;0.061858;0.061464;0.064303;0.064303;0.08092;0.1055;0.136326;0.126205;0.123817;0.17268;0.262864;0.219494;0.212311;0.236039;0.245027;0.170039;0.183645;0.133663;0.143185;0.090675;0.05807;0.038558;0.021037;0.015868;0.010653;0.011634;0.012149;0.009537;0.006889;0.004875;0.0033;0.002384;0.001916;0.038282;0.038562;0.039262;0.04014;0.039418;0.040396;0.043154;0.059263;0.064956;0.06348;0.072154;0.076423;0.109091;0.109381;0.09626;0.093704;0.082005;0.087901;0.121334;0.082678;0.059345;0.051958;0.042904;0.031192;0.024204;0.018569;0.009773;0.007283;0.006512;0.004985;0.004177;0.003005;0.002641;0.002144;0.001592;0.001349
AL-2016-0004;2016-10-16 02:18:44;;us20007fuy;;;GR;39.752;20.696;14.6;ISC-webservice;U;4;ISC-webservice;4;ISC-webservice;;;;;;;;;;;;;;;;AC;DURR;0;HN;;0;FIB;P;AL;41.3199;19.4573;;C;VS30;Vs30_ref;202;IGEWE;0;MASW;0.868584;345.440083;203.3;148.5;;;;;D;0;E;90;N;0;Z;0.2;0.2;0.2;25;25;25;0.091675;0.080241;-0.048216;0.0839095;0.100526;0.071543;-0.006367;-0.006968;0.003642;0.007238275;0.00808714;0.00636614;0.001655;-0.001602;-0.000751;0.00165699;0.0019404;0.0013234;61.86;62.635;81.005;62;62.635;61.065;0.0387738;0.0348334;0.0185452;0.03717585;0.0387772;0.0342618;1.14021514517;1.20507090499;0.841942885321;1.16478134968;1.21690274018;1.12184769984;3.34690557077E-05;3.61585137385E-05;1.57965134306E-05;3.48137829983E-05;3.71345848598E-05;3.24929843009E-05;0.091836;0.092395;0.093929;0.095808;0.111461;0.110432;0.147149;0.186883;0.229227;0.272474;0.259794;0.291329;0.186421;0.212244;0.182817;0.164054;0.145946;0.117293;0.118904;0.13892;0.092405;0.088932;0.081394;0.064565;0.045753;0.031247;0.02184;0.012177;0.008165;0.005665;0.003738;0.002279;0.001758;0.001328;0.001002;0.000843;0.080337;0.080856;0.082872;0.088202;0.105879;0.090305;0.119579;0.141277;0.181968;0.208038;0.189584;0.343289;0.226963;0.229673;0.171101;0.166121;0.116307;0.132453;0.161978;0.125163;0.092409;0.055574;0.048294;0.04873;0.041017;0.030582;0.021579;0.016241;0.009544;0.007671;0.005047;0.002463;0.001593;0.001333;0.000926;0.000776;0.048233;0.049455;0.053195;0.072356;0.086345;0.088813;0.084632;0.105728;0.164478;0.257509;0.191247;0.216153;0.165849;0.140568;0.124259;0.137342;0.085899;0.073578;0.066112;0.056601;0.044677;0.042542;0.02501;0.017265;0.015458;0.012496;0.009367;0.008865;0.005223;0.002956;0.00247;0.001472;0.00086;0.000652;0.000542;0.000419;0.083968;0.084529;0.08592;0.0896265;0.1021415;0.093674;0.14052;0.165496;0.1894765;0.263632;0.2300125;0.2911765;0.2202765;0.2236005;0.189493;0.1650875;0.1477505;0.1394985;0.131044;0.1392375;0.092407;0.0681415;0.06623;0.0538785;0.0437315;0.0326365;0.0236645;0.012992;0.0085245;0.0065235;0.0043165;0.0024835;0.001698;0.0013305;0.000968;0.0008005;0.100625;0.101035;0.10237;0.103467;0.114883;0.120805;0.150256;0.188123;0.23626;0.283004;0.26076;0.369093;0.257197;0.25353;0.213197;0.197207;0.180122;0.166969;0.161978;0.150947;0.104625;0.090592;0.085832;0.064565;0.047107;0.034292;0.02613;0.017738;0.01041;0.00865;0.005082;0.00302;0.001917;0.00152;0.001078;0.000905;0.071553;0.072177;0.07255;0.0743;0.087336;0.080153;0.103477;0.133766;0.175116;0.208038;0.189204;0.206639;0.157185;0.195422;0.164946;0.127804;0.116307;0.112832;0.107439;0.118622;0.066603;0.05196;0.043168;0.043951;0.03689;0.029406;0.019275;0.01163;0.007284;0.005403;0.003584;0.002147;0.001522;0.001128;0.000865;0.000707
