Record Sequence Number,EQID,Earthquake Name,Country,Year,Month,Day,Hour,Minute,Second,Epicenter Latitude (deg, positive N),Epicenter Longitude (deg, positive E),Hypocenter Depth (km),Magnitude,Magnitude type,Magnitude uncertainty,Mo (dyne.cm),Tectonic environment (Crustal, Inslab, Interface, Stable, Geothermal, Volcanic, Oceanic_crust),Earthquake in Extensional Regime: 1=Yes, 0=No,Nodal Plane 1 Strike (deg),Nodal Plane 1 Dip (deg),Nodal Plane 1 Rake Angle (deg),Nodal Plane 2 Strike (deg),Nodal Plane 2 Dip (deg),Nodal Plane 2 Rake Angle (deg),Fault Plane (1,2, X),Style-of-Faulting (S, R, N, U),Fault Name,Depth to Top Of Fault Rupture Model,Fault Rupture Length (km),Fault Rupture Width (km),Along-strike Hypocenter location on the fault (fraction between 0 and 1),Along-width Hypocenter location on the fault (fraction between 0 and 1),Static Stress Drop (bars),Type Static Stress Drop,Directivity flag (Y, N, U),Station ID,Station Code,Station Latitude (deg positive N),Station Longitude (deg positive E),Station Elevation (m),Site Class (Hard Rock, Rock, Stiff Soil, Soft Soil),Preferred NEHRP Based on Vs30,Preferred Vs30 (m/s),Measured(1)/Inferred(2) Class,Sigma of Vs30 (in natural log Units),Depth to Basement Rock,Z1 (m),Z2.5 (m),Epicentral Distance (km),Hypocentral Distance (km),Joyner-Boore Distance (km),Rupture Distance (km),Rx (km),Ry0 (km),Source to Site Azimuth (deg),FW/HW Indicator,Forearc/Backarc for subduction events,File Name (Horizontal 1),File Name (Horizontal 2),File Name (Vertical),Digital (D)/Analog (A) Recording,Acceleration (A)/Velocity (V),Unit (cm/s/s, m/s/s, g),File format,Processing flag,Type of Filter,npass,nroll,HP-H1 (Hz),HP-H2 (Hz),LP-H1 (Hz),LP-H2 (Hz),Factor,Lowest Usable Freq - H1 (Hz),Lowest Usable Freq - H2 (Hz),Lowest Usable Freq - Ave. Component (Hz),Maximum Usable Freq - Ave. Component (Hz),HP-V (Hz),LP-V (Hz),Lowest Usable Freq - V (Hz),Comments,PGA (g),PGV (cm/s),PGD (cm),SA(0.010),SA(0.020),SA(0.022),SA(0.025),SA(0.029),SA(0.030),SA(0.032),SA(0.035),SA(0.036),SA(0.040),SA(0.042),SA(0.044),SA(0.045),SA(0.046),SA(0.048),SA(0.050),SA(0.055),SA(0.060),SA(0.065),SA(0.067),SA(0.070),SA(0.075),SA(0.080),SA(0.085),SA(0.090),SA(0.095),SA(0.100),SA(0.110),SA(0.120),SA(0.130),SA(0.133),SA(0.140),SA(0.150),SA(0.160),SA(0.170),SA(0.180),SA(0.190),SA(0.200),SA(0.220),SA(0.240),SA(0.250),SA(0.260),SA(0.280),SA(0.290),SA(0.300),SA(0.320),SA(0.340),SA(0.350),SA(0.360),SA(0.380),SA(0.400),SA(0.420),SA(0.440),SA(0.450),SA(0.460),SA(0.480),SA(0.500),SA(0.550),SA(0.600),SA(0.650),SA(0.667),SA(0.700),SA(0.750),SA(0.800),SA(0.850),SA(0.900),SA(0.950),SA(1.000),SA(1.100),SA(1.200),SA(1.300),SA(1.400),SA(1.500),SA(1.600),SA(1.700),SA(1.800),SA(1.900),SA(2.000),SA(2.200),SA(2.400),SA(2.500),SA(2.600),SA(2.800),SA(3.000),SA(3.200),SA(3.400),SA(3.500),SA(3.600),SA(3.800),SA(4.000),SA(4.200),SA(4.400),SA(4.600),SA(4.800),SA(5.000),SA(5.500),SA(6.000),SA(6.500),SA(7.000),SA(7.500),SA(8.000),SA(8.500),SA(9.000),SA(9.500),SA(10.000),SA(11.000),SA(12.000),SA(13.000),SA(14.000),SA(15.000),SA(20.000)
54,30,San Fernando,,1971,2,9,14,0,0,34.44,-118.41,13,6.61,Mw,0.2,9.23E+025,Crustal,0,288,50,83,,,,1,R,Sierra Madre-San Fernando,0,20,27.4,,,24.4764523,,,69,105,33.26,-116.37,0,,D,338.54,2,0.25,,80,300,229.77,230.14,214.32,214.32,-62.28,-216.70847,-163.11,,forearc,SFERN\BSF135.AT2,SFERN\BSF225.AT2,SFERN\BSFDWN.AT2,A,A,g,,1,Acausal Butterworth,1,2.5,0.1,0.1,23,30,1.25,0.125,0.125,0.125,,,,,,0.0090232,1.5046,1.4775,0.00903156,0.0090662,0.00918729,0.00951192,0.00952518,0.00974763,0.00998047,0.0100002,0.00983064,0.00990741,0.00986295,0.0099727,0.0100583,0.0102844,0.0106698,0.0108719,0.0101165,0.00994563,0.0103913,0.0106075,0.0106276,0.00998482,0.0106972,0.0107502,0.0117915,0.0118231,0.0120947,0.0119319,0.0139293,0.0159967,0.0148341,0.0122328,0.0129673,0.0139684,0.0143035,0.0153224,0.0170071,0.0167871,0.0176957,0.0190333,0.0215377,0.0217902,0.0231901,0.0224418,0.0205289,0.0217984,0.0253622,0.0253372,0.0242433,0.0200748,0.0185838,0.0169527,0.0179441,0.0198536,0.0203558,0.0211835,0.0195463,0.0188022,0.0189514,0.0174658,0.0153647,0.0170057,0.0184305,0.0209961,0.0212335,0.020258,0.0159337,0.0135782,0.00931855,0.0105839,0.00991229,0.00790559,0.00684605,0.00672105,0.00632823,0.00574614,0.00590467,0.00514942,0.00439958,0.00427382,0.00463751,0.00484621,0.00434416,0.00382103,0.00378682,0.00354982,0.00351223,0.00384043,0.00468005,0.00493966,0.00514257,0.0048743,0.00469225,0.00417699,0.003722,0.00264641,0.00220688,0.00229364,0.00251953,0.00250848,0.0023427,0.00214793,0.00195394,0.00172429,0.00153471,0.00125834,0.00102722,0.000798115,0.000628148,0.000539346,0.00021677,,,,,,,,,,,,,,,,,,,,,
55,30,San Fernando,,1971,2,9,14,0,0,34.44,-118.41,13,6.61,Mw,0.2,9.23E+025,Crustal,0,288,50,83,,,,1,R,Sierra Madre-San Fernando,0,20,27.4,,,24.4764523,,,2,1,35.16,-119.35,0,,C,385.69,2,0.4,,60,4300,117.46,118.18,111.37,112.52,53.72,108.84149,27.73,,forearc,SFERN\BVP090.AT2,SFERN\BVP180.AT2,SFERN\BVPDWN.AT2,A,A,g,,1,Acausal Butterworth,1,2.5,0.1,0.1,13,15,1.25,0.125,0.125,0.125,,,,,,0.011999,1.3641,1.2985,0.0120097,0.0120896,0.0121147,0.0121472,0.0122035,0.0122292,0.0122535,0.0123238,0.0123501,0.0124764,0.0125317,0.0125446,0.0125586,0.0125914,0.0126653,0.0127158,0.012658,0.0129787,0.0132147,0.0134616,0.0137333,0.0141256,0.0148539,0.0143553,0.0152692,0.0158451,0.0162756,0.0173309,0.0191428,0.0226501,0.0241631,0.0281845,0.0304095,0.0312266,0.0329763,0.0290404,0.0303647,0.0317609,0.0323428,0.0296051,0.0303348,0.0328443,0.0392529,0.0438737,0.0455391,0.0451099,0.0416432,0.0393619,0.0370732,0.0324184,0.0315951,0.0269687,0.0229184,0.0207097,0.0202467,0.0185272,0.0175787,0.016684,0.0141216,0.0135725,0.0140874,0.0149991,0.0148344,0.0131645,0.0137198,0.0114826,0.0116236,0.0117609,0.0109994,0.0102396,0.00908789,0.00967339,0.00842778,0.00835324,0.00967534,0.010972,0.0112011,0.010136,0.00799483,0.00828861,0.00696092,0.00563775,0.00560606,0.0061063,0.00530789,0.00522201,0.0050978,0.00474623,0.00469073,0.00428086,0.0035322,0.00266409,0.00227754,0.00199424,0.00187849,0.00188768,0.00185313,0.00213424,0.00238332,0.00249097,0.00239411,0.0023637,0.00214894,0.0018793,0.00160117,0.00122471,0.000848548,0.000649732,0.000521836,0.000422503,0.000173748,,,,,,,,,,,,,,,,,,,,,
56,30,San Fernando,,1971,2,9,14,0,0,34.44,-118.41,13,6.61,Mw,0.2,9.23E+025,Crustal,0,288,50,83,,,,1,R,Sierra Madre-San Fernando,0,20,27.4,,,24.4764523,,,71,108,33.9121,-117.838,0,,D,235,1,0.1,5,700,4400,78.89,79.95,61.79,61.79,-29.31,-64.870978,-151.69,,forearc,SFERN\CND130.AT2,SFERN\CND220.AT2,SFERN\CNDDWN.AT2,A,A,g,,1,Acausal Butterworth,1,2.5,0.5,0.33,20,20,1.25,0.625,0.4125,0.625,,,,,,0.071213,4.783,4.0855,0.0713652,0.0720741,0.0723707,0.0728389,0.0732987,0.0732983,0.0730187,0.0724799,0.0723858,0.0730458,0.0747638,0.0761101,0.0762074,0.0763834,0.0777656,0.0778877,0.0813849,0.0852265,0.0908588,0.0920064,0.0955202,0.103037,0.11379,0.12186,0.136557,0.14061,0.144176,0.179436,0.197054,0.194024,0.177933,0.172692,0.162307,0.168807,0.171278,0.187975,0.195918,0.18071,0.231159,0.24524,0.272727,0.272686,0.22551,0.224799,0.207202,0.193494,0.201331,0.209718,0.213957,0.217564,0.173487,0.151035,0.140477,0.131161,0.121639,0.109393,0.0970954,0.0884893,0.0839388,0.0648925,0.0641775,0.0588014,0.0557574,0.0466532,0.0352223,0.0350366,0.0337774,0.0302675,0.0260293,0.0210062,0.020268,0.0186612,0.0186697,0.0190873,0.0156756,0.0124706,0.0116774,0.0113558,0.00993253,0.00953131,0.00934514,0.0099106,0.0108643,0.0126044,0.0135602,0.014205,0.0137986,0.0133718,0.0128605,0.0122668,0.011245,0.0109693,0.0111197,0.0106085,0.00998172,0.00919707,0.00966346,0.00846353,0.00796117,0.00728525,0.00620264,0.00570378,0.00514571,0.00452684,0.00395759,0.00341509,0.00317703,0.00274682,0.00223952,0.00180952,0.000674963,,,,,,,,,,,,,,,,,,,,,
57,30,San Fernando,,1971,2,9,14,0,0,34.44,-118.41,13,6.61,Mw,0.2,9.23E+025,Crustal,0,288,50,83,,,,1,R,Sierra Madre-San Fernando,0,20,27.4,,,24.4764523,,,323,24278,34.564,-118.642,0,,C,450.28,1,0.3,10,820,1620,25.36,28.5,19.33,22.63,13.01,27.701988,34.4,,forearc,SFERN\ORR021.AT2,SFERN\ORR291.AT2,SFERN\ORRDWN.AT2,A,A,g,,1,Acausal Butterworth,1,2.5,0.3,0.3,35,35,1.25,0.375,0.375,0.375,,,,,,0.28672,22.183,3.2944,0.289847,0.287875,0.292046,0.287674,0.29875,0.300294,0.303322,0.3198,0.318938,0.306599,0.314706,0.320262,0.323127,0.323782,0.324799,0.319625,0.3076,0.351143,0.367245,0.360215,0.36201,0.339343,0.398796,0.430505,0.403743,0.472379,0.494092,0.57273,0.599397,0.497291,0.504363,0.591943,0.71577,0.643344,0.621044,0.545822,0.55233,0.633628,0.745109,0.598997,0.547022,0.52228,0.548431,0.54693,0.566526,0.747843,0.804943,0.777808,0.724901,0.632027,0.578068,0.60607,0.570722,0.60092,0.6083,0.569647,0.57003,0.481658,0.436584,0.393142,0.382678,0.38454,0.369804,0.340718,0.345702,0.335717,0.311438,0.269223,0.220462,0.186853,0.156572,0.135449,0.114353,0.0942105,0.0777196,0.0697012,0.0625957,0.0562565,0.0456285,0.03726,0.0337589,0.0306576,0.0254572,0.021321,0.0180202,0.0153618,0.014229,0.0132061,0.0114413,0.00998488,0.00877358,0.00775847,0.00690159,0.00617325,0.00555011,0.00433998,0.00347912,0.00285675,0.00244176,0.00215135,0.00190872,0.00170416,0.00153027,0.00138132,0.00125283,0.0010438,0.00088262,0.000755831,0.000654365,0.000571937,0.000325102,,,,,,,,,,,,,,,,,,,,,
58,30,San Fernando,,1971,2,9,14,0,0,34.44,-118.41,13,6.61,Mw,0.2,9.23E+025,Crustal,0,288,50,83,,,,1,R,Sierra Madre-San Fernando,0,20,27.4,,,24.4764523,,,73,112,34.31,-117.3,0,,C,477.22,1,0.2,0.092,40,220,102.97,103.79,92.25,92.59,26.59,-98.375379,163.6,,forearc,SFERN\CSP126.AT2,SFERN\CSP216.AT2,SFERN\CSPDWN.AT2,A,A,g,,1,Acausal Butterworth,1,2.5,0.1,0.1,20,20,1.25,0.125,0.125,0.125,,,,,,0.027202,2.2686,0.39823,0.0272527,0.0274677,0.0275114,0.0276295,0.0277822,0.027759,0.0279404,0.0283101,0.0283993,0.0291477,0.0292757,0.029167,0.0288189,0.0285916,0.0298064,0.0307127,0.0309837,0.0312606,0.0307047,0.0321064,0.0336464,0.0353935,0.0374883,0.0383006,0.0384853,0.0411864,0.0445511,0.0476472,0.0491243,0.0542907,0.0585104,0.0716172,0.0820767,0.0863022,0.0704466,0.0601931,0.0587809,0.056165,0.0643823,0.0709423,0.0811122,0.0905702,0.101172,0.0950355,0.0941012,0.0852066,0.0919444,0.0915432,0.0963867,0.107056,0.0881431,0.0697935,0.0555934,0.055169,0.0558132,0.0560362,0.0530767,0.0499528,0.0422556,0.0413432,0.0418234,0.0393088,0.0336815,0.0304696,0.0276093,0.0283503,0.0259783,0.021447,0.0169159,0.0152535,0.0130724,0.0106582,0.00894761,0.00861229,0.00875632,0.00843904,0.00855891,0.00796889,0.00635532,0.00487733,0.00427667,0.00395577,0.00336391,0.00284283,0.00276956,0.00246267,0.00230497,0.0020841,0.00190416,0.00171772,0.00155969,0.00147798,0.00140763,0.00132924,0.00124439,0.00113404,0.00097582,0.000829434,0.000670508,0.000542816,0.000441477,0.000360152,0.000320448,0.000281372,0.000246368,0.000189039,0.000148027,0.00011749,9.75842E-05,8.29044E-05,4.40102E-05,,,,,,,,,,,,,,,,,,,,,
59,30,San Fernando,,1971,2,9,14,0,0,34.44,-118.41,13,6.61,Mw,0.2,9.23E+025,Crustal,0,288,50,83,,,,1,R,Sierra Madre-San Fernando,0,20,27.4,,,24.4764523,,,72,111,34.2778,-117.335,0,,B,813.48,1,0.4,0,14,220,100.39,101.23,89.37,89.72,22.28,-96.436464,165.83,,forearc,SFERN\CSM095.AT2,SFERN\CSM185.AT2,SFERN\CSMDWN.AT2,A,A,g,,1,Acausal Butterworth,1,2.5,0.2,0.3,35,35,1.25,0.25,0.375,0.375,,,,,,0.01797,1.466,0.51787,0.0182654,0.0186406,0.0186976,0.0197292,0.0198555,0.0206752,0.0198425,0.0200433,0.0201399,0.0205764,0.0200171,0.020382,0.0212303,0.0214898,0.0218001,0.0227503,0.022975,0.0227671,0.0245354,0.0250607,0.0275123,0.0274425,0.0287228,0.033342,0.0333227,0.0387663,0.0416991,0.0375748,0.0367882,0.0374451,0.0382229,0.0448393,0.0508639,0.0542418,0.0464695,0.0432071,0.0415343,0.0439267,0.0388022,0.0364943,0.0355552,0.0346457,0.0370993,0.0351498,0.0332871,0.0289453,0.0303292,0.0331729,0.0336631,0.028964,0.0273954,0.0307067,0.0315277,0.0309102,0.0299271,0.0287536,0.030593,0.0334245,0.0275162,0.021763,0.0205125,0.0185417,0.0178198,0.0180561,0.0222463,0.023659,0.0236901,0.0201357,0.0174281,0.0169535,0.0152186,0.0123868,0.00971494,0.00858058,0.00755614,0.00746589,0.00704742,0.00621444,0.00478205,0.00482694,0.00469407,0.0044812,0.00427824,0.00474929,0.0046915,0.00428846,0.0042327,0.00413257,0.00377974,0.00328962,0.00288369,0.00243173,0.00191294,0.00151443,0.0013636,0.00109337,0.000930934,0.000844487,0.000718822,0.000561813,0.000508978,0.000467879,0.000413902,0.000352781,0.000291719,0.000213616,0.000172971,0.000140367,0.000115921,9.76249E-05,5.23226E-05,,,,,,,,,,,,,,,,,,,,,
60,30,San Fernando,,1971,2,9,14,0,0,34.44,-118.41,13,6.61,Mw,0.2,9.23E+025,Crustal,0,288,50,83,,,,1,R,Sierra Madre-San Fernando,0,20,27.4,,,24.4764523,,,125,1013,35.733,-120.29,0,,D,184.75,1,0.1,3,80,4220,223.64,224.01,217.54,218.13,85.95,208.65875,22.88,,forearc,SFERN\C02051.AT2,SFERN\C02321.AT2,SFERN\C02DWN.AT2,A,A,g,,1,Acausal Butterworth,1,2.5,0.1,0.1,20,30,1.25,0.125,0.125,0.125,,,,,,0.0043448,1.3238,1.4185,0.00434926,0.00440759,0.00439744,0.00441686,0.00456591,0.00460491,0.00480258,0.0053083,0.00527867,0.00589638,0.00593429,0.00542694,0.00503576,0.00495706,0.00495266,0.00508261,0.0055883,0.00611294,0.00625743,0.00628765,0.00628213,0.00607037,0.00589473,0.00567,0.00630571,0.00662239,0.0067641,0.00682616,0.00624988,0.00622084,0.00626926,0.00676029,0.00687401,0.00661916,0.00664405,0.00675995,0.00657377,0.00618685,0.00641135,0.00665042,0.00693093,0.00706147,0.00711942,0.0071808,0.00711774,0.00755596,0.00727953,0.00718268,0.00712575,0.00708678,0.00739436,0.00761298,0.00820163,0.0079636,0.00790525,0.0085883,0.00898333,0.00780059,0.00879329,0.0102092,0.0106032,0.00951608,0.00925975,0.0107258,0.0109219,0.0107714,0.00988905,0.0101995,0.0104758,0.0105026,0.00832099,0.00902199,0.00915669,0.0074063,0.00712459,0.00877192,0.00889873,0.00793713,0.00621532,0.00595554,0.00579233,0.00575314,0.0058057,0.00580896,0.00557513,0.00469456,0.00419797,0.00397917,0.00397815,0.00386069,0.0034464,0.00294472,0.00258906,0.00244945,0.0024212,0.00227649,0.00221649,0.0022384,0.0018571,0.00170831,0.00159571,0.00159087,0.00190867,0.00206926,0.00203518,0.00178605,0.00152274,0.00111952,0.000806736,0.000620804,0.000220399,,,,,,,,,,,,,,,,,,,,,
61,30,San Fernando,,1971,2,9,14,0,0,34.44,-118.41,13,6.61,Mw,0.2,9.23E+025,Crustal,0,288,50,83,,,,1,R,Sierra Madre-San Fernando,0,20,27.4,,,24.4764523,,,129,1015,35.671,-120.359,0,,D,256.82,1,0.25,1.9,80,4120,224.26,224.63,218.17,218.75,77.4,212.68105,20.47,,forearc,SFERN\C08051.AT2,SFERN\C08321.AT2,SFERN\C08XXX.AT2,A,A,g,,1,Acausal Butterworth,1,2.5,0.1,0.1,23,23,1.25,0.125,0.125,0.125,,,,,,0.0056647,1.3762,1.8926,0.00567215,0.00569816,0.00569974,0.00573251,0.00577132,0.00577223,0.00580776,0.00584663,0.00583587,0.00599299,0.00600861,0.00596728,0.00593651,0.00599574,0.00608251,0.00608756,0.00628729,0.00631869,0.0064234,0.00644999,0.00648494,0.00657251,0.00682876,0.00667261,0.00638892,0.00635429,0.00634265,0.00637396,0.00690288,0.00719843,0.00717958,0.00705622,0.00673509,0.00687393,0.00739714,0.00785257,0.0075709,0.00796895,0.0086952,0.00940249,0.010427,0.0108166,0.0106375,0.0117125,0.0130591,0.0135089,0.0145276,0.0149544,0.0152367,0.0170737,0.0170679,0.0154952,0.0140376,0.0146856,0.0142968,0.0133733,0.0131253,0.0118778,0.0119526,0.0133345,0.0143755,0.017226,0.0178847,0.0156113,0.0150044,0.0153534,0.0145369,0.0140609,0.013658,0.013446,0.0106898,0.0124614,0.0102355,0.00877116,0.00888833,0.00862796,0.00790191,0.0065466,0.00613113,0.00541584,0.00546482,0.00505136,0.00445382,0.00414897,0.00344541,0.0033827,0.00375566,0.00406735,0.00406035,0.00349793,0.00297758,0.00271246,0.00259009,0.00227924,0.00200905,0.00186713,0.00223219,0.00202389,0.00147232,0.00136786,0.00129616,0.00118195,0.00130631,0.0013569,0.0014563,0.0015506,0.00150685,0.00140464,0.00116462,0.000963112,0.000428563,,,,,,,,,,,,,,,,,,,,,
62,30,San Fernando,,1971,2,9,14,0,0,34.44,-118.41,13,6.61,Mw,0.2,9.23E+025,Crustal,0,288,50,83,,,,1,R,Sierra Madre-San Fernando,0,20,27.4,,,24.4764523,,,74,113,34.059,-117.312,0,,D,301.95,1,0.1,0.18,80,340,109.54,110.3,96.81,96.81,-0.61,-106.011041,-179.64,,forearc,SFERN\CLN090.AT2,SFERN\CLN180.AT2,SFERN\CLN-UP.AT2,A,A,g,,1,Acausal Butterworth,1,2.5,0.1,0.1,13,13,1.25,0.125,0.125,0.125,,,,,,0.038479,2.1163,0.32674,0.0384991,0.0386053,0.0386668,0.0387441,0.0388979,0.0389274,0.0390525,0.0392267,0.0393162,0.0395662,0.0396076,0.0398449,0.0400928,0.0402199,0.0403564,0.0402507,0.0404631,0.0409126,0.0424885,0.0426204,0.042969,0.0455304,0.0482465,0.0506864,0.0553766,0.0574803,0.063273,0.0673318,0.0725277,0.0908419,0.0943029,0.0959986,0.0907641,0.102712,0.0996847,0.0941179,0.0870616,0.0871673,0.102077,0.0983222,0.105332,0.124769,0.175217,0.175728,0.162662,0.116263,0.101935,0.0947041,0.0920318,0.0716205,0.0702903,0.0707624,0.0721161,0.0710149,0.0713124,0.066435,0.061209,0.0513752,0.0395785,0.0337545,0.0308043,0.0267402,0.0276137,0.0232255,0.0245733,0.0222935,0.0177075,0.0168719,0.0175423,0.0137272,0.0113424,0.0120075,0.00987841,0.0080308,0.00735517,0.00658611,0.00545805,0.00528066,0.00503812,0.00518605,0.00525948,0.00490904,0.0043447,0.00366748,0.0031523,0.0026831,0.00245437,0.00225589,0.00192013,0.00170953,0.00149111,0.00128776,0.00114109,0.00103425,0.000926305,0.000734426,0.000566507,0.000442102,0.000368778,0.000315398,0.000270093,0.000231817,0.000199789,0.000173104,0.000150832,0.000117074,9.42513E-05,7.90443E-05,6.92157E-05,6.15631E-05,3.56871E-05,,,,,,,,,,,,,,,,,,,,,
63,30,San Fernando,,1971,2,9,14,0,0,34.44,-118.41,13,6.61,Mw,0.2,9.23E+025,Crustal,0,288,50,83,,,,1,R,Sierra Madre-San Fernando,0,20,27.4,,,24.4764523,,,76,121,34.704,-118.426,0,,C,634.33,2,0.4,0.006,40,240,29.41,32.16,25.58,30.19,34.4,13.639487,80.55,,forearc,SFERN\FTR056.AT2,SFERN\FTR326.AT2,SFERN\FTR-UP.AT2,A,A,g,,1,Acausal Butterworth,1,2.5,0.15,0.12,35,35,1.25,0.1875,0.15,0.1875,,,,,,0.093858,7.1308,2.5772,0.0949909,0.0946348,0.100868,0.111389,0.114815,0.114089,0.113285,0.115126,0.12195,0.123668,0.116729,0.127875,0.132649,0.132461,0.125967,0.118658,0.130117,0.143483,0.153783,0.154025,0.147156,0.142161,0.134673,0.130038,0.13041,0.146992,0.154896,0.165597,0.182071,0.170824,0.163326,0.164351,0.158598,0.161677,0.167812,0.16133,0.181499,0.216117,0.296082,0.34986,0.340118,0.323025,0.249302,0.211894,0.181576,0.140627,0.112677,0.0982385,0.0882911,0.0798896,0.0764257,0.0808417,0.086976,0.0883482,0.0883211,0.0840077,0.0823263,0.0978032,0.102397,0.104731,0.10506,0.111342,0.107985,0.103044,0.0973684,0.0916196,0.0860274,0.0791754,0.0659777,0.0581034,0.0505596,0.0437686,0.0382657,0.0329107,0.0289983,0.0271692,0.0238286,0.0205237,0.01684,0.0133309,0.0121462,0.0115468,0.0114959,0.0117296,0.0100529,0.00816149,0.00725073,0.00677638,0.00691523,0.00743472,0.007018,0.00700264,0.00674679,0.00638819,0.00577904,0.00384342,0.00308749,0.00261326,0.00256576,0.00215664,0.00178843,0.00151983,0.00132518,0.00115241,0.000998578,0.000773674,0.000656342,0.000573595,0.000551471,0.000493756,0.000287163,,,,,,,,,,,,,,,,,,,,,
