Record Sequence Number,EQID,Earthquake Name,Country,Year,Month,Day,Hour,Minute,Second,Epicenter Latitude (deg, positive N),Epicenter Longitude (deg, positive E),Hypocenter Depth (km),Magnitude,Magnitude type,Magnitude uncertainty,Mo (dyne.cm),Tectonic environment (Crustal, Inslab, Interface, Stable, Geothermal, Volcanic, Oceanic_crust),Earthquake in Extensional Regime: 1=Yes, 0=No,Nodal Plane 1 Strike (deg),Nodal Plane 1 Dip (deg),Nodal Plane 1 Rake Angle (deg),Nodal Plane 2 Strike (deg),Nodal Plane 2 Dip (deg),Nodal Plane 2 Rake Angle (deg),Fault Plane (1,2, X),Style-of-Faulting (S, R, N, U),Fault Name,Depth to Top Of Fault Rupture Model,Fault Rupture Length (km),Fault Rupture Width (km),Along-strike Hypocenter location on the fault (fraction between 0 and 1),Along-width Hypocenter location on the fault (fraction between 0 and 1),Static Stress Drop (bars),Type Static Stress Drop,Directivity flag (Y, N, U),Station ID,Station Code,Station Latitude (deg positive N),Station Longitude (deg positive E),Station Elevation (m),Site Class (Hard Rock, Rock, Stiff Soil, Soft Soil),Preferred NEHRP Based on Vs30,Preferred Vs30 (m/s),Measured(1)/Inferred(2) Class,Sigma of Vs30 (in natural log Units),Depth to Basement Rock,Z1 (m),Z2.5 (m),Epicentral Distance (km),Hypocentral Distance (km),Joyner-Boore Distance (km),Rupture Distance (km),Rx (km),Ry0 (km),Source to Site Azimuth (deg),FW/HW Indicator,Forearc/Backarc for subduction events,File Name (Horizontal 1),File Name (Horizontal 2),File Name (Vertical),Digital (D)/Analog (A) Recording,Acceleration (A)/Velocity (V),Unit (cm/s/s, m/s/s, g),File format,Processing flag,Type of Filter,npass,nroll,HP-H1 (Hz),HP-H2 (Hz),LP-H1 (Hz),LP-H2 (Hz),Factor,Lowest Usable Freq - H1 (Hz),Lowest Usable Freq - H2 (Hz),Lowest Usable Freq - Ave. Component (Hz),Maximum Usable Freq - Ave. Component (Hz),HP-V (Hz),LP-V (Hz),Lowest Usable Freq - V (Hz),Comments,PGA (g),PGV (cm/s),PGD (cm),SA(0.010),SA(0.020),SA(0.022),SA(0.025),SA(0.029),SA(0.030),SA(0.032),SA(0.035),SA(0.036),SA(0.040),SA(0.042),SA(0.044),SA(0.045),SA(0.046),SA(0.048),SA(0.050),SA(0.055),SA(0.060),SA(0.065),SA(0.067),SA(0.070),SA(0.075),SA(0.080),SA(0.085),SA(0.090),SA(0.095),SA(0.100),SA(0.110),SA(0.120),SA(0.130),SA(0.133),SA(0.140),SA(0.150),SA(0.160),SA(0.170),SA(0.180),SA(0.190),SA(0.200),SA(0.220),SA(0.240),SA(0.250),SA(0.260),SA(0.280),SA(0.290),SA(0.300),SA(0.320),SA(0.340),SA(0.350),SA(0.360),SA(0.380),SA(0.400),SA(0.420),SA(0.440),SA(0.450),SA(0.460),SA(0.480),SA(0.500),SA(0.550),SA(0.600),SA(0.650),SA(0.667),SA(0.700),SA(0.750),SA(0.800),SA(0.850),SA(0.900),SA(0.950),SA(1.000),SA(1.100),SA(1.200),SA(1.300),SA(1.400),SA(1.500),SA(1.600),SA(1.700),SA(1.800),SA(1.900),SA(2.000),SA(2.200),SA(2.400),SA(2.500),SA(2.600),SA(2.800),SA(3.000),SA(3.200),SA(3.400),SA(3.500),SA(3.600),SA(3.800),SA(4.000),SA(4.200),SA(4.400),SA(4.600),SA(4.800),SA(5.000),SA(5.500),SA(6.000),SA(6.500),SA(7.000),SA(7.500),SA(8.000),SA(8.500),SA(9.000),SA(9.500),SA(10.000),SA(11.000),SA(12.000),SA(13.000),SA(14.000),SA(15.000),SA(20.000)
44,29,Lytle Creek,,1970,9,12,14,30,0,34.2698,-117.54,8,5.33,Mw,0.3,1.11E+024,Crustal,0,325,48,59,,,,1,RO,,5.627,4.5,3.8,,,,,,74,113,34.059,-117.312,0,,D,301.95,1,0.1,0.18,80,340,31.48,32.48,29.18,30.11,5.92,-31.19156892,168.46,,forearc,LYTLECR\CLN090.AT2,LYTLECR\CLN180.AT2,LYTLECR\CLN-UP.AT2,A,A,g,,1,Acausal Butterworth,1,2.5,0.3,0.4,2,18,1.25,0.375,0.5,0.5,,,,,,0.027767,1.3178,0.14365,0.027819,0.0279699,0.0279668,0.0284308,0.028644,0.0287648,0.0294083,0.0282647,0.0283083,0.0294944,0.0280411,0.0288756,0.0294083,0.0297601,0.0303792,0.0306994,0.032095,0.0319547,0.0350987,0.0360926,0.0400527,0.039241,0.0346369,0.0382889,0.0438271,0.0505611,0.0517822,0.0574284,0.0552278,0.0703328,0.0692086,0.0658588,0.0757975,0.0753921,0.0728674,0.0841866,0.0888416,0.0871614,0.112678,0.12844,0.122134,0.109487,0.0880029,0.0868479,0.0836146,0.0684789,0.0572448,0.0570986,0.0621973,0.0704085,0.0584863,0.0449957,0.0400015,0.0375172,0.0387652,0.0338393,0.0311481,0.0293922,0.0262454,0.0217602,0.0202688,0.0199582,0.0190374,0.0194182,0.0219014,0.0187162,0.0156932,0.013597,0.0106568,0.00865398,0.00756898,0.00696427,0.00599291,0.00483573,0.00439159,0.00452961,0.00414152,0.00397627,0.00313165,0.00232811,0.00202851,0.00175714,0.00131196,0.00108052,0.000863662,0.000724884,0.000674604,0.000621089,0.000476597,0.000457873,0.000429937,0.000390993,0.00033791,0.000299694,0.000265894,0.000211372,0.00017389,0.000142071,0.000123012,0.00010677,9.54911E-05,8.68075E-05,7.89124E-05,7.17656E-05,6.53478E-05,5.44418E-05,4.56338E-05,3.86159E-05,3.29224E-05,2.83384E-05,1.50936E-05,,,,,,,,,,,,,,,,,,,,,
45,29,Lytle Creek,,1970,9,12,14,30,0,34.2698,-117.54,8,5.33,Mw,0.3,1.11E+024,Crustal,0,325,48,59,,,,1,RO,,5.627,4.5,3.8,,,,,,106,620,34.21,-117.33,0,,C,667.13,2,0.4,,40,260,20.43,21.94,18.39,20.24,14.16,-16.46462649,135.18,,forearc,LYTLECR\DCF090.AT2,LYTLECR\DCF180.AT2,LYTLECR\DCFDWN.AT2,A,A,g,,1,Acausal Butterworth,1,2.5,0.3,0.13,23,20,1.25,0.375,0.1625,0.375,,,,,,0.16689,5.0801,0.75826,0.168464,0.176087,0.173433,0.17124,0.177056,0.174358,0.180634,0.195121,0.198825,0.197373,0.196235,0.229534,0.247206,0.25782,0.28063,0.304097,0.336103,0.266723,0.268886,0.26422,0.256943,0.23899,0.254383,0.289852,0.350142,0.380456,0.382787,0.482102,0.47385,0.494462,0.535813,0.60257,0.641059,0.652062,0.603718,0.516227,0.440951,0.402354,0.386915,0.379096,0.344573,0.317616,0.264967,0.242333,0.220812,0.180642,0.144834,0.12812,0.115171,0.0965729,0.0925794,0.0828679,0.0769511,0.0745412,0.0721154,0.0660899,0.0624499,0.0573668,0.0574413,0.049288,0.0456398,0.0407356,0.0329146,0.0297154,0.0270691,0.0241918,0.022222,0.0208115,0.0176008,0.0149496,0.0138756,0.0136342,0.0128728,0.0119288,0.0106279,0.0097788,0.00904201,0.00829271,0.00675286,0.00569564,0.005183,0.0046804,0.00397847,0.0034443,0.00296556,0.00255193,0.00238143,0.00222828,0.00200287,0.0018027,0.00162529,0.00146916,0.00133221,0.00120809,0.00109758,0.00101982,0.000876018,0.000712192,0.00060946,0.000515587,0.00045378,0.000403829,0.000361626,0.00032566,0.000294768,0.000244781,0.000206461,0.000176453,0.000152522,0.000133135,7.53718E-05,,,,,,,,,,,,,,,,,,,,,
46,29,Lytle Creek,,1970,9,12,14,30,0,34.2698,-117.54,8,5.33,Mw,0.3,1.11E+024,Crustal,0,325,48,59,,,,1,RO,,5.627,4.5,3.8,,,,,,326,24303,34.09,-118.339,0,,D,316.46,1,0.1,2.5,260,2540,76.23,76.65,73.46,73.67,-69.49,25.81082216,-71.09,,forearc,LYTLECR\PEL090.AT2,LYTLECR\PEL180.AT2,LYTLECR\PEL-UP.AT2,A,A,g,,1,Acausal Butterworth,1,2.5,0.3,0.3,20,20,1.25,0.375,0.375,0.375,,,,,,0.01842,0.77861,0.11792,0.018468,0.0187606,0.0188726,0.0192,0.0190153,0.0188951,0.0193966,0.0195383,0.0194879,0.0201232,0.0206067,0.0201375,0.0197385,0.0199095,0.0215785,0.0224438,0.0236,0.0237983,0.0288241,0.0289732,0.0316831,0.038504,0.0443595,0.0401134,0.0464269,0.0470426,0.0467593,0.0394578,0.0390222,0.0427708,0.0434289,0.0480176,0.0548882,0.0529973,0.050366,0.0440131,0.0472535,0.0483404,0.0445519,0.0523412,0.0574327,0.0593803,0.0575805,0.0539557,0.0493325,0.0478906,0.0412816,0.0348546,0.0304349,0.0315553,0.0334329,0.0285938,0.0230254,0.0216902,0.019973,0.0176384,0.0156763,0.0122395,0.0116084,0.0107013,0.0106073,0.0115526,0.0120183,0.0103566,0.00903774,0.00812754,0.00699893,0.00678224,0.0061322,0.00496388,0.0052931,0.00543878,0.00409064,0.00377124,0.00329654,0.00312809,0.00294096,0.00268938,0.00207119,0.00190024,0.00172457,0.00162572,0.00148271,0.00109174,0.000872692,0.000713238,0.000631705,0.000561563,0.00047606,0.000419651,0.00037517,0.000336607,0.00030235,0.000275448,0.000252347,0.000203382,0.000172022,0.000142332,0.000116892,9.94869E-05,8.49597E-05,7.27878E-05,6.4647E-05,5.83867E-05,5.29129E-05,4.33337E-05,3.55236E-05,2.99676E-05,2.56571E-05,2.22263E-05,1.21874E-05,,,,,,,,,,,,,,,,,,,,,
47,29,Lytle Creek,,1970,9,12,14,30,0,34.2698,-117.54,8,5.33,Mw,0.3,1.11E+024,Crustal,0,325,48,59,,,,1,RO,,5.627,4.5,3.8,,,,,,320,24271,34.674,-118.43,0,,C,425.34,1,0.3,3,40,240,93.22,93.56,90.25,90.42,-38.59,83.71786566,-25.31,,forearc,LYTLECR\L01021.AT2,LYTLECR\L01291.AT2,LYTLECR\L01DWN.AT2,A,A,g,,1,Acausal Butterworth,1,2.5,0.8,0.3,10,20,1.25,1,0.375,1,,,,,,0.0092627,0.64732,0.087345,0.00926928,0.00931357,0.00933345,0.009397,0.00955198,0.00965666,0.00979476,0.00974229,0.00974724,0.0100637,0.0102093,0.010342,0.0103508,0.0103092,0.0101764,0.0101057,0.0102477,0.0106446,0.0107423,0.0105498,0.0108229,0.0120081,0.0120077,0.0112253,0.0116094,0.0111906,0.0120513,0.0141645,0.0155677,0.0165555,0.017157,0.0173485,0.0153475,0.0169667,0.0163822,0.0161773,0.017955,0.0212488,0.0311743,0.0315137,0.0304815,0.0285527,0.0285394,0.0263036,0.0254885,0.0263482,0.0250211,0.0228245,0.021417,0.0236232,0.0249454,0.0249086,0.0266343,0.02562,0.0242331,0.0236627,0.0250891,0.0235457,0.0194764,0.0195706,0.0187477,0.0164592,0.0133057,0.0106181,0.00894482,0.00682472,0.00571495,0.00501753,0.00406358,0.00389845,0.00378107,0.00352333,0.00315648,0.0027066,0.00225092,0.00223858,0.00223539,0.00203492,0.00175061,0.00139775,0.00120789,0.0010118,0.000775815,0.000665706,0.000576263,0.000500801,0.00046734,0.000436611,0.000390605,0.000358337,0.000328187,0.000299161,0.000271869,0.000245866,0.000221986,0.000170678,0.000131439,0.000102319,8.4425E-05,7.16511E-05,6.16251E-05,5.44814E-05,4.84951E-05,4.33374E-05,3.88866E-05,3.16872E-05,2.63603E-05,2.24285E-05,1.92933E-05,1.67594E-05,9.25738E-06,,,,,,,,,,,,,,,,,,,,,
48,29,Lytle Creek,,1970,9,12,14,30,0,34.2698,-117.54,8,5.33,Mw,0.3,1.11E+024,Crustal,0,325,48,59,,,,1,RO,,5.627,4.5,3.8,,,,,,87,278,34.091,-117.808,0,,C,421.44,2,0.33,0.5,60,320,31.69,32.69,29.49,30.02,-29.49,-0.637333635,-90,,forearc,LYTLECR\PUD055.AT2,LYTLECR\PUD325.AT2,LYTLECR\PUDDWN.AT2,A,A,g,,1,Acausal Butterworth,1,2.5,0.4,0.23,20,20,1.25,0.5,0.2875,0.5,,,,,,0.018325,0.86331,0.15763,0.0184271,0.0186505,0.0188249,0.0193523,0.0198226,0.0197236,0.019453,0.0205924,0.0210502,0.020201,0.0196907,0.0200297,0.0206516,0.0208763,0.0210233,0.0202921,0.0231171,0.025965,0.0277098,0.0280784,0.0296882,0.0296329,0.0317291,0.0347914,0.0391116,0.0440442,0.0479503,0.0511348,0.0630064,0.0724541,0.0680071,0.0569879,0.0479168,0.0434457,0.0427505,0.0390461,0.0371802,0.0386089,0.0311479,0.0344937,0.0352602,0.0320273,0.0319302,0.0331304,0.0334519,0.0362854,0.0359335,0.0344194,0.0324772,0.0275785,0.0264711,0.0243557,0.0236076,0.0236581,0.023233,0.0213376,0.0234047,0.0241861,0.0234906,0.0242593,0.0234343,0.0223433,0.0211236,0.0181101,0.0159756,0.0143968,0.0132622,0.0114088,0.0113636,0.00946443,0.00801578,0.00640363,0.00580065,0.00557498,0.0046044,0.00420819,0.00383272,0.00347842,0.00274034,0.00240086,0.00241978,0.00233672,0.00195981,0.00150063,0.00122525,0.000978212,0.000898018,0.000820318,0.000680355,0.000583264,0.000524681,0.000466223,0.000441275,0.000399026,0.000368041,0.000326773,0.00026118,0.000198143,0.000167506,0.000143103,0.000123443,0.000107452,9.43003E-05,8.33796E-05,7.42284E-05,5.99599E-05,4.94462E-05,4.14684E-05,3.52921E-05,3.03999E-05,1.65035E-05,,,,,,,,,,,,,,,,,,,,,
49,29,Lytle Creek,,1970,9,12,14,30,0,34.2698,-117.54,8,5.33,Mw,0.3,1.11E+024,Crustal,0,325,48,59,,,,1,RO,,5.627,4.5,3.8,,,,,,68,104,34.185,-118.018,0,,C,667.13,2,0.4,0,40,1040,44.98,45.69,42.14,42.52,-39.26,17.46902306,-68.69,,forearc,LYTLECR\SAD003.AT2,LYTLECR\SAD273.AT2,LYTLECR\SADDWN.AT2,A,A,g,,1,Acausal Butterworth,1,2.5,0.3,0.4,23,30,1.25,0.375,0.5,0.5,,,,,,0.037497,1.2079,0.13302,0.0377055,0.0403267,0.0412712,0.0431536,0.0481119,0.0479154,0.0443275,0.0424013,0.0440937,0.047096,0.0481376,0.0490616,0.0507542,0.0526812,0.0556224,0.0568525,0.055942,0.0569316,0.066682,0.0627134,0.0687802,0.0755694,0.0802786,0.0768056,0.074265,0.0774974,0.084531,0.0868709,0.101561,0.108116,0.108231,0.106662,0.100349,0.0951244,0.0916665,0.086048,0.075117,0.0634143,0.052403,0.0457671,0.0432531,0.041094,0.0371846,0.0354203,0.0337245,0.0305952,0.0291523,0.0284808,0.0277739,0.0263667,0.0249515,0.0240318,0.0234371,0.022805,0.0225212,0.0208208,0.0187321,0.0160196,0.0116957,0.0095418,0.00888574,0.00850965,0.008393,0.00881209,0.00837503,0.0078119,0.00710624,0.00578874,0.00472357,0.0041689,0.00372607,0.00340873,0.00284782,0.00274148,0.00263753,0.00240634,0.00220593,0.00209511,0.0018983,0.0016751,0.00159724,0.00149515,0.00122856,0.000961793,0.000765221,0.000629834,0.000591872,0.000553982,0.000491263,0.000435785,0.000392364,0.000353556,0.000319091,0.000288588,0.000261622,0.000207066,0.00016665,0.000136293,0.000113142,9.51911E-05,8.28025E-05,7.34043E-05,6.55192E-05,5.88395E-05,5.31309E-05,4.3949E-05,3.69558E-05,3.15074E-05,2.71804E-05,2.3687E-05,1.33422E-05,,,,,,,,,,,,,,,,,,,,,
50,29,Lytle Creek,,1970,9,12,14,30,0,34.2698,-117.54,8,5.33,Mw,0.3,1.11E+024,Crustal,0,325,48,59,,,,1,RO,,5.627,4.5,3.8,,,,,,99,290,34.36,-117.63,0,,C,486,1,0.2,0.068,60,260,13.01,15.27,10.7,12.14,1.12,12.96204694,5.99,,forearc,LYTLECR\WTW115.AT2,LYTLECR\WTW205.AT2,LYTLECR\WTWDWN.AT2,A,A,g,,1,Acausal Butterworth,1,2.5,0.2,0.18,20,23,1.25,0.25,0.225,0.25,,,,,,0.16854,9.0257,0.94268,0.168879,0.170703,0.170337,0.171076,0.173332,0.173326,0.173703,0.186095,0.187778,0.197511,0.192439,0.187347,0.192017,0.195911,0.19799,0.198297,0.199373,0.222837,0.189192,0.206829,0.250665,0.294109,0.292681,0.312514,0.341334,0.34645,0.385206,0.359174,0.384767,0.286198,0.296501,0.304424,0.33318,0.311983,0.31231,0.303679,0.275904,0.250912,0.280251,0.347184,0.3812,0.414375,0.353719,0.296117,0.282418,0.32943,0.309243,0.286734,0.263993,0.29618,0.291474,0.308004,0.305307,0.306327,0.309235,0.313947,0.317132,0.295544,0.238733,0.197776,0.190215,0.17772,0.161129,0.143734,0.125305,0.104763,0.0858884,0.0701862,0.0550387,0.0430005,0.0341565,0.0280148,0.0237687,0.0207553,0.0185053,0.0166725,0.0151133,0.0137445,0.0114263,0.00955111,0.00874648,0.00802789,0.00678442,0.00577973,0.00496235,0.00428916,0.00399896,0.00373357,0.00327566,0.00300098,0.0027443,0.0024368,0.0022071,0.0019809,0.00181953,0.00140897,0.00109372,0.000913193,0.000787934,0.000686499,0.000603215,0.000533864,0.000475516,0.000425588,0.000383259,0.000315636,0.000264538,0.000225065,0.000193866,0.00016874,9.47308E-05,,,,,,,,,,,,,,,,,,,,,
51,30,San Fernando,,1971,2,9,14,0,0,34.44,-118.41,13,6.61,Mw,0.2,9.23E+025,Crustal,0,288,50,83,,,,1,R,Sierra Madre-San Fernando,0,20,27.4,,,24.4764523,,,3,411,33.801,-118.387,0,,D,280.56,1,0.25,,100,640,71.14,72.32,55.2,55.2,-54.51,-20.178016,-99.03,,forearc,SFERN\PVE065.AT2,SFERN\PVE155.AT2,SFERN\PVEDWN.AT2,A,A,g,,1,Acausal Butterworth,1,2.5,0.2,0.2,20,20,1.25,0.25,0.25,0.25,,,,,,0.031274,5.5043,8.7349,0.0313326,0.0316509,0.0317329,0.0317291,0.0318527,0.0321153,0.0327778,0.0331748,0.0332916,0.033293,0.0340551,0.0352732,0.0356948,0.0360486,0.0359785,0.034396,0.0324271,0.0371963,0.0390375,0.0401932,0.0399566,0.0368252,0.0365145,0.0379965,0.0428727,0.0466684,0.0465294,0.0514751,0.0594585,0.0662537,0.0705344,0.0812972,0.087537,0.0887087,0.0889229,0.0884532,0.0857777,0.0907577,0.0907403,0.0865708,0.0816217,0.0935402,0.0859229,0.0822386,0.0836058,0.0784706,0.0853247,0.089214,0.088294,0.0738605,0.0685677,0.0638343,0.0660354,0.0688587,0.0698756,0.0676992,0.0695825,0.0595984,0.0506482,0.0490531,0.0498491,0.0540861,0.0483978,0.0477403,0.0487356,0.0486004,0.0446998,0.0461048,0.0396806,0.0437372,0.0408478,0.0347211,0.0367147,0.0342902,0.0268577,0.0216437,0.0210362,0.0178285,0.0174082,0.0187445,0.0199716,0.0209806,0.0202679,0.0204015,0.0199739,0.0238374,0.0248121,0.0248924,0.0262056,0.0261519,0.0263411,0.0257737,0.0234768,0.0216191,0.0206736,0.018544,0.0123473,0.00832846,0.00682462,0.00585131,0.00524389,0.00445649,0.00384389,0.00335289,0.00290747,0.00193063,0.00173944,0.00160591,0.00148466,0.00139909,0.00112717,,,,,,,,,,,,,,,,,,,,,
52,30,San Fernando,,1971,2,9,14,0,0,34.44,-118.41,13,6.61,Mw,0.2,9.23E+025,Crustal,0,288,50,83,,,,1,R,Sierra Madre-San Fernando,0,20,27.4,,,24.4764523,,,67,103,33.5556,-116.674,0,,C,360.45,2,0.25,,60,300,187.99,188.44,173.16,173.16,-38.46,-179.51318,-167.17,,forearc,SFERN\AZP045.AT2,SFERN\AZP315.AT2,SFERN\AZPDWN.AT2,A,A,g,,1,Acausal Butterworth,1,2.5,0.5,0.5,35,35,1.25,0.625,0.625,0.625,,,,,,0.034383,1.7452,0.17188,0.0349822,0.0347685,0.0350938,0.0353135,0.0376078,0.0372959,0.0370414,0.0380142,0.0377069,0.0362361,0.0363896,0.037055,0.0370681,0.0369529,0.0365117,0.0347933,0.0378688,0.0390451,0.0370989,0.037177,0.0366531,0.0376497,0.0403752,0.043071,0.0434392,0.0435855,0.0462338,0.0500642,0.0548941,0.0679524,0.0723506,0.0755846,0.0672368,0.0804344,0.0982751,0.102533,0.110463,0.124174,0.0943423,0.0776992,0.0770225,0.0780164,0.0863624,0.0848732,0.0749587,0.0768353,0.0704226,0.0725669,0.0733165,0.0695049,0.0771926,0.0921402,0.103933,0.108509,0.110228,0.10413,0.086217,0.0549767,0.0467294,0.0399866,0.0396736,0.0370062,0.0372643,0.0367891,0.0286371,0.023336,0.0213347,0.0190219,0.0125323,0.0105706,0.0101444,0.0100242,0.00931061,0.00707641,0.00530212,0.00420729,0.00354781,0.00326687,0.00272175,0.00220066,0.00187929,0.00161173,0.00116543,0.000962181,0.000822695,0.000655089,0.000639359,0.000623604,0.000578967,0.000517155,0.000451432,0.000393057,0.000346495,0.000311493,0.000283832,0.000237061,0.000206658,0.000178623,0.000151551,0.000127875,0.000114863,0.000103739,9.21335E-05,8.09526E-05,7.10698E-05,5.78629E-05,4.98075E-05,4.41045E-05,3.88317E-05,3.45698E-05,2.05085E-05,,,,,,,,,,,,,,,,,,,,,
53,30,San Fernando,,1971,2,9,14,0,0,34.44,-118.41,13,6.61,Mw,0.2,9.23E+025,Crustal,0,288,50,83,,,,1,R,Sierra Madre-San Fernando,0,20,27.4,,,24.4764523,,,124,1004,35.37,-119.021,0,,D,241.41,2,0.25,,80,1680,117.55,118.27,111.88,113.02,85.74,87.225047,46.33,,forearc,SFERN\BFA180.AT2,SFERN\BFA270.AT2,SFERN\BFA-UP.AT2,A,A,g,,1,Acausal Butterworth,1,2.5,0.1,0.1,13,20,1.25,0.125,0.125,0.125,,,,,,0.0069465,1.4375,1.3177,0.00694733,0.00695816,0.00696334,0.00696943,0.00698243,0.00698836,0.00699867,0.00698736,0.00697263,0.00702373,0.00708811,0.00716466,0.00718087,0.00719619,0.00721803,0.00723272,0.00732742,0.007452,0.00763098,0.00768086,0.0076822,0.00771371,0.00806632,0.00814552,0.0082877,0.00825514,0.00838207,0.00835491,0.00862274,0.00834258,0.00846252,0.00969623,0.0101285,0.0111706,0.0123764,0.0150302,0.0142868,0.0142721,0.01716,0.015164,0.0135525,0.013648,0.0178211,0.0192527,0.020207,0.0170721,0.016747,0.0174616,0.0170154,0.0161459,0.0163073,0.019454,0.0187444,0.0175377,0.01708,0.0159727,0.0148575,0.0143901,0.0169666,0.0177871,0.0190662,0.0175418,0.0148458,0.0152201,0.0129048,0.0145322,0.0129924,0.0131392,0.0126935,0.0113189,0.00875649,0.00951001,0.00866678,0.00863124,0.00841018,0.00885873,0.0103746,0.0105451,0.010165,0.00861506,0.00766679,0.00817152,0.00696409,0.00659399,0.00577293,0.00445252,0.0042827,0.00443383,0.00469898,0.00403399,0.00405311,0.00412121,0.00398791,0.00360226,0.00309611,0.00255474,0.0023721,0.00184788,0.00220333,0.00210368,0.00184537,0.00151134,0.00124411,0.00114067,0.00122944,0.00112196,0.00102236,0.00082126,0.000653116,0.000544334,0.000225343,,,,,,,,,,,,,,,,,,,,,
