;event_id;event_time;ISC_ev_id;USGS_ev_id;INGV_ev_id;EMSC_ev_id;ev_nation_code;ev_latitude;ev_longitude;ev_depth_km;ev_hyp_ref;fm_type_code;ML;ML_ref;Mw;Mw_ref;Ms;Ms_ref;EMEC_Mw;EMEC_Mw_type;EMEC_Mw_ref;strike_1;dip_1;rake_1;strike_2;dip_2;rake_2;MT_Agency;MT_Identifier;event_source_id;es_strike;es_dip;es_rake;es_strike_dip_rake_ref;es_z_top;es_z_top_ref;es_length;es_width;es_geometry_ref;network_code;station_code;location_code;instrument_code;sensor_depth_m;proximity_code;housing_code;installation_code;st_nation_code;st_latitude;st_longitude;st_elevation;ec8_code;ec8_code_method;ec8_code_ref;vs30_m_sec;vs30_ref;vs30_calc_method;vs30_meas_type;slope_deg;vs30_m_sec_WA;epi_dist;epi_az;JB_dist;rup_dist;Rx_dist;Ry0_dist;instrument_type_code;late_triggered_flag_01;U_channel_code;U_azimuth_deg;V_channel_code;V_azimuth_deg;W_channel_code;U_hp;V_hp;W_hp;U_lp;V_lp;W_lp;U_pga;V_pga;W_pga;rotD50_pga;rotD100_pga;rotD00_pga;U_pgv;V_pgv;W_pgv;rotD50_pgv;rotD100_pgv;rotD00_pgv;U_pgd;V_pgd;W_pgd;rotD50_pgd;rotD100_pgd;rotD00_pgd;U_T90;V_T90;W_T90;rotD50_T90;rotD100_T90;rotD00_T90;U_housner;V_housner;W_housner;rotD50_housner;rotD100_housner;rotD00_housner;U_CAV;V_CAV;W_CAV;rotD50_CAV;rotD100_CAV;rotD00_CAV;U_ia;V_ia;W_ia;rotD50_ia;rotD100_ia;rotD00_ia;U_T0_010;U_T0_025;U_T0_040;U_T0_050;U_T0_070;U_T0_100;U_T0_150;U_T0_200;U_T0_250;U_T0_300;U_T0_350;U_T0_400;U_T0_450;U_T0_500;U_T0_600;U_T0_700;U_T0_750;U_T0_800;U_T0_900;U_T1_000;U_T1_200;U_T1_400;U_T1_600;U_T1_800;U_T2_000;U_T2_500;U_T3_000;U_T3_500;U_T4_000;U_T4_500;U_T5_000;U_T6_000;U_T7_000;U_T8_000;U_T9_000;U_T10_000;V_T0_010;V_T0_025;V_T0_040;V_T0_050;V_T0_070;V_T0_100;V_T0_150;V_T0_200;V_T0_250;V_T0_300;V_T0_350;V_T0_400;V_T0_450;V_T0_500;V_T0_600;V_T0_700;V_T0_750;V_T0_800;V_T0_900;V_T1_000;V_T1_200;V_T1_400;V_T1_600;V_T1_800;V_T2_000;V_T2_500;V_T3_000;V_T3_500;V_T4_000;V_T4_500;V_T5_000;V_T6_000;V_T7_000;V_T8_000;V_T9_000;V_T10_000;W_T0_010;W_T0_025;W_T0_040;W_T0_050;W_T0_070;W_T0_100;W_T0_150;W_T0_200;W_T0_250;W_T0_300;W_T0_350;W_T0_400;W_T0_450;W_T0_500;W_T0_600;W_T0_700;W_T0_750;W_T0_800;W_T0_900;W_T1_000;W_T1_200;W_T1_400;W_T1_600;W_T1_800;W_T2_000;W_T2_500;W_T3_000;W_T3_500;W_T4_000;W_T4_500;W_T5_000;W_T6_000;W_T7_000;W_T8_000;W_T9_000;W_T10_000;rotD50_T0_010;rotD50_T0_025;rotD50_T0_040;rotD50_T0_050;rotD50_T0_070;rotD50_T0_100;rotD50_T0_150;rotD50_T0_200;rotD50_T0_250;rotD50_T0_300;rotD50_T0_350;rotD50_T0_400;rotD50_T0_450;rotD50_T0_500;rotD50_T0_600;rotD50_T0_700;rotD50_T0_750;rotD50_T0_800;rotD50_T0_900;rotD50_T1_000;rotD50_T1_200;rotD50_T1_400;rotD50_T1_600;rotD50_T1_800;rotD50_T2_000;rotD50_T2_500;rotD50_T3_000;rotD50_T3_500;rotD50_T4_000;rotD50_T4_500;rotD50_T5_000;rotD50_T6_000;rotD50_T7_000;rotD50_T8_000;rotD50_T9_000;rotD50_T10_000;rotD100_T0_010;rotD100_T0_025;rotD100_T0_040;rotD100_T0_050;rotD100_T0_070;rotD100_T0_100;rotD100_T0_150;rotD100_T0_200;rotD100_T0_250;rotD100_T0_300;rotD100_T0_350;rotD100_T0_400;rotD100_T0_450;rotD100_T0_500;rotD100_T0_600;rotD100_T0_700;rotD100_T0_750;rotD100_T0_800;rotD100_T0_900;rotD100_T1_000;rotD100_T1_200;rotD100_T1_400;rotD100_T1_600;rotD100_T1_800;rotD100_T2_000;rotD100_T2_500;rotD100_T3_000;rotD100_T3_500;rotD100_T4_000;rotD100_T4_500;rotD100_T5_000;rotD100_T6_000;rotD100_T7_000;rotD100_T8_000;rotD100_T9_000;rotD100_T10_000;rotD00_T0_010;rotD00_T0_025;rotD00_T0_040;rotD00_T0_050;rotD00_T0_070;rotD00_T0_100;rotD00_T0_150;rotD00_T0_200;rotD00_T0_250;rotD00_T0_300;rotD00_T0_350;rotD00_T0_400;rotD00_T0_450;rotD00_T0_500;rotD00_T0_600;rotD00_T0_700;rotD00_T0_750;rotD00_T0_800;rotD00_T0_900;rotD00_T1_000;rotD00_T1_200;rotD00_T1_400;rotD00_T1_600;rotD00_T1_800;rotD00_T2_000;rotD00_T2_500;rotD00_T3_000;rotD00_T3_500;rotD00_T4_000;rotD00_T4_500;rotD00_T5_000;rotD00_T6_000;rotD00_T7_000;rotD00_T8_000;rotD00_T9_000;rotD00_T10_000
6;AM-1988-0005;1988-12-31 04:07:09;419354.0;usp0003qbz;;;AM;40.9471;44.0456;2.2;ISC;TF;;;;;4.1;ISC;;;;;;;;;;;;;;;;;;;;;;A;LEN;0;HN;0.0;;;;AM;40.814;43.847;;C*;GEO;ESM;;;;;0.185856;255.275265;22.3;48.5;;;;;U;0.0;E;90.0;N;0.0;Z;0.5;0.5;0.5;40.0;40.0;40.0;18.323065;-29.656025;9.366068;23.325756;32.25544;13.521205;-0.752646;0.860511;0.353037;0.7602945;1.00522;0.552651;-0.103472;-0.093226;0.052149;0.0949621;0.105529;0.0760554;3.585;3.79;4.735;3.6875;3.88;3.585;2.78804;1.97179;1.15722;2.39882;2.80667;1.90316;23.0603123379;23.588078702;12.2243150932;23.3544169071;25.7181684108;20.8744597969;0.265048090382;0.333033325885;0.0638014512966;0.299040696269;0.406156326333;0.191925115313;18.3323;18.829;20.6268;25.8132;27.5865;42.3795;63.2073;79.5889;41.4673;26.4874;18.0373;16.2855;12.273;12.8022;15.7812;14.1519;10.5557;8.22252;7.85767;9.31732;7.60818;5.87235;4.777;3.64928;2.86601;1.70155;0.900595;0.531989;0.390699;0.332227;0.271593;0.199265;0.149431;0.115954;0.093062;0.076959;29.6988;31.0921;32.8171;45.855;39.196;47.8787;109.084;85.4089;34.8615;20.0718;13.2755;9.47559;12.7273;13.6968;9.61944;6.66005;6.92387;6.37196;7.91975;9.7689;4.4638;2.62573;2.45395;2.16489;1.53042;0.898229;0.644035;0.395453;0.305617;0.262989;0.207639;0.145736;0.120299;0.103698;0.09032;0.079506;9.43696;10.1153;11.9282;15.5999;37.9575;41.3161;25.1441;12.0282;12.8344;12.0177;10.2119;7.23957;7.78385;6.19968;5.11496;3.81249;4.21646;4.10468;4.33461;4.42962;5.08424;2.82506;1.55437;1.12351;0.951428;0.549823;0.293431;0.204179;0.146179;0.117025;0.109231;0.088138;0.065536;0.048167;0.038342;0.032851;23.3907;24.5672;28.22705;37.6287;34.8389;43.7671;90.85715;78.20415;36.27285;22.9684;13.52425;12.258;12.50145;13.2447;15.3432;11.16035;9.053505;7.80364;8.642745;9.400645;5.851435;4.374025;3.699165;2.743355;2.23054;1.182595;0.752322;0.466387;0.3312075;0.273472;0.217806;0.1616465;0.1264565;0.1041265;0.086718;0.075027;32.5635;34.1667;36.5605;51.7779;47.0098;52.3877;122.107;91.0814;41.705;27.0506;18.1099;16.2981;16.1917;16.3225;16.5286;15.7561;12.798;10.048;10.095;10.8534;8.09267;5.87875;4.90443;3.87969;2.90331;1.66938;0.911366;0.55312;0.40001;0.331805;0.26408;0.19223;0.146878;0.117024;0.096336;0.081425;13.7051;14.8113;16.1608;18.3314;24.9945;37.7081;48.5351;56.5184;26.4209;17.1394;11.5924;9.03268;9.57295;9.65219;9.23183;6.73145;6.63876;6.49739;7.4604;4.37622;3.80532;2.47012;1.71149;1.4864;1.41375;0.76434;0.521827;0.374144;0.283098;0.229152;0.177935;0.129888;0.102929;0.081951;0.066862;0.055822
7;AM-1988-0005;1988-12-31 04:07:09;419354.0;usp0003qbz;;;AM;40.9471;44.0456;2.2;ISC;TF;;;;;4.1;ISC;;;;;;;;;;;;;;;;;;;;;;A;MET;0;HN;0.0;;;;AM;40.827;44.113;;C*;GEO;ESM;;;;;6.024281;639.364491;14.5;337.0;;;;;U;1.0;E;90.0;N;0.0;Z;0.4;0.4;0.4;40.0;40.0;40.0;29.425496;27.302177;16.624485;28.133984;29.425495;26.400986;1.242827;-1.413697;0.710261;1.30046;1.56047;1.01967;0.112765;0.109085;-0.064811;0.1096005;0.148132;0.0934326;4.805;4.725;4.345;4.7375;5.13;4.46;2.97028;4.27394;1.38409;3.59706;4.50386;2.65434;39.1023727371;45.7235632769;17.8265304368;42.5336004511;47.2243805668;36.8255591813;0.639938351803;0.851029480785;0.153514133012;0.745483917805;0.911521748431;0.579446171357;29.4397;29.4847;30.5134;32.9504;39.6033;65.1337;125.948;104.709;60.1205;47.2589;52.5102;62.2054;39.6513;30.9313;28.4363;16.1547;12.1537;10.8974;7.15608;5.86536;4.78565;2.80347;2.19421;2.31574;2.33915;1.5648;1.12547;0.663806;0.50905;0.413005;0.308622;0.205852;0.150004;0.116591;0.094734;0.0814;27.3884;37.5226;45.6015;46.3434;63.6117;88.8296;88.22;75.9325;90.8956;95.6654;66.1363;87.8904;59.6476;39.1174;29.566;27.2505;20.8046;17.2676;15.7839;13.0382;6.91123;5.21732;4.24751;3.69299;2.63246;1.73543;0.939042;0.64899;0.480946;0.391859;0.300455;0.212077;0.162969;0.132518;0.113864;0.101023;16.9863;17.5143;35.6289;30.1511;38.6238;43.6894;32.7788;49.9948;29.9285;20.2294;22.8366;18.5404;13.3561;7.82266;9.12331;6.74452;5.28867;5.3003;3.581;3.38655;1.80236;1.83366;1.76226;1.51905;1.29215;0.952948;0.816689;0.539801;0.319054;0.252343;0.184959;0.122548;0.089638;0.07003;0.057203;0.048214;28.2746;29.51575;33.60205;38.30195;47.85865;79.54535;106.504;83.5719;75.1944;70.33785;61.645;76.0465;52.4685;36.92505;29.0012;20.78945;16.0926;13.343;12.6714;10.20765;5.1288;3.972875;3.11233;2.798375;2.42918;1.582335;1.124505;0.737723;0.4817565;0.394363;0.3034015;0.2093855;0.159326;0.12696;0.106867;0.0916555;29.4397;39.0851;47.5204;48.3111;66.3831;90.9075;126.332;105.306;97.185;97.1334;69.3856;105.831;69.2852;40.652;37.085;28.964;21.6697;17.9635;16.9632;13.9051;6.94981;5.23486;4.39747;3.95159;3.04074;1.88793;1.22418;0.840361;0.611789;0.491254;0.372635;0.262406;0.202836;0.165993;0.140654;0.122343;26.4279;27.7354;28.7379;30.8701;38.3559;59.7779;84.7285;65.6449;57.0888;45.4189;41.1939;36.8287;30.7888;24.9541;17.0726;11.2969;11.3197;9.69366;6.82907;5.30166;4.38856;2.77521;1.94073;1.59481;1.49715;1.21458;0.86692;0.634175;0.429816;0.313561;0.228575;0.161385;0.126121;0.102872;0.087355;0.076668
8;AM-1988-0005;1988-12-31 04:07:09;419354.0;usp0003qbz;;;AM;40.9471;44.0456;2.2;ISC;TF;;;;;4.1;ISC;;;;;;;;;;;;;;;;;;;;;;A;NAB;0;HN;0.0;;;;AM;40.849;44.158;;B*;GEO;ESM;;;;;2.676759;476.806118;14.4;319.0;;;;;U;0.0;E;90.0;N;0.0;Z;0.5;0.5;0.5;40.0;40.0;40.0;121.41628;129.330648;38.403307;126.0041505;130.287964;118.069855;3.821111;-4.080771;-1.33301;3.933615;4.11497;3.30297;0.227477;0.27881;-0.087814;0.2274315;0.279813;0.193212;1.185;1.13;2.395;1.14;1.395;1.06;5.01528;6.39466;2.7838;5.7849;6.44982;4.79923;79.6723045692;64.1284090965;35.10300197;73.1029085856;82.9947835452;60.5389607228;5.84568068486;4.13973574191;0.786382832276;4.99270850778;6.10894395547;3.87647253254;121.42;124.167;130.198;137.641;176.843;227.181;508.845;499.53;217.069;91.5167;66.5233;48.4607;34.345;34.4414;23.4255;14.1827;11.4527;10.8141;10.4941;8.6201;6.68546;4.71023;3.89991;3.98423;3.26131;1.99969;1.41961;1.0694;0.866955;0.759152;0.64711;0.521395;0.435605;0.373723;0.326258;0.28892;129.782;133.014;140.709;144.717;170.481;223.672;523.346;331.075;221.023;155.721;100.598;78.9411;61.9938;48.3433;32.3816;22.848;20.9004;18.3691;19.7921;16.3929;9.90319;7.75535;6.70321;5.35122;4.0193;2.252;1.54209;1.14184;0.900952;0.769189;0.629905;0.479374;0.386473;0.329303;0.285905;0.252491;38.6313;40.9563;44.1305;51.3324;66.9092;124.14;110.101;113.711;79.9553;55.1981;25.6894;23.1538;24.757;22.8274;22.8778;18.8647;15.3556;11.8896;9.54067;8.45696;6.47401;3.65085;2.56316;1.71001;1.11721;0.783979;0.636914;0.485538;0.376011;0.314006;0.250137;0.186695;0.149503;0.124987;0.107462;0.094377;126.2385;128.397;133.8285;140.849;174.1155;223.5065;518.336;425.997;220.386;144.7875;84.8748;66.3857;51.48975;39.9968;27.4641;20.6386;18.20975;16.03865;15.4135;12.85275;8.536005;6.353905;5.143245;4.116695;3.38686;2.040685;1.41289;1.066455;0.866627;0.741775;0.6154085;0.4690445;0.38224;0.322911;0.27899;0.2456555;130.585;133.797;140.91;147.596;178.721;235.509;529.311;501.597;270.915;160.72;100.75;79.2353;62.2144;48.6361;32.2609;22.8315;20.7151;19.4995;20.47;17.1261;10.9473;7.84625;6.74692;5.29424;3.98469;2.25011;1.55206;1.16285;0.921821;0.786181;0.662498;0.526863;0.435421;0.371298;0.323172;0.285814;118.623;121.586;126.496;127.706;156.604;206.63;498.153;323.363;197.066;91.848;66.3959;45.8355;32.8046;30.7828;20.8725;12.962;10.1965;9.39949;7.5112;6.46114;4.23964;3.95928;3.97818;3.53312;2.85667;1.6296;1.1472;0.892332;0.737407;0.650771;0.548547;0.422963;0.342054;0.283386;0.24741;0.220271
9;AM-1988-0005;1988-12-31 04:07:09;419354.0;usp0003qbz;;;AM;40.9471;44.0456;2.2;ISC;TF;;;;;4.1;ISC;;;;;;;;;;;;;;;;;;;;;;A;STPV;0;HN;0.0;;;;AM;40.997;44.396;1450.0;A*;GEO;ESM;;;;;1.708856;408.075683;30.0;259.5;;;;;U;0.0;E;90.0;N;0.0;Z;0.8;0.8;0.8;40.0;40.0;40.0;-25.451752;23.013762;-6.77293;22.9584885;28.309818;20.767235;1.113116;-0.735112;0.247845;0.9242635;1.13508;0.676154;0.067992;0.040487;-0.016399;0.0558369;0.077359;0.0291172;1.205;1.215;5.58;1.21;1.3;0.96;1.87865;1.46102;0.531102;1.689365;2.03389;1.17307;15.1389936024;12.6820944388;6.94267407644;13.6047123839;15.5784317263;12.0772370751;0.212437404227;0.150007538898;0.0250597423445;0.181222476676;0.213421400847;0.149023525886;25.4964;26.2396;28.4633;27.0759;30.4658;54.3353;47.1843;65.6337;65.2848;68.5488;47.7569;39.818;32.8573;25.4419;13.6278;8.91902;8.03776;7.75788;5.61139;3.99171;2.28433;1.65392;1.22298;0.932255;0.887321;0.565521;0.390368;0.328243;0.276951;0.240283;0.196756;0.151224;0.123743;0.105628;0.092237;0.081826;23.1135;23.5368;24.6152;25.3431;28.4289;33.4272;66.0026;60.2403;67.1331;49.5362;32.0435;23.8239;20.6166;18.5259;13.2313;9.29422;7.11672;5.49631;3.55698;2.47841;1.56099;1.05499;0.919728;0.706015;0.519416;0.310856;0.231121;0.180238;0.143983;0.122807;0.100378;0.08056;0.06737;0.057242;0.049959;0.044984;6.78511;6.8965;8.29219;11.3448;14.9851;18.7619;21.5251;16.055;12.953;12.41;15.7835;9.03175;4.32308;4.06351;3.50698;3.17286;2.32919;1.93806;1.70524;1.55955;0.912244;0.740468;0.483549;0.32742;0.275755;0.168453;0.119315;0.07497;0.051553;0.044216;0.041203;0.039346;0.034327;0.028306;0.022893;0.018541;22.97225;23.50195;24.55895;25.62325;29.76325;55.6195;51.89875;57.8957;66.3024;60.7755;41.7503;34.1328;27.9836;22.3496;13.426;9.102355;7.58244;6.536775;4.679055;3.296975;1.943855;1.37539;1.07472;0.8259385;0.722498;0.4549555;0.317138;0.257759;0.2137595;0.1846295;0.151177;0.115285;0.0936375;0.0790795;0.0685075;0.060522;28.3321;28.9319;31.0617;30.0205;35.0781;63.7697;67.0759;65.9905;69.5966;69.9441;47.7724;40.133;34.8475;27.1863;17.7287;11.4931;9.46323;8.99779;6.49824;4.57522;2.69199;1.91244;1.49357;1.15429;1.0128;0.636695;0.443972;0.361766;0.30001;0.258992;0.212245;0.161614;0.131202;0.110653;0.095671;0.084437;20.8444;21.3186;22.358;22.8774;26.5152;29.8471;38.8;42.7394;62.1828;49.4686;30.5456;19.24;13.4279;11.3672;7.01992;3.94885;2.92097;2.70547;1.95682;1.49724;1.23163;0.770937;0.720656;0.562443;0.427371;0.267758;0.205329;0.167829;0.136372;0.118544;0.09987;0.080309;0.066665;0.056906;0.050146;0.044899
10;AM-1988-0005;1988-12-31 04:07:09;419354.0;usp0003qbz;;;AM;40.9471;44.0456;2.2;ISC;TF;;;;;4.1;ISC;;;;;;;;;;;;;;;;;;;;;;A;STRS;0;HN;0.0;;;;AM;40.928;43.873;1870.0;A*;GEO;ESM;;;;;4.497107;564.492355;14.7;81.6;;;;;U;0.0;E;90.0;N;0.0;Z;0.8;0.8;0.8;40.0;40.0;40.0;104.962848;172.144894;-54.911768;157.5794375;178.085205;102.793747;2.618907;-3.856806;0.922802;3.80931;4.35836;2.36997;-0.086054;-0.148714;0.030696;0.1256215;0.149577;0.0725918;2.295;2.185;2.915;2.275;2.39;1.99;3.24963;4.3009;1.08674;3.87182;4.66075;2.64452;96.8834292298;106.194887223;47.2844668159;100.207144971;106.194887223;94.3715350173;5.89735335103;8.3346848941;1.30570012788;7.11601931157;8.36229113333;5.86974765443;105.958;111.523;126.695;156.87;235.933;290.043;412.796;339.179;166.711;57.6648;52.5683;46.6222;31.0088;26.5311;14.5808;11.8607;9.96597;7.8902;6.40786;4.9405;3.75774;2.48031;1.7216;1.41948;1.29224;1.02917;0.780537;0.596301;0.474734;0.406337;0.351405;0.292253;0.247633;0.21377;0.187527;0.166885;173.07;181.254;193.574;231.151;379.833;533.257;434.187;469.133;166.998;85.5588;45.3216;47.5072;42.5246;30.8311;24.6474;18.1591;13.6022;9.33539;9.63151;8.34155;6.25906;4.38842;3.17546;2.44942;1.99539;1.37902;1.05442;0.848549;0.71242;0.640459;0.554094;0.450363;0.378215;0.325609;0.286641;0.256128;55.7007;65.0533;96.0696;102.395;218.918;210.743;94.0946;58.0391;29.0759;20.6739;16.9861;12.064;9.16839;8.89477;6.55327;7.13644;7.01369;5.59105;3.32383;1.99869;1.22482;0.986198;0.83876;0.690733;0.606169;0.340049;0.21393;0.189891;0.164484;0.146513;0.137632;0.123981;0.110392;0.098084;0.087435;0.078437;157.99;162.01;175.899;208.7245;290.868;440.403;440.251;409.555;171.498;72.67455;47.7515;47.0027;36.2333;28.74575;20.33505;13.6728;11.8306;9.35326;8.11219;7.11693;5.403745;3.66379;2.64893;2.129185;1.81877;1.297155;0.972674;0.7810465;0.6596075;0.5879225;0.498815;0.3996305;0.332896;0.2839345;0.250237;0.226828;179.644;184.677;201.331;240.102;379.833;537.475;499.995;563.736;211.951;97.6149;62.2898;66.1146;49.3722;40.3803;28.6967;18.7402;13.8572;11.6996;10.574;8.51455;6.27907;4.37407;3.18004;2.47139;2.01994;1.38654;1.09745;0.926032;0.79821;0.718923;0.625103;0.510892;0.430489;0.371406;0.326319;0.290826;102.995;109.116;126.696;148.71;219.165;290.042;379.923;185.966;132.424;53.2843;38.2698;24.3622;18.4534;15.9021;12.1969;9.77374;8.29407;7.06397;4.67228;3.29614;2.82778;1.88603;1.31919;1.13648;1.01857;0.799927;0.637178;0.516696;0.437127;0.379255;0.318145;0.255187;0.21306;0.184942;0.16565;0.14989
11;AM-1989-0006;1989-01-04 07:29:40;414389.0;usp0003qgf;;;AM;40.9318;44.2621;2.7;ISC;TF;;;;;4.1;ISC;;;;;;;;;;;;;;;;;;;;;;A;MET;0;HN;0.0;;;;AM;40.827;44.113;;C*;GEO;ESM;;;;;6.024281;639.364491;17.1;47.1;;;;;U;1.0;E;90.0;N;0.0;Z;0.4;0.4;0.4;40.0;40.0;40.0;33.319386;-25.352328;20.694447;27.806102;34.979439;22.035046;-1.071059;1.028368;-0.671339;1.04788;1.14934;0.932107;-0.111871;-0.068481;0.042601;0.0880976;0.12383;0.0684809;3.56;3.75;3.375;3.7075;4.01;3.24;2.65394;2.70054;1.19423;2.69327;2.78547;2.54305;24.13694736;31.3533017197;12.7266539755;27.9474174282;32.9717165455;21.9796923355;0.321994167232;0.475208872487;0.113079486405;0.398601510141;0.552128987205;0.245074032447;33.4675;35.5078;37.0069;50.4922;68.7497;70.4906;79.279;35.8155;27.7072;31.3256;31.3301;57.3306;59.9191;38.3613;19.5715;16.8773;15.8221;14.6097;10.1208;7.06252;5.00387;3.39414;2.68473;2.04651;1.29803;0.887957;0.637339;0.477879;0.372375;0.312284;0.247627;0.179669;0.138293;0.111005;0.092025;0.07935;25.3963;26.925;39.5013;48.6989;57.8875;93.165;65.6184;40.0937;45.5675;46.3194;44.9746;54.2168;72.3961;52.0704;21.9753;10.7341;11.6767;11.8045;8.84774;6.07108;3.83135;2.53832;2.36653;1.79715;1.38165;0.95621;0.538343;0.33984;0.268521;0.23056;0.187134;0.136845;0.106194;0.086298;0.07255;0.063318;20.7339;26.6695;48.472;42.3768;33.6582;54.8193;44.7436;24.6021;19.9097;16.3922;16.709;19.726;18.9458;15.4205;7.94912;6.3266;5.43356;4.50092;3.93523;2.86012;2.57833;1.84069;1.23249;1.08492;0.797102;0.37758;0.257175;0.181575;0.135071;0.110599;0.088112;0.064151;0.05442;0.048035;0.042997;0.038915;27.8604;29.24655;39.13525;46.0093;66.4074;82.9981;66.4274;40.15675;36.9167;43.6891;38.55795;54.1802;65.99515;45.50715;20.37905;15.7911;15.1531;13.19465;9.775865;6.4992;4.276845;3.17944;2.53228;1.92255;1.299015;0.8829555;0.5573345;0.3660225;0.284927;0.2437035;0.1995585;0.1481755;0.11686;0.0960195;0.0816;0.07072;35.4504;38.0702;49.925;50.4922;78.0965;99.1488;84.9721;51.6261;45.5817;54.6295;45.2192;62.4365;84.0002;54.338;22.9877;17.5277;17.6689;16.0094;10.7088;7.40453;5.00386;3.49405;3.08182;2.05589;1.55169;1.06663;0.650967;0.49606;0.390249;0.329036;0.261842;0.189984;0.146145;0.117121;0.096783;0.08191;22.334;24.0137;30.4392;37.1539;40.4698;42.1203;40.7534;33.7551;24.0053;25.6604;30.7862;47.7902;35.8978;27.387;17.2617;10.734;9.78445;8.62026;7.45324;5.12459;3.4974;2.53864;1.95294;1.39079;1.14754;0.698826;0.481982;0.331825;0.263535;0.218613;0.166903;0.125669;0.100999;0.084446;0.072491;0.063388
