;event_id;event_time;ISC_ev_id;USGS_ev_id;INGV_ev_id;EMSC_ev_id;ev_nation_code;ev_latitude;ev_longitude;ev_depth_km;ev_hyp_ref;fm_type_code;ML;ML_ref;Mw;Mw_ref;Ms;Ms_ref;EMEC_Mw;EMEC_Mw_type;EMEC_Mw_ref;strike_1;dip_1;rake_1;strike_2;dip_2;rake_2;MT_Agency;MT_Identifier;event_source_id;es_strike;es_dip;es_rake;es_strike_dip_rake_ref;es_z_top;es_z_top_ref;es_length;es_width;es_geometry_ref;network_code;station_code;location_code;instrument_code;sensor_depth_m;proximity_code;housing_code;installation_code;st_nation_code;st_latitude;st_longitude;st_elevation;ec8_code;ec8_code_method;ec8_code_ref;vs30_m_sec;vs30_ref;vs30_calc_method;vs30_meas_type;slope_deg;vs30_m_sec_WA;epi_dist;epi_az;JB_dist;rup_dist;Rx_dist;Ry0_dist;instrument_type_code;late_triggered_flag_01;U_channel_code;U_azimuth_deg;V_channel_code;V_azimuth_deg;W_channel_code;U_hp;V_hp;W_hp;U_lp;V_lp;W_lp;U_pga;V_pga;W_pga;rotD50_pga;rotD100_pga;rotD00_pga;U_pgv;V_pgv;W_pgv;rotD50_pgv;rotD100_pgv;rotD00_pgv;U_pgd;V_pgd;W_pgd;rotD50_pgd;rotD100_pgd;rotD00_pgd;U_T90;V_T90;W_T90;rotD50_T90;rotD100_T90;rotD00_T90;U_housner;V_housner;W_housner;rotD50_housner;rotD100_housner;rotD00_housner;U_CAV;V_CAV;W_CAV;rotD50_CAV;rotD100_CAV;rotD00_CAV;U_ia;V_ia;W_ia;rotD50_ia;rotD100_ia;rotD00_ia;U_T0_010;U_T0_025;U_T0_040;U_T0_050;U_T0_070;U_T0_100;U_T0_150;U_T0_200;U_T0_250;U_T0_300;U_T0_350;U_T0_400;U_T0_450;U_T0_500;U_T0_600;U_T0_700;U_T0_750;U_T0_800;U_T0_900;U_T1_000;U_T1_200;U_T1_400;U_T1_600;U_T1_800;U_T2_000;U_T2_500;U_T3_000;U_T3_500;U_T4_000;U_T4_500;U_T5_000;U_T6_000;U_T7_000;U_T8_000;U_T9_000;U_T10_000;V_T0_010;V_T0_025;V_T0_040;V_T0_050;V_T0_070;V_T0_100;V_T0_150;V_T0_200;V_T0_250;V_T0_300;V_T0_350;V_T0_400;V_T0_450;V_T0_500;V_T0_600;V_T0_700;V_T0_750;V_T0_800;V_T0_900;V_T1_000;V_T1_200;V_T1_400;V_T1_600;V_T1_800;V_T2_000;V_T2_500;V_T3_000;V_T3_500;V_T4_000;V_T4_500;V_T5_000;V_T6_000;V_T7_000;V_T8_000;V_T9_000;V_T10_000;W_T0_010;W_T0_025;W_T0_040;W_T0_050;W_T0_070;W_T0_100;W_T0_150;W_T0_200;W_T0_250;W_T0_300;W_T0_350;W_T0_400;W_T0_450;W_T0_500;W_T0_600;W_T0_700;W_T0_750;W_T0_800;W_T0_900;W_T1_000;W_T1_200;W_T1_400;W_T1_600;W_T1_800;W_T2_000;W_T2_500;W_T3_000;W_T3_500;W_T4_000;W_T4_500;W_T5_000;W_T6_000;W_T7_000;W_T8_000;W_T9_000;W_T10_000;rotD50_T0_010;rotD50_T0_025;rotD50_T0_040;rotD50_T0_050;rotD50_T0_070;rotD50_T0_100;rotD50_T0_150;rotD50_T0_200;rotD50_T0_250;rotD50_T0_300;rotD50_T0_350;rotD50_T0_400;rotD50_T0_450;rotD50_T0_500;rotD50_T0_600;rotD50_T0_700;rotD50_T0_750;rotD50_T0_800;rotD50_T0_900;rotD50_T1_000;rotD50_T1_200;rotD50_T1_400;rotD50_T1_600;rotD50_T1_800;rotD50_T2_000;rotD50_T2_500;rotD50_T3_000;rotD50_T3_500;rotD50_T4_000;rotD50_T4_500;rotD50_T5_000;rotD50_T6_000;rotD50_T7_000;rotD50_T8_000;rotD50_T9_000;rotD50_T10_000;rotD100_T0_010;rotD100_T0_025;rotD100_T0_040;rotD100_T0_050;rotD100_T0_070;rotD100_T0_100;rotD100_T0_150;rotD100_T0_200;rotD100_T0_250;rotD100_T0_300;rotD100_T0_350;rotD100_T0_400;rotD100_T0_450;rotD100_T0_500;rotD100_T0_600;rotD100_T0_700;rotD100_T0_750;rotD100_T0_800;rotD100_T0_900;rotD100_T1_000;rotD100_T1_200;rotD100_T1_400;rotD100_T1_600;rotD100_T1_800;rotD100_T2_000;rotD100_T2_500;rotD100_T3_000;rotD100_T3_500;rotD100_T4_000;rotD100_T4_500;rotD100_T5_000;rotD100_T6_000;rotD100_T7_000;rotD100_T8_000;rotD100_T9_000;rotD100_T10_000;rotD00_T0_010;rotD00_T0_025;rotD00_T0_040;rotD00_T0_050;rotD00_T0_070;rotD00_T0_100;rotD00_T0_150;rotD00_T0_200;rotD00_T0_250;rotD00_T0_300;rotD00_T0_350;rotD00_T0_400;rotD00_T0_450;rotD00_T0_500;rotD00_T0_600;rotD00_T0_700;rotD00_T0_750;rotD00_T0_800;rotD00_T0_900;rotD00_T1_000;rotD00_T1_200;rotD00_T1_400;rotD00_T1_600;rotD00_T1_800;rotD00_T2_000;rotD00_T2_500;rotD00_T3_000;rotD00_T3_500;rotD00_T4_000;rotD00_T4_500;rotD00_T5_000;rotD00_T6_000;rotD00_T7_000;rotD00_T8_000;rotD00_T9_000;rotD00_T10_000
0;AM-1988-0001;1988-01-07 07:41:24;;;;;AM;40.91;44.25;6.0;ICS;TF;6.5;ICS;6.7;ICS;6.76;ICS;;;;;;;;;;;;;;;;;;;;;;A;GUK;0;HN;0.0;;;;AM;41.038;43.854;;C*;GEO;ESM;;;;;2.57709;469.724349;36.2;113.0;;;;;A;0.0;E;90.0;N;0.0;Z;0.2;0.2;0.2;25.0;25.0;25.0;178.752892;178.167393;130.206414;178.1107635;195.892853;153.647736;21.466717;-14.48219;-8.562458;17.71905;21.9419;13.4145;4.938742;2.962727;2.962149;3.95658;5.27962;2.50668;10.275;8.755;10.115;9.585;10.67;8.3;69.311;52.7805;36.2675;62.36655;70.6023;50.5578;361.537093419;393.66773989;237.861682553;379.342683835;395.225304039;348.911130338;25.8744426693;31.0213810852;9.79165728044;28.4479111164;31.3097672517;25.5860551244;178.802;180.839;192.981;207.073;229.807;226.913;288.072;273.718;247.641;310.032;472.478;343.213;352.338;345.581;352.659;338.18;402.836;428.655;380.516;342.409;230.666;137.515;114.393;101.605;59.5939;35.5355;34.9496;41.3645;31.8014;25.6634;18.2074;9.74775;6.46012;4.5017;3.54429;2.92277;178.211;179.015;209.203;266.986;289.325;421.652;398.963;428.786;440.46;532.115;428.791;495.097;465.097;419.135;270.191;192.304;193.3;185.363;233.851;216.74;173.601;93.3362;80.1;74.1094;44.3611;39.8186;32.1954;24.4494;17.3306;14.9619;10.9076;5.86027;4.0484;3.16941;2.45357;1.87982;130.305;137.194;169.754;221.601;266.521;248.058;166.416;206.089;155.767;151.294;192.826;160.904;91.7716;89.8638;80.365;120.503;130.155;138.421;156.249;122.934;112.617;83.8393;73.7746;44.8739;53.1304;41.3226;31.5846;21.4705;23.3823;15.2535;7.40079;4.41319;3.12336;2.67121;1.86783;1.72546;178.148;180.0125;209.3645;241.689;237.6565;308.519;341.6985;352.047;352.782;435.7235;476.444;422.17;362.8695;349.665;321.7935;252.7265;306.8305;343.905;315.489;280.032;199.5595;120.263;102.843;88.80435;52.72455;38.0702;34.08845;34.20165;25.4742;19.6188;13.9934;8.364665;5.20856;3.837755;2.95376;2.33317;195.894;198.527;225.948;280.166;291.731;425.67;399.733;437.21;447.923;532.117;494.273;529.795;467.652;436.847;372.907;339.847;402.835;428.661;381.414;342.453;231.541;137.41;117.248;113.793;66.0435;42.7868;40.0504;43.5589;31.7731;25.9556;18.3385;9.78807;6.54376;4.68181;3.67449;2.98743;153.816;154.97;165.48;184.33;192.262;195.396;232.789;198.533;231.394;285.186;415.014;328.766;298.272;285.828;240.887;173.47;175.21;185.325;225.478;216.562;172.842;85.9624;54.9172;46.5812;36.0433;31.9465;26.608;18.865;15.9377;14.2401;9.36134;5.67319;3.87842;2.89913;2.143;1.57572
1;AM-1988-0002;1988-01-07 07:45:45;;;;;AM;40.96;44.27;11.0;ICS;TF;;;;;5.8;ICS;;;;;;;;;;;;;;;;;;;;;;A;GUK;0;HN;0.0;;;;AM;41.038;43.854;;C*;GEO;ESM;;;;;2.57709;469.724349;36.1;103.8;;;;;A;0.0;E;90.0;N;0.0;Z;0.3;0.3;0.3;25.0;25.0;25.0;-97.595868;-141.955446;37.541613;107.869789;143.711777;85.125839;8.551233;10.018791;-2.761735;9.683655;11.8901;4.84877;1.384473;2.730885;0.558745;2.024115;2.85602;0.815381;8.875;5.825;10.52;6.6575;9.02;5.775;26.92;38.3747;9.64034;33.20655;41.5663;20.6;177.182039271;212.255719288;96.8999911576;195.962685887;214.881696771;176.927050083;6.88624736654;12.1113839677;1.645060998;9.49881603723;12.2668358678;6.73079452902;97.6453;99.7489;99.7239;106.049;130.065;152.87;178.869;190.86;151.558;139.197;155.528;162.738;192.886;202.909;185.821;199.127;182.815;162.643;101.707;74.1223;53.1538;37.5031;43.7812;37.2028;30.1932;22.1954;14.9925;8.59028;6.0181;4.78652;3.19525;2.03861;1.37762;0.97598;0.77044;0.667508;141.957;143.367;146.961;152.779;219.066;192.734;200.695;371.952;372.623;281.765;373.675;305.876;268.154;250.321;223.329;195.334;170.803;158.139;139.505;129.966;97.2609;76.3569;59.6202;55.12;42.3497;25.964;17.5234;13.1901;10.1608;8.13461;5.89863;3.77362;2.71209;2.1179;1.74184;1.47979;37.5509;38.595;42.473;53.2089;67.0295;81.6038;80.9539;105.509;113.708;74.7967;46.7035;68.7777;57.8299;60.7504;47.1007;46.7829;37.8386;25.3048;22.0995;20.0085;18.5499;20.7825;14.8441;16.1324;17.0862;6.59982;4.76733;3.70304;2.43111;1.69932;1.69515;1.17742;0.84258;0.651304;0.52387;0.421856;107.926;110.281;113.1;126.685;154.9125;176.923;199.918;303.1735;306.515;228.93;277.567;229.508;201.481;233.9985;189.619;196.2525;176.791;160.809;114.0845;105.2115;78.63115;59.7086;53.58755;47.2041;36.5922;24.5197;16.25065;11.0214;7.64706;6.1481;4.54477;2.987255;2.148735;1.64873;1.325865;1.10071;143.754;145.22;148.756;155.664;219.08;214.731;245.963;371.952;384.019;289.122;379.186;309.433;270.81;250.258;223.647;218.351;203.635;186.566;151.015;142.566;110.083;84.1735;71.8589;66.6656;48.8236;31.9948;21.5809;14.1392;10.6866;8.59635;6.35698;4.17094;2.99025;2.29224;1.83642;1.51902;85.2429;86.873;88.4086;96.6332;119.23;148.188;176.624;188.501;141.49;139.194;134.134;158.468;173.401;170.811;171.552;134.486;125.056;124.911;91.4214;59.8585;34.9945;23.7902;23.5605;18.3011;13.8017;14.0312;7.86432;4.08041;2.68795;2.20792;1.79263;1.29808;0.952202;0.764154;0.595015;0.485807
2;AM-1988-0004;1988-12-30 13:28:49;;;;;AM;40.92;43.98;10.0;ICS;TF;4.2;ICS;;;3.9;ICS;;;;;;;;;;;;;;;;;;;;;;A;LEN;0;HN;0.0;;;;AM;40.814;43.847;;C*;GEO;ESM;;;;;0.185856;255.275265;16.3;43.6;;;;;U;0.0;E;90.0;N;0.0;Z;0.6;0.6;0.6;40.0;40.0;40.0;11.109076;-4.583232;-4.162368;7.9979435;11.3108;4.50735;-0.396822;0.167358;0.120588;0.280979;0.397364;0.155291;0.02069;-0.018423;0.011595;0.02023265;0.0231953;0.0124797;3.305;5.19;4.53;3.9225;5.23;3.305;0.779799;0.441621;0.345645;0.6113955;0.77399;0.430109;8.45618687911;5.87445452663;4.9639508033;7.29129131165;8.45618687911;5.87304048002;0.0412040518654;0.0151367960296;0.0110481307136;0.0281704233932;0.0412040518654;0.0151367960296;11.11;11.3013;11.5665;12.5637;13.138;18.1232;33.6946;32.6247;22.9838;16.2869;13.3248;10.9888;5.98529;5.06309;6.49762;5.0189;3.88317;3.33411;2.50385;1.75118;1.57512;1.43948;0.651049;0.414018;0.328018;0.261057;0.183215;0.128205;0.089069;0.074178;0.060029;0.043266;0.030724;0.027033;0.0238;0.021552;4.58469;4.99618;5.58309;10.7628;8.10587;15.4178;21.1294;8.17318;8.83847;8.48341;8.62441;5.40152;3.92914;3.19936;2.98968;2.52637;1.90346;1.49262;1.49151;1.04649;0.625986;0.727685;0.425645;0.501051;0.454936;0.201623;0.104366;0.090554;0.070065;0.053777;0.038063;0.027141;0.022555;0.018914;0.016115;0.013963;4.1804;4.40799;5.00791;9.69268;14.0615;8.97736;12.3433;9.01871;8.98848;5.34583;4.51324;4.26915;3.86731;3.13174;2.20736;2.00917;2.16218;1.79501;1.00492;0.93113;0.852922;0.484864;0.310266;0.280488;0.2224;0.147003;0.071229;0.054345;0.046128;0.037516;0.031091;0.025583;0.019477;0.016508;0.014181;0.01234;8.005225;8.166235;9.46774;11.61765;9.89347;15.27845;24.1351;23.93425;16.3596;11.5513;11.4576;8.278645;4.68777;3.587955;4.81822;3.880425;3.19116;2.85383;2.038855;1.383775;1.11545;1.023475;0.5230845;0.4144985;0.385557;0.224476;0.128888;0.094499;0.073061;0.0598845;0.0436625;0.035112;0.0278865;0.0230315;0.019075;0.0170545;11.3109;11.5013;12.3104;14.3774;13.7001;18.2449;33.8819;32.7254;23.136;16.3326;13.9195;11.0101;6.08685;5.06623;6.51479;5.17206;3.888;3.51471;2.50725;1.80802;1.57554;1.4462;0.624794;0.466949;0.433084;0.249875;0.167282;0.12303;0.09138;0.074262;0.057889;0.043223;0.035305;0.030389;0.026847;0.024119;4.53386;4.87784;5.58271;8.71707;7.81396;12.3147;18.3008;8.17305;8.06612;7.95245;5.74323;5.402;3.85789;3.03436;2.88139;1.6164;1.70748;1.49477;1.45028;1.04542;0.558224;0.449629;0.356733;0.368233;0.31632;0.164236;0.093984;0.076555;0.053618;0.040785;0.032352;0.025952;0.021228;0.017858;0.015183;0.013054
3;AM-1988-0004;1988-12-30 13:28:49;;;;;AM;40.92;43.98;10.0;ICS;TF;4.2;ICS;;;3.9;ICS;;;;;;;;;;;;;;;;;;;;;;A;NAB;0;HN;0.0;;;;AM;40.849;44.158;;B*;GEO;ESM;;;;;2.676759;476.806118;16.9;297.8;;;;;U;0.0;E;90.0;N;0.0;Z;0.4;0.4;0.4;40.0;40.0;40.0;71.654441;-59.821761;28.864018;65.90432;91.282059;25.873255;2.048949;1.73378;0.791172;1.86877;2.533;1.02446;0.075868;0.128141;0.054593;0.1028684;0.144868;0.0664858;0.795;1.23;1.2;1.155;1.28;0.72;2.49335;2.51747;1.19962;2.507865;2.88691;2.12018;28.4677285341;29.470258534;13.6226707113;28.968993534;35.3293321202;19.727910393;1.02655699389;0.984954905307;0.183561381115;1.0057559496;1.66923234258;0.342279521709;71.664;73.3634;76.425;77.7625;101.487;140.135;238.498;154.245;83.0487;76.6366;56.1537;29.0781;17.3489;12.155;9.80289;8.1415;7.81031;7.74045;6.80013;5.85613;4.25843;2.26094;1.71062;1.5794;1.48521;0.923255;0.678163;0.550629;0.439169;0.369274;0.291602;0.211487;0.175875;0.156368;0.139285;0.124737;59.8388;61.2296;64.5041;63.5772;75.2302;95.213;235.759;169.495;87.6821;60.088;39.523;26.9017;19.4852;15.4178;10.4957;8.56229;7.34554;7.48043;6.94025;5.93182;3.30537;3.16388;2.53313;1.94413;1.61983;1.02671;0.812193;0.660208;0.550962;0.4839;0.405935;0.315727;0.256188;0.214308;0.183372;0.159764;29.0314;29.8443;32.1232;32.3665;37.9963;64.2319;89.1742;55.4007;37.1183;24.3692;26.3716;17.2034;12.0757;10.4574;5.00039;3.49401;3.55155;3.09984;2.04849;1.72101;1.9034;1.7195;1.33836;1.2266;0.907371;0.555902;0.524117;0.370853;0.31463;0.264236;0.199823;0.136512;0.0926;0.064855;0.053442;0.051269;66.0234;67.52195;70.8601;71.0692;88.91265;119.3775;237.1245;162.537;85.40885;72.2291;50.15125;31.0582;20.84265;13.8444;10.09655;8.468125;7.994405;7.744645;6.676025;5.62099;4.09423;2.57215;2.19322;1.871905;1.61997;1.05578;0.6586515;0.533931;0.4418095;0.386227;0.321135;0.248589;0.2012445;0.1697485;0.147595;0.1324855;91.5763;93.4137;96.4902;100.202;120.103;168.135;317.844;215.191;117.686;79.9806;56.2872;34.5204;25.1389;17.9671;11.9054;10.0636;9.68211;9.09872;7.05458;6.11065;4.50009;3.09885;2.51695;2.11266;1.94133;1.14849;0.902835;0.735192;0.610339;0.533047;0.443819;0.342509;0.276451;0.231122;0.198396;0.173586;25.9765;26.3153;28.2948;31.3168;42.8052;56.9864;91.1899;87.8798;52.3464;38.9846;29.538;24.4682;17.1471;11.6828;7.68708;6.96859;6.67767;6.04049;5.26687;5.06914;3.28683;2.10385;1.68221;1.5373;1.31954;0.726402;0.573297;0.409025;0.317407;0.26228;0.20289;0.142308;0.107135;0.090688;0.078417;0.068555
4;AM-1988-0004;1988-12-30 13:28:49;;;;;AM;40.92;43.98;10.0;ICS;TF;4.2;ICS;;;3.9;ICS;;;;;;;;;;;;;;;;;;;;;;A;STRS;0;HN;0.0;;;;AM;40.928;43.873;1870.0;A*;GEO;ESM;;;;;4.497107;564.492355;9.1;95.6;;;;;U;0.0;E;90.0;N;0.0;Z;0.4;0.4;0.4;40.0;40.0;40.0;-23.952838;27.189574;11.208656;24.53333;29.398033;18.782539;-0.634706;-0.81023;0.267445;0.7467305;0.845376;0.570765;0.045672;0.057668;-0.037451;0.0545768;0.0583968;0.0383819;2.99;2.78;4.135;2.9025;3.285;2.77;1.09403;1.66758;0.554785;1.467235;1.66777;1.09671;22.6857175068;25.7931049474;11.6439550235;24.3588740833;27.7961496788;19.7992411658;0.287534234573;0.368762142649;0.0666983446703;0.328148174722;0.439690147515;0.216606255493;23.9959;26.8051;40.1896;53.6465;82.2299;58.8779;47.846;76.8502;45.0519;27.2778;17.2651;12.5153;8.22335;6.70587;8.03597;6.33407;4.63212;3.38603;2.31894;1.61121;1.1995;1.47547;1.18674;0.843512;0.700337;0.534148;0.369352;0.281009;0.232632;0.203134;0.167612;0.126202;0.099079;0.080608;0.067388;0.057993;27.315;28.8857;37.3707;54.56;77.3567;64.8092;80.2656;63.1393;50.7399;34.0114;16.9501;12.9467;13.4546;11.6299;7.96489;8.58288;6.87071;5.00159;5.0298;4.65554;3.61006;3.18894;2.3436;1.78902;1.23941;0.583333;0.356386;0.234744;0.181379;0.166581;0.140656;0.12468;0.108886;0.095215;0.083908;0.074688;11.2418;12.7369;24.2278;35.8537;43.463;27.4417;14.9237;8.79409;8.69923;6.234;5.53477;3.65259;3.27549;3.63236;3.46139;2.76871;2.54717;2.32738;1.83398;1.71136;1.21629;0.988297;0.794485;0.67515;0.54834;0.367766;0.299254;0.224726;0.160853;0.136972;0.115002;0.08787;0.069133;0.056041;0.046545;0.039397;24.79735;26.857;39.5317;51.755;79.7943;63.9171;67.1627;70.61825;50.3039;30.3791;17.91865;13.28565;11.4103;10.512;8.053525;7.27122;6.0408;5.090885;3.9415;3.684015;2.614745;2.392935;1.81482;1.329865;0.990818;0.575484;0.396762;0.2959275;0.2285765;0.1912825;0.152489;0.1122325;0.0875495;0.071514;0.060564;0.0534785;29.4089;31.4875;43.1964;55.9867;100.492;70.079;80.4376;80.86;53.6282;36.5871;19.658;15.7488;13.7731;12.7092;10.2529;8.55763;6.75906;5.47207;5.27986;4.83116;3.5898;3.15165;2.28633;1.80203;1.28485;0.638178;0.429833;0.328068;0.257248;0.216138;0.171599;0.124732;0.096468;0.078154;0.065539;0.056367;18.9489;19.0212;27.246;37.6541;40.4097;45.9504;43.898;54.2801;41.4279;19.8647;15.3978;9.62456;7.62463;6.69247;6.86802;4.92117;4.14596;3.29664;2.16095;1.51605;1.18794;1.5391;1.21037;0.775694;0.677156;0.504487;0.312226;0.232716;0.182568;0.149806;0.118106;0.086815;0.068041;0.05719;0.048803;0.042281
5;AM-1988-0005;1988-12-31 04:07:09;419354.0;usp0003qbz;;;AM;40.9471;44.0456;2.2;ISC;TF;;;;;4.1;ISC;;;;;;;;;;;;;;;;;;;;;;A;DZHN;0;HN;0.0;;;;AM;40.79;44.189;;C*;GEO;ESM;;;;;1.82786;416.521574;21.2;325.3;;;;;U;0.0;E;90.0;N;0.0;Z;0.5;0.5;0.5;40.0;40.0;40.0;-49.859807;-41.771009;-15.701386;47.1637975;51.314491;38.294182;1.573088;-1.278016;-0.59286;1.41652;1.89731;1.27802;0.088418;-0.086538;-0.051841;0.08747785;0.101486;0.0659511;2.675;3.04;5.18;2.96;3.04;2.675;2.73748;3.13595;1.46979;2.999955;3.36853;2.42375;47.78314072;47.6860907643;27.52783441;47.7346157421;51.9431988722;43.9092890551;1.38633459654;1.21829444675;0.311182058368;1.30231445165;1.54313445667;1.0614946897;50.1706;51.4593;53.5864;60.565;78.8665;128.473;196.882;123.918;110.987;94.2582;69.0897;68.0493;36.3722;18.5376;19.1701;12.5478;8.2759;6.78081;4.95236;3.75047;2.96456;2.14035;2.14009;1.84444;1.30178;0.840167;0.686254;0.504507;0.412058;0.327159;0.234089;0.179897;0.140081;0.121922;0.114446;0.107033;41.9664;42.9488;44.718;47.447;68.3864;107.422;173.273;112.353;88.8168;128.785;66.7916;58.5487;47.6622;37.342;32.2825;15.536;13.4302;11.014;8.48255;6.74848;3.49257;3.00046;1.71709;1.45732;1.36856;0.77988;0.55536;0.458125;0.375754;0.316042;0.24457;0.189973;0.156791;0.130081;0.109634;0.094403;15.7336;15.8951;17.0951;22.4651;35.0834;62.8478;43.8744;37.784;76.2512;63.6591;32.687;20.2351;16.6168;10.4799;5.25718;4.87898;4.32325;4.04084;2.74344;2.28554;3.06638;2.6014;1.22201;0.906763;1.03891;0.725793;0.453985;0.302432;0.217485;0.204701;0.157576;0.104387;0.082767;0.066398;0.054956;0.046877;47.39205;48.3788;51.1846;53.9409;69.3478;116.585;176.0165;113.096;99.9493;111.9015;67.9949;63.673;42.83905;30.37535;27.2683;14.58945;10.9315;9.917545;7.07523;5.31135;3.46861;2.59166;1.984345;1.556115;1.305075;0.854138;0.598331;0.476128;0.366496;0.3074965;0.247586;0.1826965;0.1472175;0.1252495;0.110531;0.098477;51.4543;52.3253;55.7011;60.7894;81.3287;134.847;200.186;139.216;110.978;137.621;89.0724;77.6538;51.3979;37.4265;33.9878;17.6822;14.4887;11.2255;9.09109;7.49861;4.4285;3.1523;2.37524;1.84755;1.46227;0.961915;0.717229;0.514318;0.407771;0.332327;0.257685;0.209962;0.179753;0.157306;0.139579;0.125299;38.4525;39.6764;41.7635;43.2508;61.2315;99.214;144.64;84.2217;75.3331;82.1583;44.0917;41.952;30.1873;18.6648;16.0326;9.82967;7.19429;6.58195;4.79091;3.36207;2.35605;1.64619;1.5283;1.27409;1.05715;0.727907;0.516097;0.403816;0.329459;0.280614;0.220407;0.163862;0.135174;0.114182;0.098605;0.087493
