;event_id;event_time;ISC_ev_id;USGS_ev_id;INGV_ev_id;EMSC_ev_id;ev_nation_code;ev_latitude;ev_longitude;ev_depth_km;ev_hyp_ref;fm_type_code;ML;ML_ref;Mw;Mw_ref;Ms;Ms_ref;EMEC_Mw;EMEC_Mw_type;EMEC_Mw_ref;strike_1;dip_1;rake_1;strike_2;dip_2;rake_2;MT_Agency;MT_Identifier;event_source_id;es_strike;es_dip;es_rake;es_strike_dip_rake_ref;es_z_top;es_z_top_ref;es_length;es_width;es_geometry_ref;network_code;station_code;location_code;instrument_code;sensor_depth_m;proximity_code;housing_code;installation_code;st_nation_code;st_latitude;st_longitude;st_elevation;ec8_code;ec8_code_method;ec8_code_ref;vs30_m_sec;vs30_ref;vs30_calc_method;vs30_meas_type;slope_deg;vs30_m_sec_WA;epi_dist;epi_az;JB_dist;rup_dist;Rx_dist;Ry0_dist;instrument_type_code;late_triggered_flag_01;U_channel_code;U_azimuth_deg;V_channel_code;V_azimuth_deg;W_channel_code;U_hp;V_hp;W_hp;U_lp;V_lp;W_lp;U_pga;V_pga;W_pga;rotD50_pga;rotD100_pga;rotD00_pga;U_pgv;V_pgv;W_pgv;rotD50_pgv;rotD100_pgv;rotD00_pgv;U_pgd;V_pgd;W_pgd;rotD50_pgd;rotD100_pgd;rotD00_pgd;U_T90;V_T90;W_T90;rotD50_T90;rotD100_T90;rotD00_T90;U_housner;V_housner;W_housner;rotD50_housner;rotD100_housner;rotD00_housner;U_CAV;V_CAV;W_CAV;rotD50_CAV;rotD100_CAV;rotD00_CAV;U_ia;V_ia;W_ia;rotD50_ia;rotD100_ia;rotD00_ia;U_T0_010;U_T0_025;U_T0_040;U_T0_050;U_T0_070;U_T0_100;U_T0_150;U_T0_200;U_T0_250;U_T0_300;U_T0_350;U_T0_400;U_T0_450;U_T0_500;U_T0_600;U_T0_700;U_T0_750;U_T0_800;U_T0_900;U_T1_000;U_T1_200;U_T1_400;U_T1_600;U_T1_800;U_T2_000;U_T2_500;U_T3_000;U_T3_500;U_T4_000;U_T4_500;U_T5_000;U_T6_000;U_T7_000;U_T8_000;U_T9_000;U_T10_000;V_T0_010;V_T0_025;V_T0_040;V_T0_050;V_T0_070;V_T0_100;V_T0_150;V_T0_200;V_T0_250;V_T0_300;V_T0_350;V_T0_400;V_T0_450;V_T0_500;V_T0_600;V_T0_700;V_T0_750;V_T0_800;V_T0_900;V_T1_000;V_T1_200;V_T1_400;V_T1_600;V_T1_800;V_T2_000;V_T2_500;V_T3_000;V_T3_500;V_T4_000;V_T4_500;V_T5_000;V_T6_000;V_T7_000;V_T8_000;V_T9_000;V_T10_000;W_T0_010;W_T0_025;W_T0_040;W_T0_050;W_T0_070;W_T0_100;W_T0_150;W_T0_200;W_T0_250;W_T0_300;W_T0_350;W_T0_400;W_T0_450;W_T0_500;W_T0_600;W_T0_700;W_T0_750;W_T0_800;W_T0_900;W_T1_000;W_T1_200;W_T1_400;W_T1_600;W_T1_800;W_T2_000;W_T2_500;W_T3_000;W_T3_500;W_T4_000;W_T4_500;W_T5_000;W_T6_000;W_T7_000;W_T8_000;W_T9_000;W_T10_000;rotD50_T0_010;rotD50_T0_025;rotD50_T0_040;rotD50_T0_050;rotD50_T0_070;rotD50_T0_100;rotD50_T0_150;rotD50_T0_200;rotD50_T0_250;rotD50_T0_300;rotD50_T0_350;rotD50_T0_400;rotD50_T0_450;rotD50_T0_500;rotD50_T0_600;rotD50_T0_700;rotD50_T0_750;rotD50_T0_800;rotD50_T0_900;rotD50_T1_000;rotD50_T1_200;rotD50_T1_400;rotD50_T1_600;rotD50_T1_800;rotD50_T2_000;rotD50_T2_500;rotD50_T3_000;rotD50_T3_500;rotD50_T4_000;rotD50_T4_500;rotD50_T5_000;rotD50_T6_000;rotD50_T7_000;rotD50_T8_000;rotD50_T9_000;rotD50_T10_000;rotD100_T0_010;rotD100_T0_025;rotD100_T0_040;rotD100_T0_050;rotD100_T0_070;rotD100_T0_100;rotD100_T0_150;rotD100_T0_200;rotD100_T0_250;rotD100_T0_300;rotD100_T0_350;rotD100_T0_400;rotD100_T0_450;rotD100_T0_500;rotD100_T0_600;rotD100_T0_700;rotD100_T0_750;rotD100_T0_800;rotD100_T0_900;rotD100_T1_000;rotD100_T1_200;rotD100_T1_400;rotD100_T1_600;rotD100_T1_800;rotD100_T2_000;rotD100_T2_500;rotD100_T3_000;rotD100_T3_500;rotD100_T4_000;rotD100_T4_500;rotD100_T5_000;rotD100_T6_000;rotD100_T7_000;rotD100_T8_000;rotD100_T9_000;rotD100_T10_000;rotD00_T0_010;rotD00_T0_025;rotD00_T0_040;rotD00_T0_050;rotD00_T0_070;rotD00_T0_100;rotD00_T0_150;rotD00_T0_200;rotD00_T0_250;rotD00_T0_300;rotD00_T0_350;rotD00_T0_400;rotD00_T0_450;rotD00_T0_500;rotD00_T0_600;rotD00_T0_700;rotD00_T0_750;rotD00_T0_800;rotD00_T0_900;rotD00_T1_000;rotD00_T1_200;rotD00_T1_400;rotD00_T1_600;rotD00_T1_800;rotD00_T2_000;rotD00_T2_500;rotD00_T3_000;rotD00_T3_500;rotD00_T4_000;rotD00_T4_500;rotD00_T5_000;rotD00_T6_000;rotD00_T7_000;rotD00_T8_000;rotD00_T9_000;rotD00_T10_000
24;AM-1990-0013;1990-12-16 15:45:40;347607.0;usp0004j77;;;GE;41.3679;43.7234;28.3;ISC;SS;5.2;Arefiev_et_al_1991a;5.4;Arefiev_et_al_1991a;5.1;ISC;;;;;;;;;;;;;;;;;;;;;;A;SVNZ;0;HN;0.0;;;;AM;40.804;44.506;1380.0;B*;GEO;ESM;;;;;5.671122;618.191079;90.8;313.9;;;;;D;0.0;E;90.0;N;0.0;Z;0.3;0.3;0.3;30.0;30.0;30.0;-7.506062;-6.739472;3.831588;7.330643;9.175341;5.884777;-0.421138;-0.34168;-0.180231;0.3817875;0.459776;0.33858;0.035226;0.049762;-0.03136;0.05044605;0.0591343;0.035227;9.47;9.705;12.94;9.675;9.81;9.44;1.17946;1.44876;0.630156;1.34412;1.44848;1.1602;15.1377502277;14.1797003528;10.8465305373;14.5083881129;15.1915369029;14.1715988211;0.046919023017;0.0425580471168;0.0198591170444;0.0447385363286;0.0469336213018;0.0425434519546;7.53342;8.22352;8.3582;8.69708;7.94668;14.1579;18.884;18.0696;15.8936;15.3925;14.4517;15.2691;12.5;13.1727;9.77749;7.66058;7.60452;6.74815;5.9481;6.17385;2.41787;1.45773;0.987858;0.706301;0.582511;0.427583;0.359531;0.215205;0.13007;0.10336;0.077774;0.066622;0.056153;0.046792;0.039235;0.033411;6.77237;6.73657;8.47313;7.91981;8.28991;11.3891;18.0635;19.4743;12.8955;17.3693;15.4708;12.9075;12.3742;6.89511;6.88395;9.39736;9.81072;7.96827;6.24286;5.24649;3.02072;2.86304;2.37;1.73525;1.28775;0.818376;0.40647;0.338309;0.243112;0.214528;0.144496;0.078693;0.05522;0.043749;0.036027;0.031632;3.85422;4.25236;5.08112;5.80646;7.34038;10.738;9.78483;6.68026;5.71301;7.72852;6.62012;4.85428;5.47863;5.46009;5.30427;4.07346;4.12521;3.70714;2.21747;1.64893;1.57799;0.820197;0.894753;0.755624;0.521464;0.314101;0.230608;0.321259;0.275307;0.179518;0.10947;0.053018;0.039621;0.031562;0.025779;0.021401;7.335655;7.63869;8.377795;8.391835;8.21779;12.1528;18.64515;20.18185;13.66195;16.4614;14.4442;14.2263;12.4397;10.7599;8.33864;7.755165;8.556715;7.45827;6.08059;5.69412;2.744095;2.2701;1.770985;1.28774;1.058045;0.622943;0.4171695;0.277708;0.1982335;0.1591335;0.112525;0.076919;0.057324;0.044648;0.0371505;0.0321405;9.24382;9.90238;10.2391;10.8527;9.39008;16.2828;21.7403;23.5594;17.7421;19.0965;15.6666;15.7815;16.8965;13.2808;9.78552;9.51345;9.99564;8.73866;6.95942;7.12731;3.0922;2.92256;2.37225;1.77703;1.28543;0.819629;0.436002;0.342175;0.246797;0.21717;0.14771;0.093254;0.065632;0.047456;0.038593;0.033366;5.94142;6.51463;7.3858;7.69793;7.39129;9.02766;13.9646;17.6001;12.3664;12.0121;10.5728;9.06366;6.70205;6.21259;6.25171;7.19081;6.08712;6.48899;5.71339;4.36963;2.18785;1.22292;0.871605;0.65341;0.581708;0.400559;0.316481;0.213111;0.127938;0.098679;0.07876;0.060868;0.050425;0.041298;0.034181;0.029804
25;AT-1996-0001;1996-01-09 01:07:21;941203.0;usp0007app;;;AT;47.9511;16.3956;10.0;ISC;SS;4.0;EIDC;;;;;;;;;;;;;;;;;;;;;;;;;;OE;RWNA;0;HN;0.0;;;;AT;47.814;16.244;265.0;;;;;;;;1.260075;376.233795;19.0;36.6;;;;;D;0.0;E;90.0;N;0.0;Z;0.3;0.3;0.3;40.0;40.0;40.0;-6.057842;4.432257;2.054841;5.1967615;6.14451;3.643689;-0.16862;0.138876;-0.055879;0.156347;0.16862;0.098085;0.006754;-0.008952;-0.002263;0.00675303;0.00895215;0.00537727;5.615;7.82;7.595;6.4375;7.86;5.285;0.210705;0.186779;0.0916713;0.201937;0.215739;0.182353;6.26335892626;6.19380666066;4.48083086037;6.24435814965;6.38605367094;6.13568931418;0.0106852008591;0.00729082850248;0.00401916000092;0.00898801501552;0.0107732917683;0.00720273675521;6.09972;6.27246;6.56902;7.786;7.53155;13.0436;12.7896;17.9604;13.6194;7.92194;4.93775;2.94989;2.28129;1.76378;1.05792;0.725431;0.612881;0.510245;0.377884;0.30608;0.206699;0.156142;0.130237;0.102562;0.079191;0.054455;0.041367;0.036472;0.028816;0.024669;0.021046;0.017531;0.015108;0.013209;0.011694;0.010489;4.45439;4.54484;4.89529;5.23293;7.16904;7.71597;11.1303;10.185;8.38862;6.22836;4.15675;3.16458;2.1671;1.69425;0.973667;0.6675;0.599337;0.526748;0.441862;0.430336;0.266858;0.219763;0.15253;0.13151;0.101036;0.068469;0.056139;0.039225;0.030787;0.025472;0.020919;0.018027;0.014841;0.012124;0.010245;0.008917;2.05843;2.11227;3.02725;3.53314;7.49432;4.69244;3.71506;5.43806;4.20401;2.67732;1.54502;1.54969;0.942715;0.705549;0.588768;0.38945;0.3523;0.265041;0.192841;0.135467;0.099924;0.100638;0.11106;0.064881;0.053208;0.028263;0.018516;0.013259;0.010652;0.009482;0.007871;0.006303;0.00533;0.004596;0.004034;0.003599;5.20745;5.34838;5.59141;6.32728;7.577435;9.80636;13.30595;13.42705;11.03795;6.70242;4.45233;3.32822;2.298205;1.793585;1.113075;0.724977;0.605175;0.525674;0.4297905;0.3742595;0.230712;0.178567;0.134898;0.104523;0.082283;0.05551;0.041462;0.0349925;0.0287545;0.0248545;0.0209845;0.017172;0.014387;0.012117;0.0104905;0.009488;6.17453;6.34408;6.61962;7.81799;8.751;13.4171;15.4044;18.7546;13.9743;7.92769;5.39941;3.99543;2.62448;1.95429;1.35829;0.954652;0.809159;0.678218;0.498452;0.43033;0.267837;0.221265;0.153502;0.131432;0.101017;0.068344;0.056101;0.039387;0.030735;0.027667;0.023809;0.017978;0.015089;0.013198;0.011695;0.010494;3.65176;3.71563;4.01086;4.62494;6.62297;6.72387;11.0733;6.18882;5.96376;5.89471;4.05248;2.66746;1.85739;1.4623;0.888348;0.607393;0.520775;0.467907;0.34812;0.282526;0.205637;0.155993;0.103195;0.082272;0.073664;0.04786;0.034622;0.028287;0.023159;0.02037;0.016828;0.013588;0.011583;0.00966;0.008441;0.007427
26;AT-1996-0001;1996-01-09 01:07:21;941203.0;usp0007app;;;AT;47.9511;16.3956;10.0;ISC;SS;4.0;EIDC;;;;;;;;;;;;;;;;;;;;;;;;;;OE;VIE1;0;HN;0.0;;;;AT;48.218;16.362;168.0;C*;GEO;ESM;;;;;2.217599;444.19019;29.8;175.2;;;;;D;0.0;E;90.0;N;0.0;Z;0.3;0.3;0.3;40.0;40.0;40.0;1.578657;-1.535312;-1.571144;1.563445;2.019623;1.353835;-0.058921;-0.070627;-0.02996;0.0650378;0.0919774;0.0496815;-0.004987;-0.006507;-0.002185;0.00578284;0.00734125;0.00481593;17.08;15.295;15.935;16.4475;17.305;15.245;0.16822;0.176336;0.0789981;0.175188;0.18291;0.165998;4.52555836046;4.87186528369;4.63540500808;4.6575669434;4.87315842139;4.49092161902;0.00218410474616;0.00268012660731;0.0025178975143;0.00243211568464;0.00268322901974;0.00218100253882;1.58658;1.65967;1.98498;2.09256;2.99553;4.14152;3.06378;2.28296;3.99015;3.58515;2.76681;1.73795;1.25397;1.44743;0.919068;1.15357;1.03211;0.818252;0.783188;0.675966;0.480043;0.183926;0.1957;0.111303;0.083245;0.047129;0.031566;0.025078;0.017503;0.014187;0.010657;0.008868;0.007058;0.005848;0.004979;0.00429;1.53834;1.60441;1.73307;1.93558;2.98547;6.595;3.91662;3.98201;3.84559;2.49865;2.35045;1.66585;1.62483;1.38637;1.54415;1.12126;1.13696;1.04954;0.762971;0.587362;0.357551;0.334745;0.156972;0.106921;0.091869;0.049103;0.034155;0.028752;0.022352;0.020025;0.016066;0.011806;0.009704;0.007936;0.00669;0.005846;1.58555;1.74484;2.98678;2.79821;4.38585;5.39697;1.83139;1.56783;1.60246;1.06659;1.14526;0.908218;0.649037;0.725646;0.592258;0.418509;0.353501;0.320928;0.321086;0.266477;0.162895;0.154535;0.086484;0.0488;0.040998;0.031294;0.020806;0.015649;0.015294;0.008786;0.005708;0.003965;0.003236;0.002669;0.002263;0.001984;1.573335;1.63794;1.840065;1.992605;2.96162;5.621905;3.604075;3.576855;3.88378;3.166455;2.581775;1.817355;1.72374;1.4169;1.249505;1.06364;1.01507;0.903156;0.747895;0.6526175;0.423194;0.269481;0.187537;0.1110355;0.085983;0.051256;0.036059;0.0258625;0.0183465;0.01712;0.01302;0.009975;0.0081675;0.0068015;0.005807;0.0050745;2.02616;2.10572;2.47316;2.53665;3.66486;7.16094;4.61359;4.42546;4.82013;3.78682;3.39765;2.4031;1.98324;1.90818;1.57724;1.1736;1.14592;1.05138;0.79394;0.729575;0.506296;0.342823;0.199689;0.120369;0.095842;0.06187;0.040471;0.033435;0.025937;0.022271;0.018221;0.014107;0.011551;0.009614;0.008212;0.007176;1.35447;1.39903;1.46959;1.57287;2.25885;3.67386;2.65669;2.22472;2.90479;2.06763;1.98341;1.34505;1.21119;1.20297;0.919069;0.921626;0.870676;0.801049;0.67334;0.587359;0.321703;0.183916;0.15413;0.098177;0.077113;0.045718;0.03018;0.021149;0.016495;0.013455;0.010172;0.008498;0.006636;0.005568;0.004692;0.004077
27;AT-1996-0001;1996-01-09 01:07:21;941203.0;usp0007app;;;AT;47.9511;16.3956;10.0;ISC;SS;4.0;EIDC;;;;;;;;;;;;;;;;;;;;;;;;;;OE;VIE3;0;HN;0.0;;;;AT;48.191;16.369;180.0;B*;GEO;ESM;;;;;2.003591;428.99553;26.7;175.7;;;;;D;0.0;E;90.0;N;0.0;Z;0.3;0.3;0.3;40.0;40.0;40.0;-1.124611;-1.20747;1.051628;1.1353495;1.244931;0.957508;-0.050548;-0.036862;0.033431;0.0443478;0.051397;0.0368618;0.005705;0.006007;0.003682;0.00585545;0.00827883;0.00432861;19.86;18.835;17.935;19.395;20.055;17.365;0.171389;0.140945;0.0987239;0.1614915;0.177649;0.133028;3.72283317772;3.58684484916;3.78836737212;3.72463827867;3.77044955342;3.58584285894;0.00150390507114;0.00134835396305;0.00145150641082;0.00142612956934;0.00150671437432;0.00134554466169;1.12826;1.20272;1.4321;1.44654;2.01141;3.53078;2.40073;3.40091;3.71449;1.93726;1.99295;2.19137;1.71315;1.91855;1.15726;0.803163;0.713593;0.620112;0.660783;0.714593;0.346982;0.227627;0.158019;0.17764;0.148594;0.078465;0.05663;0.035027;0.025214;0.016226;0.011382;0.009331;0.006847;0.005158;0.004323;0.003802;1.20752;1.33394;1.55163;1.97685;2.38719;3.97361;2.21304;2.01937;2.25756;1.69751;1.60783;1.74014;1.5245;1.19412;0.907092;0.817237;0.887619;0.808177;0.479702;0.586931;0.360935;0.250739;0.143321;0.137352;0.103775;0.052469;0.035235;0.034733;0.024166;0.019792;0.015674;0.007515;0.006112;0.005484;0.004809;0.003978;1.07941;1.33432;1.66528;2.12074;2.80102;3.71367;1.82177;1.61833;1.47463;1.67626;1.57555;1.42364;1.51828;1.03598;0.589664;0.592298;0.652766;0.63333;0.318854;0.2696;0.18829;0.109318;0.097431;0.075119;0.07538;0.048281;0.025411;0.017573;0.017833;0.012173;0.011798;0.00587;0.004493;0.003176;0.002745;0.002611;1.136645;1.231385;1.423955;1.56058;2.08895;3.77139;2.32514;2.81626;2.88602;1.82098;1.8175;2.018175;1.712865;1.517695;1.12948;0.8101995;0.7725925;0.6888275;0.59509;0.592229;0.346679;0.2412935;0.1626125;0.162346;0.128989;0.056423;0.0450785;0.034488;0.0250645;0.017208;0.013211;0.008554;0.0067495;0.0057375;0.004863;0.004123;1.24637;1.33394;1.55649;1.97685;2.40968;4.1021;2.45915;3.40091;3.72849;2.11347;2.05368;2.54188;2.0705;1.92625;1.21932;1.00075;1.00664;0.880307;0.801535;0.743757;0.448134;0.314629;0.174784;0.2131;0.158606;0.079609;0.061464;0.041006;0.027275;0.023443;0.018589;0.011361;0.009208;0.007285;0.00635;0.005368;0.958122;1.08549;1.16884;1.27455;1.95674;2.9143;2.09685;1.98164;1.96994;1.12167;1.45189;1.74014;1.5245;1.17878;0.825396;0.604523;0.54528;0.559249;0.479714;0.478898;0.205859;0.155563;0.143319;0.116371;0.07296;0.049133;0.031364;0.031142;0.019202;0.015552;0.011217;0.007326;0.005032;0.004166;0.003622;0.003098
28;AT-1996-0001;1996-01-09 01:07:21;941203.0;usp0007app;;;AT;47.9511;16.3956;10.0;ISC;SS;4.0;EIDC;;;;;;;;;;;;;;;;;;;;;;;;;;OE;VIE5;0;HN;0.0;;;;AT;48.236;16.29;318.0;C*;GEO;ESM;;;;;6.487098;667.976262;32.6;166.0;;;;;D;0.0;E;90.0;N;0.0;Z;0.5;0.5;0.5;40.0;40.0;40.0;-1.724118;-2.091906;1.121588;1.8741995;2.091906;1.438072;-0.044123;0.056543;0.032209;0.0495105;0.0622552;0.0423495;0.002585;-0.002626;0.002065;0.002533345;0.00266078;0.00225778;11.21;10.34;13.455;10.765;11.34;10.135;0.0912372;0.0934749;0.0802985;0.09236315;0.0961635;0.0858592;3.33336743447;2.69318704995;2.57946663339;3.04844144821;3.36640454175;2.6670906968;0.00173617225263;0.00130562490756;0.000934403989536;0.00152089868659;0.00174880712527;0.00129298979938;1.74383;1.90372;1.85258;2.01371;3.36369;5.13345;4.21744;3.02617;3.28772;2.42993;1.49329;1.57959;1.41292;1.04812;0.654466;0.482344;0.390587;0.388272;0.256238;0.149733;0.168205;0.126456;0.06106;0.05555;0.047323;0.024657;0.017054;0.012747;0.011973;0.010381;0.00796;0.005549;0.004434;0.003783;0.003302;0.00291;2.10196;2.17781;2.4324;2.88552;3.90712;5.11757;2.43386;2.74306;3.53259;3.64057;2.11741;1.64902;1.71227;1.70287;0.613638;0.488821;0.410389;0.352136;0.307855;0.15782;0.11694;0.075801;0.049578;0.042914;0.036351;0.022004;0.016125;0.013008;0.010391;0.008687;0.007764;0.00654;0.005534;0.00477;0.004193;0.003743;1.12547;1.12963;1.43613;1.26086;1.75325;3.31719;2.12126;3.16812;2.94337;1.98879;1.68293;1.27385;1.09908;0.797993;0.635345;0.512509;0.479519;0.432101;0.254314;0.172916;0.104688;0.080411;0.03996;0.043232;0.043625;0.019956;0.010619;0.008301;0.006381;0.005577;0.005006;0.003971;0.003027;0.002559;0.002222;0.00204;1.887985;1.99503;2.13179;2.346265;3.58201;5.093505;3.281025;2.86222;3.33442;3.23005;1.835495;1.608635;1.407495;1.389535;0.6399385;0.481505;0.4061045;0.350137;0.269143;0.180645;0.146192;0.102852;0.0577875;0.048453;0.0374865;0.0216575;0.015798;0.0122985;0.010273;0.0088115;0.0075365;0.005849;0.0047395;0.003989;0.0034845;0.003119;2.10196;2.18109;2.4324;2.88647;4.152;5.37421;4.34671;3.33926;3.67611;3.86768;2.11652;1.6642;1.71251;1.71825;0.732359;0.577109;0.462111;0.393775;0.311118;0.201497;0.173146;0.126743;0.063352;0.058479;0.04635;0.023916;0.017669;0.013527;0.011343;0.01008;0.008197;0.006519;0.005607;0.004893;0.004335;0.003886;1.44818;1.51047;1.73084;2.01371;2.28473;4.57489;2.43386;2.40668;2.6911;2.35294;1.46141;1.537;1.17338;0.987945;0.530359;0.402772;0.326645;0.284437;0.227794;0.14973;0.095785;0.07122;0.049729;0.04149;0.031557;0.020437;0.01435;0.011165;0.009494;0.008338;0.006729;0.004831;0.003813;0.003284;0.002942;0.00256
29;AT-1996-0001;1996-01-09 01:07:21;941203.0;usp0007app;;;AT;47.9511;16.3956;10.0;ISC;SS;4.0;EIDC;;;;;;;;;;;;;;;;;;;;;;;;;;OE;WRN2;0;HN;0.0;;;;AT;47.814;16.232;265.0;;;;;;;;1.169615;369.816922;19.5;38.7;;;;;D;0.0;E;90.0;N;0.0;Z;0.3;0.3;0.3;40.0;40.0;40.0;-4.370134;4.274;2.081547;4.357201;4.562819;3.60901;-0.130505;0.170496;-0.06173;0.1532945;0.17061;0.129629;0.008145;-0.011128;-0.003699;0.00973776;0.01213;0.00557783;7.6;7.3;8.445;7.4675;7.615;7.26;0.258447;0.258264;0.0981403;0.2583185;0.304851;0.201007;6.87817139041;7.42850964083;4.21639778288;7.08671059426;7.55052507605;6.68631910542;0.00994074809347;0.010406022105;0.00330746355011;0.0101733848163;0.010706357566;0.00964041166347;4.37476;4.43568;4.89007;5.16212;6.28705;10.0516;7.73946;7.70912;9.69894;12.008;9.26891;6.27061;3.9898;2.91127;1.41777;0.942708;0.801704;0.694769;0.533095;0.431292;0.277941;0.236392;0.163131;0.144187;0.141956;0.075847;0.062771;0.038306;0.031634;0.026382;0.022088;0.018911;0.015248;0.011955;0.010091;0.00898;4.28012;4.42986;4.72124;4.69103;6.39742;9.55598;7.91463;9.65289;8.54011;10.9911;7.28911;6.04941;3.81422;2.95053;1.70132;1.15932;0.984423;0.860913;0.64086;0.477038;0.308637;0.231688;0.180284;0.141733;0.129821;0.081958;0.061268;0.050917;0.036664;0.028101;0.026111;0.020866;0.016735;0.014271;0.012153;0.010416;2.08411;2.33937;3.36504;4.20158;4.88264;7.70674;4.78701;3.26923;4.10079;2.85712;1.4189;1.08491;0.90779;0.767068;0.693057;0.321514;0.309685;0.338818;0.263436;0.188655;0.111343;0.119211;0.12338;0.094795;0.069503;0.042075;0.029183;0.028238;0.029316;0.023607;0.016817;0.010391;0.007006;0.005077;0.004688;0.004078;4.368545;4.46847;4.78388;5.15655;6.321625;9.88511;8.514615;8.69868;8.620585;10.87815;8.330345;6.113935;3.90201;2.9309;1.607305;1.077025;0.909071;0.7919735;0.592468;0.456934;0.295882;0.233166;0.1786995;0.1411365;0.128169;0.0788905;0.062324;0.0444755;0.033677;0.0279285;0.023592;0.0197395;0.0157135;0.0128275;0.0109255;0.0095085;4.56571;4.70468;5.13546;5.77653;7.4022;11.4953;9.44421;9.89292;9.79433;12.3431;9.99302;7.32273;5.13176;3.89883;2.11817;1.36985;1.17979;1.03805;0.798166;0.618087;0.403743;0.300945;0.203449;0.171389;0.153624;0.095264;0.074601;0.052931;0.038502;0.030688;0.027078;0.022788;0.017932;0.014745;0.0126;0.010985;3.61648;3.86635;3.86679;4.32941;5.56629;7.88141;7.56167;7.32229;7.97077;9.71408;5.38355;3.4719;2.52888;1.69823;1.06661;0.697417;0.607004;0.49428;0.359199;0.280143;0.229028;0.180144;0.117821;0.091137;0.092624;0.05855;0.043862;0.028365;0.023218;0.022191;0.018627;0.014885;0.012931;0.011131;0.009793;0.008706
