;event_id;event_time;ISC_ev_id;USGS_ev_id;INGV_ev_id;EMSC_ev_id;ev_nation_code;ev_latitude;ev_longitude;ev_depth_km;ev_hyp_ref;fm_type_code;ML;ML_ref;Mw;Mw_ref;Ms;Ms_ref;EMEC_Mw;EMEC_Mw_type;EMEC_Mw_ref;strike_1;dip_1;rake_1;strike_2;dip_2;rake_2;MT_Agency;MT_Identifier;event_source_id;es_strike;es_dip;es_rake;es_strike_dip_rake_ref;es_z_top;es_z_top_ref;es_length;es_width;es_geometry_ref;network_code;station_code;location_code;instrument_code;sensor_depth_m;proximity_code;housing_code;installation_code;st_nation_code;st_latitude;st_longitude;st_elevation;ec8_code;ec8_code_method;ec8_code_ref;vs30_m_sec;vs30_ref;vs30_calc_method;vs30_meas_type;slope_deg;vs30_m_sec_WA;epi_dist;epi_az;JB_dist;rup_dist;Rx_dist;Ry0_dist;instrument_type_code;late_triggered_flag_01;U_channel_code;U_azimuth_deg;V_channel_code;V_azimuth_deg;W_channel_code;U_hp;V_hp;W_hp;U_lp;V_lp;W_lp;U_pga;V_pga;W_pga;rotD50_pga;rotD100_pga;rotD00_pga;U_pgv;V_pgv;W_pgv;rotD50_pgv;rotD100_pgv;rotD00_pgv;U_pgd;V_pgd;W_pgd;rotD50_pgd;rotD100_pgd;rotD00_pgd;U_T90;V_T90;W_T90;rotD50_T90;rotD100_T90;rotD00_T90;U_housner;V_housner;W_housner;rotD50_housner;rotD100_housner;rotD00_housner;U_CAV;V_CAV;W_CAV;rotD50_CAV;rotD100_CAV;rotD00_CAV;U_ia;V_ia;W_ia;rotD50_ia;rotD100_ia;rotD00_ia;U_T0_010;U_T0_025;U_T0_040;U_T0_050;U_T0_070;U_T0_100;U_T0_150;U_T0_200;U_T0_250;U_T0_300;U_T0_350;U_T0_400;U_T0_450;U_T0_500;U_T0_600;U_T0_700;U_T0_750;U_T0_800;U_T0_900;U_T1_000;U_T1_200;U_T1_400;U_T1_600;U_T1_800;U_T2_000;U_T2_500;U_T3_000;U_T3_500;U_T4_000;U_T4_500;U_T5_000;U_T6_000;U_T7_000;U_T8_000;U_T9_000;U_T10_000;V_T0_010;V_T0_025;V_T0_040;V_T0_050;V_T0_070;V_T0_100;V_T0_150;V_T0_200;V_T0_250;V_T0_300;V_T0_350;V_T0_400;V_T0_450;V_T0_500;V_T0_600;V_T0_700;V_T0_750;V_T0_800;V_T0_900;V_T1_000;V_T1_200;V_T1_400;V_T1_600;V_T1_800;V_T2_000;V_T2_500;V_T3_000;V_T3_500;V_T4_000;V_T4_500;V_T5_000;V_T6_000;V_T7_000;V_T8_000;V_T9_000;V_T10_000;W_T0_010;W_T0_025;W_T0_040;W_T0_050;W_T0_070;W_T0_100;W_T0_150;W_T0_200;W_T0_250;W_T0_300;W_T0_350;W_T0_400;W_T0_450;W_T0_500;W_T0_600;W_T0_700;W_T0_750;W_T0_800;W_T0_900;W_T1_000;W_T1_200;W_T1_400;W_T1_600;W_T1_800;W_T2_000;W_T2_500;W_T3_000;W_T3_500;W_T4_000;W_T4_500;W_T5_000;W_T6_000;W_T7_000;W_T8_000;W_T9_000;W_T10_000;rotD50_T0_010;rotD50_T0_025;rotD50_T0_040;rotD50_T0_050;rotD50_T0_070;rotD50_T0_100;rotD50_T0_150;rotD50_T0_200;rotD50_T0_250;rotD50_T0_300;rotD50_T0_350;rotD50_T0_400;rotD50_T0_450;rotD50_T0_500;rotD50_T0_600;rotD50_T0_700;rotD50_T0_750;rotD50_T0_800;rotD50_T0_900;rotD50_T1_000;rotD50_T1_200;rotD50_T1_400;rotD50_T1_600;rotD50_T1_800;rotD50_T2_000;rotD50_T2_500;rotD50_T3_000;rotD50_T3_500;rotD50_T4_000;rotD50_T4_500;rotD50_T5_000;rotD50_T6_000;rotD50_T7_000;rotD50_T8_000;rotD50_T9_000;rotD50_T10_000;rotD100_T0_010;rotD100_T0_025;rotD100_T0_040;rotD100_T0_050;rotD100_T0_070;rotD100_T0_100;rotD100_T0_150;rotD100_T0_200;rotD100_T0_250;rotD100_T0_300;rotD100_T0_350;rotD100_T0_400;rotD100_T0_450;rotD100_T0_500;rotD100_T0_600;rotD100_T0_700;rotD100_T0_750;rotD100_T0_800;rotD100_T0_900;rotD100_T1_000;rotD100_T1_200;rotD100_T1_400;rotD100_T1_600;rotD100_T1_800;rotD100_T2_000;rotD100_T2_500;rotD100_T3_000;rotD100_T3_500;rotD100_T4_000;rotD100_T4_500;rotD100_T5_000;rotD100_T6_000;rotD100_T7_000;rotD100_T8_000;rotD100_T9_000;rotD100_T10_000;rotD00_T0_010;rotD00_T0_025;rotD00_T0_040;rotD00_T0_050;rotD00_T0_070;rotD00_T0_100;rotD00_T0_150;rotD00_T0_200;rotD00_T0_250;rotD00_T0_300;rotD00_T0_350;rotD00_T0_400;rotD00_T0_450;rotD00_T0_500;rotD00_T0_600;rotD00_T0_700;rotD00_T0_750;rotD00_T0_800;rotD00_T0_900;rotD00_T1_000;rotD00_T1_200;rotD00_T1_400;rotD00_T1_600;rotD00_T1_800;rotD00_T2_000;rotD00_T2_500;rotD00_T3_000;rotD00_T3_500;rotD00_T4_000;rotD00_T4_500;rotD00_T5_000;rotD00_T6_000;rotD00_T7_000;rotD00_T8_000;rotD00_T9_000;rotD00_T10_000
40;DE-1992-0010;1992-12-30 21:34:10;260076.0;usp0005k3a;494919.0;;DE;47.7083;8.2941;27.0;ISC;SS;4.1;FUR-NEIC;3.7;Plenefisch_Bonjer_1997;;;;;;;;;;;;;;;;;;;;;;;;LE;SOL;0;HN;0.0;;;;DE;47.602;7.945;757.0;A*;GEO;ESM;;;;;6.447548;665.529239;28.8;65.6;;;;;U;0.0;3;;2;;Z;0.2;0.2;0.2;80.0;80.0;80.0;17.170355;-30.635939;-14.322434;;;;0.242737;0.37386;0.154871;;;;-0.006111;0.006663;-0.004384;;;;1.545;1.25;5.845;;;;0.122441;0.179832;0.106492;;;;5.77306622879;6.57019727623;5.84259885696;;;;0.025506004683;0.0480395146402;0.0188058504639;;;;17.319;18.7661;34.747;45.0038;42.1663;32.0387;12.9204;5.48893;3.78931;2.7967;2.13115;1.62192;1.23702;0.963834;0.612541;0.412215;0.37491;0.34516;0.296589;0.255744;0.197571;0.158757;0.130606;0.11068;0.095502;0.069612;0.054432;0.044547;0.037672;0.033464;0.028596;0.022959;0.019196;0.017022;0.015285;0.013866;31.9823;39.2822;60.5417;82.1879;54.1399;46.2754;19.7248;11.2252;7.03533;4.71174;3.31183;2.39142;1.77336;1.38899;0.952535;0.732457;0.648092;0.576418;0.468655;0.392452;0.295678;0.23684;0.197714;0.168688;0.147517;0.11175;0.089405;0.074576;0.063997;0.057462;0.049755;0.04062;0.034346;0.029879;0.02643;0.023725;14.9489;21.4063;29.0475;47.0276;35.1665;19.7855;11.0676;6.38443;4.01981;2.71831;1.94995;1.33322;0.989638;0.788675;0.55811;0.423665;0.374011;0.332354;0.262401;0.212736;0.154907;0.117842;0.093704;0.076145;0.064171;0.045241;0.034136;0.027262;0.022591;0.019798;0.016613;0.013081;0.011276;0.010067;0.009089;0.008267;;;;;;;;;;;;;;;;;;;;;;;;;;;;;;;;;;;;;;;;;;;;;;;;;;;;;;;;;;;;;;;;;;;;;;;;;;;;;;;;;;;;;;;;;;;;;;;;;;;;;;;;;;;;
41;DE-1992-0010;1992-12-30 21:34:10;260076.0;usp0005k3a;494919.0;;DE;47.7083;8.2941;27.0;ISC;SS;4.1;FUR-NEIC;3.7;Plenefisch_Bonjer_1997;;;;;;;;;;;;;;;;;;;;;;;;LE;STA;0;HN;0.0;;;;DE;47.864;7.797;430.0;A*;GEO;ESM;;;;;16.959615;997.849477;41.1;114.7;;;;;U;0.0;3;;2;;Z;0.2;0.2;0.2;60.0;60.0;60.0;-2.125189;-1.377106;1.643229;;;;0.040784;-0.018813;0.019818;;;;-0.00119;0.000608;-0.000677;;;;6.54;13.11;11.76;;;;0.0342125;0.017727;0.021244;;;;1.7506563218;1.82693952366;1.97182466464;;;;0.000979304726745;0.00072285372438;0.000896819048621;;;;2.17479;2.29632;3.32087;5.02812;5.67749;5.19741;3.53176;1.99884;1.44448;0.671206;0.65882;0.646368;0.520771;0.35146;0.168184;0.092569;0.0728;0.065801;0.052856;0.050945;0.048922;0.04037;0.033523;0.027132;0.022288;0.015314;0.011496;0.009289;0.007719;0.006791;0.005774;0.004664;0.003925;0.00339;0.002982;0.002661;1.39023;3.11645;4.0997;2.33726;3.85777;2.57848;1.92213;1.01193;0.733774;0.416991;0.257047;0.204878;0.170567;0.120689;0.067096;0.054211;0.049927;0.045748;0.036729;0.030465;0.0203;0.022157;0.018755;0.017532;0.013436;0.009327;0.005894;0.004743;0.004071;0.00354;0.002886;0.002237;0.001884;0.001642;0.001451;0.001297;1.69299;1.88639;2.63752;4.10752;3.72428;3.78352;1.70908;1.60987;0.749624;0.778255;0.385761;0.297571;0.220382;0.150645;0.133961;0.079953;0.073892;0.064613;0.049195;0.042239;0.02515;0.01892;0.014197;0.012373;0.010015;0.007243;0.005598;0.004531;0.003788;0.003342;0.002832;0.002276;0.00192;0.001651;0.001442;0.001277;;;;;;;;;;;;;;;;;;;;;;;;;;;;;;;;;;;;;;;;;;;;;;;;;;;;;;;;;;;;;;;;;;;;;;;;;;;;;;;;;;;;;;;;;;;;;;;;;;;;;;;;;;;;
42;DE-1992-0010;1992-12-30 21:34:10;260076.0;usp0005k3a;494919.0;;DE;47.7083;8.2941;27.0;ISC;SS;4.1;FUR-NEIC;3.7;Plenefisch_Bonjer_1997;;;;;;;;;;;;;;;;;;;;;;;;LE;WYH;0;HN;0.0;;;;DE;47.551;7.707;350.0;A*;GEO;ESM;;;;;12.365402;874.240478;47.5;68.2;;;;;U;0.0;3;;2;;Z;0.3;0.3;0.3;60.0;60.0;60.0;-3.329634;-3.469837;2.224078;;;;0.105223;0.06926;0.054104;;;;0.005403;0.002578;-0.001691;;;;2.805;3.235;9.515;;;;0.131225;0.075518;0.0605658;;;;2.20874101968;1.91600816345;3.119639132;;;;0.00225175111962;0.00147285631554;0.00295130397211;;;;3.34421;3.56713;4.41399;6.60189;4.53276;7.77753;9.81039;5.66174;3.78699;3.78955;3.97463;2.67529;1.60307;1.04775;0.607724;0.480415;0.431488;0.38405;0.293446;0.250164;0.197434;0.157686;0.124376;0.100439;0.082646;0.05466;0.039749;0.030841;0.025159;0.021917;0.018331;0.014366;0.011788;0.010029;0.008721;0.007713;3.47292;3.88955;4.96233;4.19637;6.28925;7.10195;5.75335;3.73142;2.72621;3.27969;2.41451;1.5399;1.10007;0.680699;0.320924;0.216536;0.204077;0.192393;0.167567;0.140931;0.102458;0.076073;0.0596;0.048955;0.039933;0.027936;0.021308;0.017267;0.014453;0.01284;0.010976;0.008761;0.007272;0.006221;0.005436;0.004841;2.24154;2.69254;5.07002;7.03826;4.98846;7.97722;9.28171;5.07252;2.80664;1.22464;0.99658;0.902059;0.606317;0.401854;0.253977;0.184525;0.149246;0.13635;0.120419;0.098331;0.062851;0.053737;0.042053;0.032719;0.027528;0.018385;0.014069;0.011288;0.009628;0.00855;0.007258;0.005859;0.004944;0.004263;0.003738;0.003325;;;;;;;;;;;;;;;;;;;;;;;;;;;;;;;;;;;;;;;;;;;;;;;;;;;;;;;;;;;;;;;;;;;;;;;;;;;;;;;;;;;;;;;;;;;;;;;;;;;;;;;;;;;;
43;DZ-1980-0016;1980-10-30 23:38:11;638048.0;usp0001aku;;;DZ;36.361;1.652;1.2;ISC;TF;4.6;LDG;;;4.5;ISC;5.34;Mw-mb;Dew90;;;;;;;;;;;;;;;;;;;EU;BRS;0;HN;0.0;;;;DZ;36.273;1.499;;A*;GEO;ESM;;;;;8.653243;777.571135;16.9;54.6;;;;;A;0.0;E;90.0;N;0.0;Z;0.3;0.3;0.3;25.0;25.0;25.0;48.048249;-38.366255;18.074112;43.7611105;50.543423;34.596367;-2.889099;-3.276068;1.569479;3.070725;3.28666;2.83279;-0.583887;0.564038;-0.418413;0.546735;0.590547;0.452915;12.825;14.73;14.43;13.56;15.01;12.78;15.8031;15.4494;9.1544;15.6093;16.9731;13.8221;131.781351961;131.527207149;66.9520666383;131.698496898;135.177598149;126.719829814;2.75489952139;2.45530887816;0.621485818427;2.60510420724;2.85214706593;2.35806165744;48.1054;49.0969;53.6292;52.1367;67.0815;76.6696;121.365;80.3577;85.3723;103.755;111.295;114.438;138.058;123.682;80.0922;80.4192;84.4079;99.8164;62.3058;38.5644;35.6649;33.3332;26.2037;19.5839;20.5928;9.64568;4.86531;4.24218;3.12868;2.56676;1.59601;0.916763;0.686823;0.503538;0.376022;0.291848;38.3694;38.8316;38.4894;41.4731;43.9543;64.4872;77.2826;132.197;83.927;87.8741;83.7462;104.727;125.643;84.8176;52.1013;78.6022;85.8146;82.3459;69.1728;47.9803;57.5577;36.7413;27.0653;20.6881;15.8416;7.12127;3.65419;2.46162;2.31361;1.97097;1.44482;0.931805;0.596925;0.451047;0.363368;0.314936;18.0732;18.2156;19.2886;21.9351;24.3907;29.8735;38.8227;40.8604;41.1941;47.6123;48.9352;36.8602;34.1321;33.7967;42.2704;34.9643;34.7327;30.4639;31.651;37.5381;18.2889;24.3328;20.8007;17.2107;10.1523;5.40766;3.63363;4.34666;3.16954;2.26386;1.22747;0.656896;0.450431;0.320741;0.271152;0.211181;43.76255;44.068;45.97435;46.6262;66.397;67.7741;107.414;98.1527;83.356;95.6979;85.1474;110.0145;124.964;118.296;74.09195;80.01085;83.84735;89.6546;66.46845;42.93035;46.30025;32.82315;26.21485;20.7141;18.12615;8.717685;4.37205;3.79461;2.37803;1.99203;1.39616;0.8703925;0.5964325;0.452501;0.367289;0.299872;50.6124;51.5034;55.7392;53.6662;71.6206;76.6706;123.849;135.987;90.3193;112.281;118.189;120.609;145.698;132.129;86.4936;88.577;89.3844;105.354;80.1074;48.018;56.8109;37.4093;30.7374;22.5541;20.9071;11.9128;5.42412;4.5573;3.24921;2.65039;1.57772;0.957957;0.65668;0.48663;0.38844;0.328789;34.6889;35.0275;36.7737;36.8815;43.5332;57.9253;70.3661;68.2469;68.3826;71.6053;67.6058;83.9854;116.724;84.8505;49.1534;70.9498;73.175;78.8425;51.1357;38.5676;32.7948;21.8402;19.2507;17.1486;14.4408;6.56437;3.56218;2.25108;1.93369;1.40547;1.06936;0.7201;0.502696;0.394011;0.307254;0.249319
44;DZ-1989-0023;1989-10-29 19:09:13;391121.0;usp00041ej;;;DZ;36.7815;2.4426;6.0;ISC;TF;5.3;LDG;5.9;ICS;5.7;ISC;;;;;;;;;;;;Qk000224;247.9;70.0;;Ambraseys_et_al_2004;0.0;Ambraseys_et_al_2004;13.0;11.0;Ambraseys_et_al_2004;FC;ALG;0;HN;0.0;;;;DZ;36.83;3.0;332.0;A*;GEO;ESM;;;;;;;50.0;264.0;53.07;53.13;3.03;53.05;A;0.0;E;90.0;N;0.0;Z;0.25;0.25;0.25;25.0;25.0;25.0;-35.70607;34.079048;20.798213;35.6775935;41.456505;31.013237;-2.298194;2.500493;-1.103438;2.412775;2.68608;1.75905;-0.842744;-1.109633;-0.693808;0.8576205;1.13906;0.637324;11.54;11.32;12.08;11.4825;12.64;10.51;8.86395;8.6776;5.15106;8.788605;10.1403;6.43734;100.598060115;99.3175952163;72.4880352018;100.273410921;101.95502915;95.6688868684;1.71450945816;1.77237374497;0.845855224654;1.74344168259;1.86598535463;1.62089793931;35.9207;37.3727;40.8032;43.5296;70.0252;89.1425;85.4143;64.7364;66.9833;111.261;93.1576;81.5121;62.1838;67.141;47.7373;30.7444;24.6007;18.5312;12.2407;10.7236;12.3716;17.3108;14.9348;13.3564;17.9221;9.78248;6.2498;6.64298;6.24778;4.6127;3.0806;1.54603;1.41141;1.19701;0.950147;0.753633;34.2062;35.1151;43.7348;60.0717;75.9968;113.716;104.039;90.613;115.761;85.4131;103.268;57.7635;51.7574;54.5854;36.8148;23.561;24.448;25.3623;18.1534;16.8737;12.1544;13.2088;12.9653;11.6979;16.4064;13.0429;8.44046;9.74186;5.59917;3.81349;3.50501;2.38372;1.41507;0.907729;0.757349;0.6312;20.8456;21.4633;24.0573;33.286;53.0458;48.8194;68.5221;67.4117;50.1403;41.7791;34.071;34.9674;25.6037;24.3914;26.5371;18.5264;12.4888;11.2385;14.0529;11.0334;10.5738;9.2663;10.6885;10.2046;8.73736;4.87833;6.84691;4.72899;3.41715;3.03026;2.08011;1.5421;0.920399;0.727885;0.585212;0.434337;35.8549;37.306;43.62665;52.14265;74.1997;97.78225;92.6685;78.60625;88.6525;102.3685;93.63135;70.2142;56.78745;61.1525;46.8618;27.32245;24.36375;21.527;14.634;14.87625;12.19805;14.88895;13.58095;12.72005;17.12685;11.29725;7.507455;8.9503;5.817225;4.236915;3.182695;2.26159;1.382455;1.007591;0.7689845;0.6231275;41.4954;42.734;45.8014;61.3865;81.2165;114.857;109.072;88.827;120.445;111.389;108.296;90.1722;71.5211;71.447;49.8693;32.2193;27.1708;27.0035;18.2369;16.7795;13.6935;17.808;17.6503;16.1784;24.146;14.9152;8.51939;9.87183;7.22744;5.40622;3.78338;2.507;1.79143;1.41822;1.08409;0.829171;31.1607;32.5475;38.0342;42.6798;58.7561;86.7147;63.9726;62.5204;59.9947;73.1464;70.2741;43.621;48.4206;48.6234;36.1797;18.3219;13.5402;12.1604;11.4404;10.2772;8.7786;11.0332;8.56903;7.99545;6.32498;5.61962;4.32637;6.41017;4.51693;2.69837;2.00837;1.52958;1.01222;0.781104;0.562207;0.40976
45;EMSC-19980224_0000009;1998-02-24 15:11:42;1078580.0;usp0008ghb;;19980224_0000009;GR;36.3006;28.2246;30.6;ISC;U;4.2;THE;;;3.8;ISC;4.8;Mw;RCMTS;;;;;;;;;;;;;;;;;;;HI;ROD1;0;HN;;;;;GR;36.449885;28.223017;;;;;;;;;3.04139;498.14367;16.6;179.5;;;;;A;0.0;3;198.0;2;288.0;Z;0.3;0.3;0.3;25.0;25.0;25.0;-37.59019;-52.837647;23.691141;43.3487645;52.849915;28.102411;1.755859;3.54881;-0.792289;2.92988;3.89253;0.999304;0.244747;0.56728;0.133833;0.4325145;0.608787;0.119803;7.56;6.97;9.785;7.075;8.5;6.61;4.71692;8.89272;2.4148;7.07221;9.52123;3.13606;37.8245523499;42.0859476064;34.2361839331;40.2622444563;46.8209379315;33.6437917214;0.404603608937;0.674806931189;0.324631799702;0.539705240136;0.779413493972;0.299996996822;37.7551;38.6334;39.7606;37.8571;47.0806;69.7658;83.2964;54.5575;61.8548;49.6705;43.4347;42.6776;47.3416;45.03;31.5725;29.9488;28.1676;25.7;20.6936;15.4941;9.65365;7.2463;5.68349;3.67144;3.33763;3.63233;2.75263;1.40505;1.02488;0.871635;0.699027;0.50952;0.392242;0.314512;0.260068;0.220414;52.966;53.5499;53.9745;53.118;62.3382;76.058;76.5391;83.4696;88.5249;90.1063;81.5072;81.8115;77.8966;76.9186;65.9712;54.6846;51.7686;48.5116;40.8435;32.7984;22.3977;15.8297;11.5796;8.62072;6.9198;4.89824;3.58668;2.71426;2.11765;1.77311;1.39836;1.0052;0.76777;0.612749;0.505768;0.428079;23.701;24.8286;29.9948;33.439;48.2919;110.097;53.8172;30.6975;40.8067;20.7941;22.0903;16.9877;11.7761;9.24534;10.4603;11.3665;9.0939;9.54543;7.94104;7.91993;4.76497;3.19412;3.06411;2.78324;3.81394;2.21551;1.58368;1.18224;0.816884;0.590582;0.380329;0.266547;0.196147;0.150571;0.119618;0.097697;43.42625;43.9487;46.40055;47.7533;49.3145;71.10955;76.51145;72.0961;78.2807;73.1035;65.71535;66.8108;64.8149;63.8866;50.2453;44.1682;41.0508;39.06355;32.51035;26.07525;16.3633;11.44995;8.626875;6.589465;5.318895;4.550415;3.286265;2.13789;1.65441;1.37418;1.073495;0.7617075;0.577441;0.459416;0.3787285;0.320757;53.01;53.6174;54.0766;53.0987;63.4345;90.466;83.5589;83.5234;91.763;95.0204;84.04;90.872;89.2722;88.0597;70.2828;59.2814;56.562;54.3012;45.1912;35.94;23.079;16.1611;12.0268;9.22387;7.22928;5.97484;4.04393;2.94152;2.27014;1.88143;1.46317;1.03134;0.77723;0.615113;0.504845;0.42617;28.1255;28.6144;29.592;31.4422;38.1219;55.2465;69.1495;53.9228;48.3214;31.8225;23.8307;29.0051;20.3504;15.3287;21.4133;18.7891;15.4604;12.5515;9.62161;8.35387;8.55433;4.04653;3.60987;3.57739;3.09332;1.43677;0.950443;0.931702;0.491775;0.375316;0.269555;0.177703;0.135827;0.105;0.083284;0.069454
46;EMSC-19980224_0000009;1998-02-24 15:11:42;1078580.0;usp0008ghb;;19980224_0000009;GR;36.3006;28.2246;30.6;ISC;U;4.2;THE;;;3.8;ISC;4.8;Mw;RCMTS;;;;;;;;;;;;;;;;;;;HI;ROD2;0;HN;0.0;;;;GR;36.431206;28.206418;;;;;;;;;2.340674;452.930538;14.6;173.6;;;;;A;0.0;3;324.0;2;54.0;Z;0.3;0.3;0.3;25.0;25.0;25.0;63.281482;42.277263;41.021968;54.54694;66.409622;40.185947;-2.538908;-1.648975;1.034659;2.08747;2.74281;1.18385;-0.28473;-0.175498;0.121498;0.232053;0.317822;0.123325;7.07;6.805;7.37;6.875;7.585;6.305;6.25758;3.9508;2.81351;5.213145;6.72634;3.24887;86.4750976918;87.5568883845;78.2624880533;87.0419266107;88.7314879022;84.5519154263;1.85128378705;1.71722024256;1.50150112421;1.78425199907;1.92231709663;1.64618695833;63.3456;63.7914;67.9516;77.0906;104.345;118.695;144.349;140.643;114.855;98.7691;72.6521;73.5142;58.9593;42.8693;35.9121;32.4273;30.4786;27.5808;21.2603;16.2381;12.5617;10.7471;9.04951;6.42582;5.64524;3.76172;2.75335;2.02846;1.53033;1.24694;0.949489;0.651042;0.481566;0.377227;0.307714;0.258787;42.5399;43.6857;45.9417;63.6725;59.9544;139.35;143.238;83.016;90.9884;56.4717;33.8927;33.5394;30.4149;23.7785;18.6494;17.3285;17.3222;15.5346;15.4851;14.364;9.62331;7.43666;5.80651;4.05955;3.15374;1.73887;1.25793;1.08665;0.703755;0.579222;0.448167;0.316495;0.24147;0.194011;0.16175;0.138575;41.0267;42.1327;51.0145;65.6319;100.895;181.685;100.237;100.957;79.5168;62.5464;32.9618;23.789;20.3593;17.7546;16.1916;12.9482;9.59102;8.91274;10.0841;9.11651;3.74965;3.48892;4.14817;3.39451;2.47906;1.72345;1.42421;0.963201;0.506817;0.427619;0.355197;0.270714;0.20339;0.156332;0.123881;0.101162;54.7353;56.2841;61.8281;71.0941;88.695;130.9485;143.6495;112.717;91.0135;72.8959;56.2768;53.74175;43.084;34.98095;29.8211;24.9531;23.61185;21.97285;18.0351;15.2727;11.08085;9.31912;7.781535;5.550005;4.481655;2.914935;2.102395;1.5456;1.17267;0.9619705;0.7397625;0.516718;0.389184;0.308555;0.2539405;0.214931;66.5531;68.1999;68.257;77.1094;104.425;171.225;163.341;148.42;114.866;102.147;77.3674;74.3187;60.179;45.2096;36.4975;35.289;32.8904;29.6743;22.55;19.1251;14.9859;12.3726;10.2564;7.48032;6.32105;4.01344;2.8919;2.1225;1.60571;1.31399;1.00813;0.701221;0.524786;0.414391;0.340218;0.287642;40.3597;41.4435;43.6992;59.0496;58.872;91.2996;107.062;76.3134;77.7963;46.3473;33.7995;33.2427;22.6186;18.2893;15.6263;17.2737;16.6982;12.7255;9.80164;6.80893;4.6819;5.71481;3.49046;2.43802;1.88318;1.43539;1.10964;0.922571;0.541308;0.383362;0.316734;0.207704;0.158716;0.124681;0.100858;0.091518
