;event_id;event_time;ISC_ev_id;USGS_ev_id;INGV_ev_id;EMSC_ev_id;ev_nation_code;ev_latitude;ev_longitude;ev_depth_km;ev_hyp_ref;fm_type_code;ML;ML_ref;Mw;Mw_ref;Ms;Ms_ref;EMEC_Mw;EMEC_Mw_type;EMEC_Mw_ref;strike_1;dip_1;rake_1;strike_2;dip_2;rake_2;MT_Agency;MT_Identifier;event_source_id;es_strike;es_dip;es_rake;es_strike_dip_rake_ref;es_z_top;es_z_top_ref;es_length;es_width;es_geometry_ref;network_code;station_code;location_code;instrument_code;sensor_depth_m;proximity_code;housing_code;installation_code;st_nation_code;st_latitude;st_longitude;st_elevation;ec8_code;ec8_code_method;ec8_code_ref;vs30_m_sec;vs30_ref;vs30_calc_method;vs30_meas_type;slope_deg;vs30_m_sec_WA;epi_dist;epi_az;JB_dist;rup_dist;Rx_dist;Ry0_dist;instrument_type_code;late_triggered_flag_01;U_channel_code;U_azimuth_deg;V_channel_code;V_azimuth_deg;W_channel_code;U_hp;V_hp;W_hp;U_lp;V_lp;W_lp;U_pga;V_pga;W_pga;rotD50_pga;rotD100_pga;rotD00_pga;U_pgv;V_pgv;W_pgv;rotD50_pgv;rotD100_pgv;rotD00_pgv;U_pgd;V_pgd;W_pgd;rotD50_pgd;rotD100_pgd;rotD00_pgd;U_T90;V_T90;W_T90;rotD50_T90;rotD100_T90;rotD00_T90;U_housner;V_housner;W_housner;rotD50_housner;rotD100_housner;rotD00_housner;U_CAV;V_CAV;W_CAV;rotD50_CAV;rotD100_CAV;rotD00_CAV;U_ia;V_ia;W_ia;rotD50_ia;rotD100_ia;rotD00_ia;U_T0_010;U_T0_025;U_T0_040;U_T0_050;U_T0_070;U_T0_100;U_T0_150;U_T0_200;U_T0_250;U_T0_300;U_T0_350;U_T0_400;U_T0_450;U_T0_500;U_T0_600;U_T0_700;U_T0_750;U_T0_800;U_T0_900;U_T1_000;U_T1_200;U_T1_400;U_T1_600;U_T1_800;U_T2_000;U_T2_500;U_T3_000;U_T3_500;U_T4_000;U_T4_500;U_T5_000;U_T6_000;U_T7_000;U_T8_000;U_T9_000;U_T10_000;V_T0_010;V_T0_025;V_T0_040;V_T0_050;V_T0_070;V_T0_100;V_T0_150;V_T0_200;V_T0_250;V_T0_300;V_T0_350;V_T0_400;V_T0_450;V_T0_500;V_T0_600;V_T0_700;V_T0_750;V_T0_800;V_T0_900;V_T1_000;V_T1_200;V_T1_400;V_T1_600;V_T1_800;V_T2_000;V_T2_500;V_T3_000;V_T3_500;V_T4_000;V_T4_500;V_T5_000;V_T6_000;V_T7_000;V_T8_000;V_T9_000;V_T10_000;W_T0_010;W_T0_025;W_T0_040;W_T0_050;W_T0_070;W_T0_100;W_T0_150;W_T0_200;W_T0_250;W_T0_300;W_T0_350;W_T0_400;W_T0_450;W_T0_500;W_T0_600;W_T0_700;W_T0_750;W_T0_800;W_T0_900;W_T1_000;W_T1_200;W_T1_400;W_T1_600;W_T1_800;W_T2_000;W_T2_500;W_T3_000;W_T3_500;W_T4_000;W_T4_500;W_T5_000;W_T6_000;W_T7_000;W_T8_000;W_T9_000;W_T10_000;rotD50_T0_010;rotD50_T0_025;rotD50_T0_040;rotD50_T0_050;rotD50_T0_070;rotD50_T0_100;rotD50_T0_150;rotD50_T0_200;rotD50_T0_250;rotD50_T0_300;rotD50_T0_350;rotD50_T0_400;rotD50_T0_450;rotD50_T0_500;rotD50_T0_600;rotD50_T0_700;rotD50_T0_750;rotD50_T0_800;rotD50_T0_900;rotD50_T1_000;rotD50_T1_200;rotD50_T1_400;rotD50_T1_600;rotD50_T1_800;rotD50_T2_000;rotD50_T2_500;rotD50_T3_000;rotD50_T3_500;rotD50_T4_000;rotD50_T4_500;rotD50_T5_000;rotD50_T6_000;rotD50_T7_000;rotD50_T8_000;rotD50_T9_000;rotD50_T10_000;rotD100_T0_010;rotD100_T0_025;rotD100_T0_040;rotD100_T0_050;rotD100_T0_070;rotD100_T0_100;rotD100_T0_150;rotD100_T0_200;rotD100_T0_250;rotD100_T0_300;rotD100_T0_350;rotD100_T0_400;rotD100_T0_450;rotD100_T0_500;rotD100_T0_600;rotD100_T0_700;rotD100_T0_750;rotD100_T0_800;rotD100_T0_900;rotD100_T1_000;rotD100_T1_200;rotD100_T1_400;rotD100_T1_600;rotD100_T1_800;rotD100_T2_000;rotD100_T2_500;rotD100_T3_000;rotD100_T3_500;rotD100_T4_000;rotD100_T4_500;rotD100_T5_000;rotD100_T6_000;rotD100_T7_000;rotD100_T8_000;rotD100_T9_000;rotD100_T10_000;rotD00_T0_010;rotD00_T0_025;rotD00_T0_040;rotD00_T0_050;rotD00_T0_070;rotD00_T0_100;rotD00_T0_150;rotD00_T0_200;rotD00_T0_250;rotD00_T0_300;rotD00_T0_350;rotD00_T0_400;rotD00_T0_450;rotD00_T0_500;rotD00_T0_600;rotD00_T0_700;rotD00_T0_750;rotD00_T0_800;rotD00_T0_900;rotD00_T1_000;rotD00_T1_200;rotD00_T1_400;rotD00_T1_600;rotD00_T1_800;rotD00_T2_000;rotD00_T2_500;rotD00_T3_000;rotD00_T3_500;rotD00_T4_000;rotD00_T4_500;rotD00_T5_000;rotD00_T6_000;rotD00_T7_000;rotD00_T8_000;rotD00_T9_000;rotD00_T10_000
12;AM-1989-0006;1989-01-04 07:29:40;414389.0;usp0003qgf;;;AM;40.9318;44.2621;2.7;ISC;TF;;;;;4.1;ISC;;;;;;;;;;;;;;;;;;;;;;A;NAB;0;HN;0.0;;;;AM;40.849;44.158;;B*;GEO;ESM;;;;;2.676759;476.806118;12.7;43.6;;;;;U;0.0;E;90.0;N;0.0;Z;0.5;0.5;0.5;40.0;40.0;40.0;52.65553;75.436507;30.344352;66.5010795;77.025703;48.948742;2.242911;-1.764471;-0.686638;1.88062;2.25349;1.27433;0.097907;-0.091585;-0.069845;0.0953882;0.12248;0.075927;3.545;2.75;3.24;3.195;3.57;2.71;2.95923;3.09053;1.55815;3.06089;3.52619;2.39968;39.129214039;46.3548331182;24.2201788091;44.1551697331;46.9165509356;38.1682779826;0.915865232656;1.61820074106;0.332084887533;1.26703303353;1.64851283527;0.885553028942;52.6934;54.5658;66.7918;79.8264;119.284;150.347;130.344;83.7891;85.2685;81.1573;72.6314;68.1552;54.8388;40.4055;26.2643;17.5117;13.8129;11.0517;7.92581;6.03017;3.63132;2.43985;1.79604;1.40371;1.13759;0.746331;0.538274;0.423204;0.365595;0.330519;0.289397;0.23974;0.204813;0.178859;0.158571;0.142329;75.7222;79.8557;86.0084;104.982;183.925;159.171;242.673;105.516;90.3709;93.6941;75.6542;73.9146;51.5463;33.5795;20.3077;12.5642;13.6806;14.3124;10.2784;7.25058;3.07899;2.35769;1.94169;1.64432;1.41374;1.01954;0.776091;0.615283;0.50571;0.440747;0.367334;0.284948;0.231479;0.194631;0.167495;0.146794;30.7293;32.3792;38.0911;51.5681;76.2917;112.048;76.4582;35.1964;34.4505;25.3125;29.0129;24.2312;16.9273;14.1045;10.4076;9.07967;8.28206;7.18009;5.63308;3.27947;2.47805;1.83071;1.60579;1.08657;1.08067;0.770521;0.51675;0.38066;0.309921;0.264397;0.211841;0.153712;0.117557;0.093619;0.07692;0.065602;66.93755;71.41765;86.16455;94.4778;156.6395;151.0335;200.117;91.80145;87.7541;86.93125;74.42665;70.88055;53.11485;37.32005;22.82785;16.4907;13.68725;11.90275;9.168655;6.644475;3.53043;2.602575;1.961355;1.508775;1.192915;0.8179355;0.590485;0.4564515;0.3715595;0.3309265;0.283687;0.228678;0.1894835;0.1624835;0.1420595;0.1257525;77.2215;81.1241;101.866;106.396;187.755;162.303;242.95;106.907;107.675;107.985;102.894;93.9047;68.1433;46.1169;27.5033;17.4397;14.472;15.5807;11.5456;7.17998;4.52433;3.00015;2.36572;1.93591;1.60489;1.06743;0.794528;0.617724;0.495109;0.423246;0.344098;0.258682;0.207149;0.175098;0.155182;0.13932;49.615;51.588;64.049;70.6331;110.577;123.444;116.442;74.4463;66.0699;40.4984;39.0373;27.8892;23.2336;21.2604;15.5202;11.8731;11.6351;10.3274;7.24177;4.65556;2.91677;1.98222;1.74977;1.2946;0.938897;0.635641;0.460053;0.364194;0.301284;0.257651;0.213702;0.163755;0.128033;0.103848;0.089375;0.079898
13;AM-1989-0006;1989-01-04 07:29:40;414389.0;usp0003qgf;;;AM;40.9318;44.2621;2.7;ISC;TF;;;;;4.1;ISC;;;;;;;;;;;;;;;;;;;;;;A;STPV;0;HN;0.0;;;;AM;40.997;44.396;1450.0;A*;GEO;ESM;;;;;1.708856;408.075683;13.4;237.3;;;;;U;0.0;E;90.0;N;0.0;Z;0.5;0.5;0.5;40.0;40.0;40.0;18.185112;26.844704;18.746871;22.541953;27.620653;17.110895;0.524835;-0.588062;0.405422;0.5679875;0.60757;0.455718;0.045158;-0.052245;-0.047186;0.04849875;0.0561047;0.0381868;3.855;3.015;3.26;3.285;3.975;2.96;1.26492;1.29697;1.14357;1.31076;1.40825;1.25138;20.9487751947;22.1988257745;16.8431796232;21.7071193824;22.5624039038;20.935210195;0.210752515128;0.284570028259;0.156055828694;0.24766127722;0.285701644488;0.209620919865;18.3192;19.4222;22.6344;28.5904;55.9233;61.4723;41.4471;13.5218;19.2061;16.1541;12.4059;11.0353;7.53894;7.58565;7.48529;8.9711;7.47769;5.60759;4.10967;3.08603;3.63146;3.15004;2.10247;1.11159;0.765312;0.508849;0.334438;0.248454;0.173483;0.130612;0.117031;0.085875;0.06345;0.050191;0.042628;0.039028;27.0515;28.4865;31.0757;37.7358;85.2731;126.254;53.9072;27.9813;17.4078;17.3063;12.6979;10.1028;7.38221;7.42751;10.4014;8.6006;7.8613;7.02839;6.17367;6.16041;2.91452;1.72486;1.13817;0.840673;0.71549;0.415458;0.253218;0.195691;0.163434;0.140826;0.11248;0.078735;0.057234;0.046558;0.039942;0.035106;18.9847;19.9603;22.9598;30.6243;74.8034;75.068;31.7614;12.1403;11.3993;10.7404;9.73847;11.3705;9.62392;9.13423;8.43797;8.58596;6.69209;5.00632;4.8871;5.56443;3.52921;1.88077;1.11258;0.770629;0.639453;0.371067;0.255629;0.213533;0.174455;0.147761;0.115974;0.090609;0.070238;0.054952;0.043927;0.035978;22.5463;24.0108;29.23725;31.31025;60.8979;93.53285;47.56065;20.68715;19.80445;16.3606;11.7237;10.5391;7.757825;7.452805;10.2881;8.79774;7.459765;6.29166;5.836235;4.844215;3.141245;2.4653;1.62093;1.140155;0.8257315;0.456867;0.305071;0.220295;0.163962;0.136375;0.105916;0.076278;0.0600445;0.0497585;0.043018;0.037834;27.9267;29.4074;33.7967;38.1689;85.3224;126.957;55.7452;28.1826;21.2052;22.2466;12.7479;12.7017;8.95123;8.32632;11.509;9.48962;8.57431;8.07202;6.6664;6.22996;4.4;3.4761;2.19872;1.33903;0.929931;0.495402;0.355512;0.260437;0.188032;0.147721;0.116401;0.086988;0.067583;0.054465;0.04564;0.040572;17.2095;18.1737;21.9018;27.4893;51.9863;58.7617;31.4385;13.5184;15.0396;11.014;10.1677;7.42673;6.86032;6.18342;7.36116;8.12468;5.86692;4.67242;3.87579;2.72568;2.42237;1.64538;1.05444;0.823405;0.676767;0.380833;0.242553;0.185686;0.138678;0.109937;0.083755;0.063312;0.049006;0.041579;0.036401;0.031596
14;AM-1989-0006;1989-01-04 07:29:40;414389.0;usp0003qgf;;;AM;40.9318;44.2621;2.7;ISC;TF;;;;;4.1;ISC;;;;;;;;;;;;;;;;;;;;;;A;STRS;0;HN;0.0;;;;AM;40.928;43.873;1870.0;A*;GEO;ESM;;;;;4.497107;564.492355;32.8;89.1;;;;;U;1.0;E;90.0;N;0.0;Z;0.6;0.6;0.6;40.0;40.0;40.0;21.575273;26.864015;-6.742708;25.741729;29.057148;16.338547;0.675239;0.659111;0.256194;0.652522;0.763057;0.443374;-0.038604;0.028493;0.015373;0.03352045;0.0386045;0.0239399;2.98;2.76;3.585;2.9025;3.2;2.575;1.04957;1.08766;0.4506;1.06067;1.2367;0.838186;17.7432548926;19.5040535683;6.94740332486;18.4331008385;19.5413752057;17.6500030528;0.203517063919;0.27310551396;0.0275871523522;0.23831130231;0.283661453812;0.19296112473;21.5774;22.4178;24.1325;28.8941;40.5114;43.3487;95.3773;52.3956;27.251;16.0947;9.67741;10.052;7.80676;6.8089;8.01447;6.76187;7.03399;5.67614;3.07832;2.35174;1.73221;1.33179;0.958257;0.73502;0.560103;0.340071;0.234605;0.179227;0.132885;0.106995;0.08334;0.064944;0.055906;0.049155;0.043881;0.039634;26.894;27.9683;28.9303;35.9161;52.4187;67.247;111.993;71.7994;25.3722;16.5168;14.4602;14.8937;10.9562;8.47366;5.8912;6.19771;5.45984;4.81685;3.36386;2.66521;1.80483;1.15959;0.96798;0.717112;0.50911;0.288985;0.206404;0.151773;0.119884;0.10746;0.092762;0.075673;0.063791;0.055115;0.048508;0.043313;6.75004;8.82605;9.03869;10.9948;17.4331;32.0492;19.7358;12.0577;10.031;5.89637;4.00301;3.69229;3.20854;3.45479;2.57726;2.75103;2.16832;1.66203;1.61972;1.63269;0.816881;0.669319;0.543762;0.432206;0.345315;0.230318;0.117523;0.08412;0.0638;0.05295;0.041719;0.030333;0.023558;0.020033;0.017668;0.015819;25.8213;26.82035;28.4096;34.85145;49.9686;62.49365;104.7025;53.05485;26.61525;16.30575;12.30515;11.6565;9.726595;6.930485;6.546805;6.478235;6.291835;5.26245;3.115385;2.314645;1.713;1.22925;0.9633135;0.727016;0.5466635;0.315719;0.225333;0.174632;0.136383;0.1163315;0.096526;0.075639;0.062249;0.0535755;0.0468995;0.0419195;29.2324;30.2936;33.1416;39.1163;63.9059;72.707;126.397;72.4378;29.6261;21.442;16.8272;15.6104;11.9508;9.17403;9.1224;8.90864;8.89799;7.37338;4.22121;2.72733;2.10418;1.49997;1.04693;0.857509;0.668364;0.365759;0.256015;0.187537;0.14827;0.125771;0.106579;0.08557;0.071848;0.061998;0.054554;0.048797;16.4234;17.0133;18.0869;20.4193;31.0193;40.6606;76.5165;46.424;22.4934;11.3203;8.42686;7.31007;6.22921;5.01606;4.7533;3.22884;2.71634;2.27192;1.86324;1.77353;1.464;1.07183;0.720217;0.51302;0.405519;0.266811;0.192052;0.143761;0.11984;0.103561;0.081809;0.061666;0.049235;0.040896;0.034963;0.031335
15;AM-1989-0008;1989-03-30 16:36:23;411528.0;usp0003tfa;;;AM;41.0547;43.9487;3.2;ISC;TF;;;;;4.0;ISC;;;;;;;;;;;;;;;;;;;;;;A;STRS;0;HN;0.0;;;;AM;40.928;43.873;1870.0;A*;GEO;ESM;;;;;4.497107;564.492355;15.4;24.3;;;;;U;0.0;E;90.0;N;0.0;Z;0.5;0.5;0.5;40.0;40.0;40.0;-187.082079;205.13876;-119.730646;186.741165;209.672806;171.190384;4.65669;-6.452505;-2.31596;4.957845;6.45393;4.53118;0.236351;0.427336;0.252144;0.32347;0.427336;0.210061;2.43;2.17;2.43;2.3125;2.47;2.09;5.94536;10.6545;4.6313;8.5717;10.6262;5.87377;131.152502705;157.512381945;92.6074570085;147.752866375;163.362847281;129.11816934;11.1211708601;15.9826458811;5.13363245097;13.5519080804;16.4232560124;10.6805598222;188.363;229.86;288.745;344.787;434.199;438.764;512.275;408.033;212.427;111.978;76.2692;72.9463;72.0463;56.6188;38.0089;32.17;27.442;22.542;14.1897;10.3015;6.52037;5.09096;4.10287;3.24563;2.73712;1.927;1.44254;1.12755;0.912311;0.785476;0.644273;0.518295;0.443373;0.386244;0.341616;0.305987;205.408;245.039;413.461;434.068;380.493;560.126;801.335;531.584;237.914;136.306;98.0857;95.234;96.6037;93.5087;81.2874;72.6239;67.0136;58.5328;38.7321;25.3343;14.4282;12.6347;10.0545;8.64392;6.98947;3.96318;2.93411;2.18338;1.67747;1.39104;1.08812;0.779801;0.601123;0.486184;0.406848;0.359217;119.766;140.024;236.877;298.869;420.19;360.646;182.423;133.554;48.4313;52.5847;45.4853;35.2275;34.4286;26.667;17.4237;15.3713;14.5893;14.0333;12.4512;12.1868;12.5083;9.95697;7.20255;6.11256;4.46076;2.4357;1.61825;1.05602;0.856853;0.733251;0.592533;0.436178;0.337711;0.272478;0.226517;0.192774;187.5355;223.3755;301.1095;364.193;410.9355;505.732;657.173;459.9195;222.1915;124.404;78.2497;85.60295;89.35725;79.42315;59.48365;52.99345;49.41925;42.463;28.2758;19.99645;12.4829;9.48291;7.874975;6.64048;5.0163;3.065815;2.236975;1.69847;1.33091;1.131465;0.9180845;0.6980445;0.5635885;0.470326;0.4022315;0.3509425;210.663;250.9;423.485;451.982;493.096;616.289;837.251;608.193;293.388;154.599;101.712;98.8471;96.8734;108.592;83.609;74.2125;68.3332;60.0363;38.8233;25.1308;14.9303;13.2935;10.8522;8.97243;7.01195;3.89335;2.83294;2.11737;1.64878;1.38457;1.10348;0.81332;0.636755;0.520489;0.438658;0.37823;171.424;174.003;237.425;261.754;319.349;334.976;383.774;408.042;135.749;77.4156;66.4688;56.2564;54.4228;43.7519;27.6962;16.7323;13.7591;11.9557;9.45475;8.20148;6.05414;5.17071;4.1383;3.23015;2.74553;1.93169;1.43006;1.09821;0.885676;0.767391;0.628019;0.506325;0.432509;0.3729;0.327506;0.292096
16;AM-1989-0009;1989-01-08 16:53:34;;;;;AM;40.86;44.252;10.0;ICS;TF;4.1;ICS;;;;;;;;;;;;;;;;;;;;;;;;;;A;NAB;0;HN;0.0;;;;AM;40.849;44.158;;B*;GEO;ESM;;;;;2.676759;476.806118;8.0;81.2;;;;;U;0.0;E;90.0;N;0.0;Z;0.6;0.6;0.6;40.0;40.0;40.0;213.049619;-192.846387;-71.162529;194.3847885;216.105011;182.906052;-7.710991;8.391149;-2.274967;8.15836;8.69485;6.86279;-0.493577;-0.417741;-0.132513;0.45889;0.498569;0.366959;1.07;1.13;1.88;1.05;1.165;0.945;11.0396;12.5458;3.6524;11.8847;13.2786;9.71957;101.377260759;107.905346279;60.23747203;108.09295716;109.477848181;101.031414044;12.2897822371;13.2347881833;2.90843079183;12.7622855903;13.2402937527;12.2842780762;213.238;216.225;217.501;232.481;293.946;410.314;797.137;636.088;468.769;319.037;230.27;180.11;135.728;106.928;65.8446;44.4907;37.6283;31.8926;23.4832;19.8781;14.5485;11.0689;8.76492;7.15077;5.97143;4.13131;3.08851;2.43549;1.99599;1.73943;1.45069;1.13292;0.925429;0.780099;0.674753;0.59389;193.522;196.659;200.227;214.344;312.994;350.151;576.292;761.845;575.446;384.353;279.442;202.411;153.496;118.92;75.1247;64.8919;57.4596;49.5932;35.9397;26.462;16.3738;11.5184;8.58669;7.01744;5.86623;3.77952;2.56287;1.84397;1.40921;1.2314;1.03952;0.835194;0.704379;0.610984;0.542641;0.488808;71.342;73.4165;99.0372;99.7045;193.302;264.407;373.125;210.111;96.477;46.8771;44.6407;30.4867;24.0052;30.2469;20.1324;11.6273;10.1605;10.4281;12.0922;11.7181;7.84436;6.06483;4.57758;3.15157;2.13775;1.16705;0.893713;0.712882;0.585442;0.508782;0.450191;0.386036;0.331315;0.286582;0.250401;0.221035;194.7995;197.0825;205.941;214.634;290.663;381.4105;696.339;696.3105;516.6995;349.8585;256.6845;192.859;144.529;112.605;72.2242;54.67485;48.2309;41.77725;30.8367;23.4321;15.6151;11.29585;8.860035;7.2171;5.91152;3.832155;2.83778;2.22007;1.81112;1.572975;1.311295;1.02417;0.8414655;0.715137;0.621653;0.550758;216.393;220.318;221.725;239.341;329.155;539.395;810.775;769.527;607.573;443.965;332.687;232.96;177.33;142.946;87.8613;65.7925;57.9275;49.8616;36.0825;26.9848;17.5279;12.6841;9.66705;7.65889;6.2782;4.23156;3.12241;2.4428;1.9877;1.72642;1.43701;1.12172;0.919136;0.779372;0.677156;0.599048;183.013;186.688;191.753;199.805;237.807;302.163;521.615;636.007;398.644;251.19;161.998;119.435;96.9039;78.1372;52.3706;42.3424;37.6682;31.7081;23.4091;17.5664;11.6761;8.86718;7.25889;6.0597;5.09328;3.41987;2.42467;1.8022;1.39786;1.21209;1.01488;0.799747;0.659708;0.565138;0.492569;0.434449
17;AM-1990-0013;1990-12-16 15:45:40;347607.0;usp0004j77;;;GE;41.3679;43.7234;28.3;ISC;SS;5.2;Arefiev_et_al_1991a;5.4;Arefiev_et_al_1991a;5.1;ISC;;;;;;;;;;;;;;;;;;;;;;A;SAKH;0;HN;0.0;;;;GE;41.4;43.48;1703.0;A*;GEO;ESM;;;;;0.579135;319.529048;20.7;99.9;;;;;D;0.0;E;90.0;N;0.0;Z;0.2;0.2;0.2;40.0;40.0;40.0;-14.317079;-32.627181;11.63709;23.369538;33.040783;13.266453;0.741477;2.082446;-0.438454;1.51843;2.11088;0.653782;-0.088705;-0.20217;0.06375;0.153522;0.214648;0.0775243;11.37;7.46;12.8;9.195;11.56;7.32;2.25848;3.82283;1.33534;3.21837;4.07524;1.86678;38.890432339;48.693053132;32.0716164751;43.9530598205;49.5975811749;37.1327376659;0.249079874031;0.576144068312;0.153701411465;0.412611963834;0.603445439282;0.221778483828;14.4102;15.4697;21.561;21.3992;22.3512;31.8452;42.8711;57.1501;31.6087;37.5054;35.6171;33.0222;22.9757;17.4512;16.8851;12.9593;8.52498;8.88468;7.62585;6.97273;5.57053;3.18749;2.54251;2.14616;2.00794;0.730445;0.642367;0.562677;0.370088;0.282456;0.203135;0.174084;0.122305;0.097102;0.079807;0.067276;32.666;34.6517;34.5574;38.9043;39.8735;45.2048;52.0285;69.3944;84.1211;120.081;105.003;68.1653;42.7161;27.5131;14.7257;13.2275;12.251;12.7947;12.0253;11.6927;8.72413;6.49238;4.63385;3.26554;2.48829;1.44188;0.961894;0.732014;0.653316;0.584571;0.46523;0.30675;0.219093;0.172253;0.144601;0.125828;11.7241;11.8222;15.1436;19.9602;19.1868;23.7154;32.2476;34.3215;35.7895;28.2604;27.4562;15.4787;9.24378;8.05886;6.93524;7.16296;7.51193;6.13964;4.05752;4.31241;2.55727;2.18578;1.5864;1.07452;0.955337;0.629438;0.610271;0.317196;0.328673;0.263116;0.212013;0.123581;0.085707;0.075242;0.064689;0.055127;23.45105;24.88975;26.6625;28.9751;33.2316;39.41675;43.39045;66.7898;64.2238;88.18055;77.35945;55.2386;37.17995;26.4962;17.1792;12.95105;10.24745;10.9451;10.15045;9.536845;7.63044;5.232955;3.657205;2.804735;2.250355;1.122425;0.847618;0.6886635;0.5099145;0.4439415;0.3455885;0.2198135;0.157921;0.1278205;0.1066885;0.093095;33.0961;35.0878;34.9149;39.1778;40.8302;46.0487;60.5016;70.0621;87.9049;124.504;108.06;69.1333;44.2369;27.5233;18.6658;15.5289;12.3555;12.9393;12.5048;11.9372;10.0831;7.06975;4.96502;3.61165;3.14578;1.5621;0.984271;0.818848;0.694696;0.62485;0.485504;0.31061;0.223226;0.177934;0.150692;0.131424;13.3779;14.6141;18.2553;21.3991;21.8069;29.571;37.4391;55.7297;23.6722;24.8976;25.4457;24.9459;22.9737;16.7153;14.2946;7.46373;6.28511;6.19613;5.67812;4.72683;3.44809;2.00347;1.78088;1.1933;1.22675;0.666308;0.440274;0.341254;0.245134;0.205689;0.200645;0.166048;0.110223;0.085197;0.071943;0.060732
