;event_id;event_time;ISC_ev_id;USGS_ev_id;INGV_ev_id;EMSC_ev_id;ev_nation_code;ev_latitude;ev_longitude;ev_depth_km;ev_hyp_ref;fm_type_code;ML;ML_ref;Mw;Mw_ref;Ms;Ms_ref;EMEC_Mw;EMEC_Mw_type;EMEC_Mw_ref;strike_1;dip_1;rake_1;strike_2;dip_2;rake_2;MT_Agency;MT_Identifier;event_source_id;es_strike;es_dip;es_rake;es_strike_dip_rake_ref;es_z_top;es_z_top_ref;es_length;es_width;es_geometry_ref;network_code;station_code;location_code;instrument_code;sensor_depth_m;proximity_code;housing_code;installation_code;st_nation_code;st_latitude;st_longitude;st_elevation;ec8_code;ec8_code_method;ec8_code_ref;vs30_m_sec;vs30_ref;vs30_calc_method;vs30_meas_type;slope_deg;vs30_m_sec_WA;epi_dist;epi_az;JB_dist;rup_dist;Rx_dist;Ry0_dist;instrument_type_code;late_triggered_flag_01;U_channel_code;U_azimuth_deg;V_channel_code;V_azimuth_deg;W_channel_code;U_hp;V_hp;W_hp;U_lp;V_lp;W_lp;U_pga;V_pga;W_pga;rotD50_pga;rotD100_pga;rotD00_pga;U_pgv;V_pgv;W_pgv;rotD50_pgv;rotD100_pgv;rotD00_pgv;U_pgd;V_pgd;W_pgd;rotD50_pgd;rotD100_pgd;rotD00_pgd;U_T90;V_T90;W_T90;rotD50_T90;rotD100_T90;rotD00_T90;U_housner;V_housner;W_housner;rotD50_housner;rotD100_housner;rotD00_housner;U_CAV;V_CAV;W_CAV;rotD50_CAV;rotD100_CAV;rotD00_CAV;U_ia;V_ia;W_ia;rotD50_ia;rotD100_ia;rotD00_ia;U_T0_010;U_T0_025;U_T0_040;U_T0_050;U_T0_070;U_T0_100;U_T0_150;U_T0_200;U_T0_250;U_T0_300;U_T0_350;U_T0_400;U_T0_450;U_T0_500;U_T0_600;U_T0_700;U_T0_750;U_T0_800;U_T0_900;U_T1_000;U_T1_200;U_T1_400;U_T1_600;U_T1_800;U_T2_000;U_T2_500;U_T3_000;U_T3_500;U_T4_000;U_T4_500;U_T5_000;U_T6_000;U_T7_000;U_T8_000;U_T9_000;U_T10_000;V_T0_010;V_T0_025;V_T0_040;V_T0_050;V_T0_070;V_T0_100;V_T0_150;V_T0_200;V_T0_250;V_T0_300;V_T0_350;V_T0_400;V_T0_450;V_T0_500;V_T0_600;V_T0_700;V_T0_750;V_T0_800;V_T0_900;V_T1_000;V_T1_200;V_T1_400;V_T1_600;V_T1_800;V_T2_000;V_T2_500;V_T3_000;V_T3_500;V_T4_000;V_T4_500;V_T5_000;V_T6_000;V_T7_000;V_T8_000;V_T9_000;V_T10_000;W_T0_010;W_T0_025;W_T0_040;W_T0_050;W_T0_070;W_T0_100;W_T0_150;W_T0_200;W_T0_250;W_T0_300;W_T0_350;W_T0_400;W_T0_450;W_T0_500;W_T0_600;W_T0_700;W_T0_750;W_T0_800;W_T0_900;W_T1_000;W_T1_200;W_T1_400;W_T1_600;W_T1_800;W_T2_000;W_T2_500;W_T3_000;W_T3_500;W_T4_000;W_T4_500;W_T5_000;W_T6_000;W_T7_000;W_T8_000;W_T9_000;W_T10_000;rotD50_T0_010;rotD50_T0_025;rotD50_T0_040;rotD50_T0_050;rotD50_T0_070;rotD50_T0_100;rotD50_T0_150;rotD50_T0_200;rotD50_T0_250;rotD50_T0_300;rotD50_T0_350;rotD50_T0_400;rotD50_T0_450;rotD50_T0_500;rotD50_T0_600;rotD50_T0_700;rotD50_T0_750;rotD50_T0_800;rotD50_T0_900;rotD50_T1_000;rotD50_T1_200;rotD50_T1_400;rotD50_T1_600;rotD50_T1_800;rotD50_T2_000;rotD50_T2_500;rotD50_T3_000;rotD50_T3_500;rotD50_T4_000;rotD50_T4_500;rotD50_T5_000;rotD50_T6_000;rotD50_T7_000;rotD50_T8_000;rotD50_T9_000;rotD50_T10_000;rotD100_T0_010;rotD100_T0_025;rotD100_T0_040;rotD100_T0_050;rotD100_T0_070;rotD100_T0_100;rotD100_T0_150;rotD100_T0_200;rotD100_T0_250;rotD100_T0_300;rotD100_T0_350;rotD100_T0_400;rotD100_T0_450;rotD100_T0_500;rotD100_T0_600;rotD100_T0_700;rotD100_T0_750;rotD100_T0_800;rotD100_T0_900;rotD100_T1_000;rotD100_T1_200;rotD100_T1_400;rotD100_T1_600;rotD100_T1_800;rotD100_T2_000;rotD100_T2_500;rotD100_T3_000;rotD100_T3_500;rotD100_T4_000;rotD100_T4_500;rotD100_T5_000;rotD100_T6_000;rotD100_T7_000;rotD100_T8_000;rotD100_T9_000;rotD100_T10_000;rotD00_T0_010;rotD00_T0_025;rotD00_T0_040;rotD00_T0_050;rotD00_T0_070;rotD00_T0_100;rotD00_T0_150;rotD00_T0_200;rotD00_T0_250;rotD00_T0_300;rotD00_T0_350;rotD00_T0_400;rotD00_T0_450;rotD00_T0_500;rotD00_T0_600;rotD00_T0_700;rotD00_T0_750;rotD00_T0_800;rotD00_T0_900;rotD00_T1_000;rotD00_T1_200;rotD00_T1_400;rotD00_T1_600;rotD00_T1_800;rotD00_T2_000;rotD00_T2_500;rotD00_T3_000;rotD00_T3_500;rotD00_T4_000;rotD00_T4_500;rotD00_T5_000;rotD00_T6_000;rotD00_T7_000;rotD00_T8_000;rotD00_T9_000;rotD00_T10_000
47;EMSC-19980224_0000009;1998-02-24 15:11:42;1078580.0;usp0008ghb;;19980224_0000009;GR;36.3006;28.2246;30.6;ISC;U;4.2;THE;;;3.8;ISC;4.8;Mw;RCMTS;;;;;;;;;;;;;;;;;;;HI;ROD3;0;HN;0.0;;;;GR;36.445639;28.224364;;;;;;;;;4.695512;573.553891;16.1;179.9;;;;;A;0.0;3;95.0;2;185.0;Z;0.3;0.3;0.4;25.0;25.0;25.0;85.681814;-99.877179;-62.849444;93.2770995;122.492279;72.055496;4.155695;5.450164;-1.782833;4.73074;6.45798;2.5164;-0.538533;0.678561;-0.141006;0.612411;0.852721;0.169882;6.73;3.345;5.255;4.5775;7.545;2.955;9.63626;12.5864;4.31376;11.15815;14.9031;5.45048;92.7881109859;111.733567029;89.8780931767;102.069222486;111.733567029;92.2955858178;2.60107577991;5.24182405325;2.43379418472;3.92144979495;5.41325271701;2.42964687524;85.7625;86.4158;89.7237;87.2668;100.517;164.886;163.096;226.525;229.989;194.169;147.256;121.345;106.153;96.2569;72.9953;51.7353;45.8497;42.2234;35.7784;27.0908;17.787;12.7502;10.6267;7.83705;6.73677;5.2506;4.03499;3.03924;2.29549;1.86263;1.40609;0.963122;0.721711;0.574226;0.475074;0.405033;100.033;100.734;105.266;120.489;133.602;239.949;497.014;332.356;274.075;206.935;163.314;141.42;127.096;110.118;80.9467;61.9996;58.3128;55.1447;45.8826;36.4643;22.3919;19.3851;15.5355;12.3407;9.33325;6.02222;4.15758;3.04864;2.34388;1.95862;1.55008;1.131;0.883079;0.720164;0.605721;0.521033;62.8701;66.2299;80.06;99.2478;142.654;235.107;169.173;189.778;115.32;79.9288;70.8853;42.2497;41.5208;42.9445;31.5861;21.1958;16.3168;16.7546;13.5071;9.34276;7.27605;6.16474;4.47408;3.17247;2.53244;1.52032;0.959038;0.81643;0.462829;0.379415;0.327612;0.265163;0.221231;0.188262;0.162588;0.142542;93.4623;95.33415;105.8275;112.026;137.7245;213.424;361.23;278.693;250.2205;200.942;155.254;131.5855;116.5985;103.465;77.1841;57.76255;52.5072;48.33085;40.18575;31.89715;20.36225;16.3387;13.17045;10.2816;8.147865;5.665125;4.088465;3.046875;2.30785;1.92136;1.484805;1.04164;0.809774;0.6574285;0.545641;0.46446;122.551;123.246;125.669;141.7;148.176;258.292;497.414;336.904;309.063;251.209;199.625;178.207;159.796;140.701;105.238;79.8716;72.1261;66.79;55.7439;44.4602;28.5535;22.0995;17.8887;13.7324;11.3973;7.92267;5.70065;4.23182;3.19517;2.65157;2.03913;1.42202;1.10188;0.891578;0.739493;0.628834;72.0558;72.5765;76.2558;77.5643;100.407;135.833;163.096;221.532;184.56;113.266;70.4868;46.2871;42.2317;41.0407;38.5908;21.3235;17.7665;15.6937;13.4615;12.102;8.18021;6.34803;4.03364;4.6183;3.31008;1.87032;1.66329;1.19094;0.834452;0.690701;0.549446;0.340197;0.259989;0.213847;0.176925;0.156811
48;EMSC-19980224_0000009;1998-02-24 15:11:42;1078580.0;usp0008ghb;;19980224_0000009;GR;36.3006;28.2246;30.6;ISC;U;4.2;THE;;;3.8;ISC;4.8;Mw;RCMTS;;;;;;;;;;;;;;;;;;;HI;ROD4;0;HN;;;;;GR;36.429734;28.23436;;;;;;;;;1.106208;365.319342;14.4;183.5;;;;;A;0.0;3;160.0;2;250.0;Z;0.3;0.3;0.3;25.0;25.0;25.0;-52.635823;30.143639;-21.153465;37.738289;53.133545;28.968937;3.840143;2.125813;0.746099;3.115415;4.32521;1.08647;0.449608;0.255785;-0.137584;0.362553;0.499115;0.147533;6.46;9.59;10.75;6.9025;10.36;6.46;11.2549;5.22404;2.81792;8.661275;11.8428;4.01138;67.5314898188;44.2167650227;50.7647389506;57.7788808036;69.4016018228;40.7406842727;1.40036023215;0.507045516453;0.575540150886;0.953702846322;1.48599686614;0.421408823189;52.757;53.2243;56.1763;58.4203;59.8605;99.5402;82.1076;81.9217;85.5406;117.892;136.79;126.293;106.497;90.6794;71.651;58.8632;53.6958;48.838;39.7136;33.0227;33.7927;26.4821;16.6878;12.2379;9.55537;5.43035;3.57506;2.14404;1.50134;1.1788;0.868784;0.586777;0.442788;0.364132;0.315882;0.275821;30.1624;30.8234;31.3136;31.7452;43.3867;59.2073;59.4683;100.553;64.7935;55.5791;51.3629;49.6645;47.4507;41.9059;38.5254;32.3634;29.2368;26.1111;20.3356;16.6815;12.2171;10.275;5.52391;4.76357;5.27053;3.17274;1.74184;1.58645;1.121;0.840048;0.619007;0.433898;0.325399;0.256246;0.209314;0.17626;21.221;22.6143;29.3004;35.2971;67.8907;51.6247;57.8514;82.7125;52.7681;42.6811;29.5982;18.0721;16.7332;16.3226;14.5178;17.318;14.2696;11.2071;10.8676;8.23303;5.1875;4.01765;3.26895;4.07038;2.47131;1.56931;0.943463;0.710524;0.459261;0.475352;0.352522;0.23011;0.192287;0.161973;0.13798;0.118962;37.77065;38.16205;40.07355;42.07775;45.4841;80.7789;76.6208;83.87415;76.18185;95.0308;102.68115;92.9589;85.22555;70.6988;57.3003;47.9012;43.28415;38.8918;31.2591;25.3147;25.32315;19.74575;12.4367;9.048905;7.078845;3.98617;2.756725;1.7736;1.283255;1.03431;0.801324;0.5732495;0.4421295;0.358856;0.3014885;0.2597015;53.2799;53.731;56.6726;59.0055;59.8665;100.978;82.8422;103.193;88.1925;126.897;142.742;130.486;111.461;96.2459;77.9144;64.7708;58.6593;52.8986;42.7404;35.3956;35.7964;27.555;16.8913;12.7333;9.9577;5.58955;3.87813;2.38698;1.76386;1.44207;1.11976;0.805676;0.624186;0.507429;0.426369;0.367212;29.089;29.9187;30.0951;30.0676;36.3979;49.8458;59.467;74.1063;54.0913;37.7172;51.5067;38.8683;29.8504;28.9445;29.725;20.9705;16.8322;13.1683;10.449;8.67051;6.61408;6.31337;4.96335;4.70653;3.53081;2.38302;1.59402;1.21643;1.06921;0.76951;0.441727;0.290591;0.215392;0.158347;0.129414;0.108866
49;EMSC-19980423_0000011;1998-04-23 12:03:32;1094141.0;usp0008ku1;;19980423_0000011;GR;38.2871;20.3991;17.7;ISC;U;4.0;ATH;;;;;4.5;Mw;Pap;;;;;;;;;;;;;;;;;;;HL;LXRA;0;HN;;;;;GR;38.19948;20.43735;8.0;;;;;;;;2.654357;475.214274;10.3;341.0;;;;;D;0.0;3;340.0;2;250.0;Z;0.4;0.4;0.4;40.0;40.0;40.0;-77.971655;-69.913796;61.212433;78.3068585;95.441887;67.2631;-1.337584;-2.234942;-0.691017;1.8704;2.44716;1.17509;-0.063217;-0.097414;0.057953;0.0927277;0.112863;0.0575054;2.72;3.76;4.54;3.48;3.91;2.685;1.7896;2.72223;1.24373;2.21122;2.88832;1.64154;69.548749026;61.2144161393;64.3847661112;65.5793653982;69.6828665481;60.1644834748;2.26630588465;1.62664353331;1.48693734946;1.94647466154;2.33090364059;1.56204568105;77.9823;100.308;164.905;359.156;288.698;173.896;75.7965;66.8658;41.5739;47.2217;23.61;20.7961;17.6406;12.8891;7.49253;5.98789;5.89719;5.58472;7.42617;5.64593;3.51155;2.83784;2.23758;1.34258;1.30042;0.695015;0.628722;0.447751;0.366652;0.321231;0.269236;0.204768;0.160441;0.130788;0.110578;0.096179;70.8044;78.395;124.333;241.483;157.103;188.015;176.916;119.206;126.585;90.075;56.1495;37.5065;30.4033;25.913;14.3277;9.82223;7.47829;6.59419;6.80651;5.66608;3.84264;3.05282;2.49057;2.1578;1.63938;0.923954;0.754638;0.614757;0.485822;0.405396;0.340412;0.279816;0.232178;0.197142;0.171305;0.151697;61.8657;84.5302;184.56;216.348;216.008;105.927;60.7638;42.5023;21.4498;29.7808;15.1173;12.0185;12.3845;7.63645;6.36686;4.25976;3.70961;3.1972;4.12556;5.10208;2.20283;1.88753;1.54601;1.23161;1.00174;0.799275;0.867449;0.691273;0.486836;0.346106;0.242136;0.140359;0.100259;0.074432;0.058844;0.049149;79.05105;89.1197;136.2915;290.272;223.613;192.394;133.807;87.7593;93.9498;70.18085;42.2562;30.92085;23.11925;19.20055;11.24125;7.87951;6.58892;6.043755;7.068375;5.663915;3.754345;2.82568;2.2958;1.80189;1.39409;0.871113;0.709437;0.591672;0.4999455;0.4306165;0.3570245;0.2700815;0.218404;0.1832585;0.1580805;0.1390745;95.8948;116.391;165.989;382.346;316.224;203.975;185.075;123.892;126.586;90.0748;57.3956;40.1175;31.9415;26.5976;15.6558;10.6128;8.29536;7.20249;8.01213;6.74307;4.21152;3.30212;2.95224;2.54825;1.91308;1.02541;0.78271;0.658845;0.541625;0.490412;0.424417;0.336497;0.273113;0.228742;0.197266;0.173663;68.1147;76.6778;100.109;168.124;127.247;152.822;71.2057;64.0796;41.574;42.3248;22.6371;18.7558;14.5009;9.93924;5.48906;4.20358;3.45628;4.08595;3.79288;3.09919;3.04142;1.9978;1.42431;0.949217;0.709033;0.566709;0.609057;0.424922;0.31142;0.271127;0.23052;0.179023;0.140884;0.115583;0.098076;0.085371
50;EMSC-19980501_0000001;1998-05-01 04:00:11;1103876.0;usp0008m7s;;19980501_0000001;GR;37.4525;20.7895;26.8;ISC;SS;4.8;ATH;5.3;HRVD-NEIC;4.9;ISC;5.3;HaKaM0;HCMTS;;;;;;;;;;;;;;;;;;;HI;GTH1;0;HN;;;;;GR;36.760825;22.566062;;;;;;;;;2.391979;456.574515;175.6;296.5;;;;;A;1.0;3;316.0;2;46.0;Z;0.3;0.3;0.3;25.0;25.0;25.0;15.051773;15.285074;6.567491;14.576629;16.998047;12.828845;-0.906054;0.544976;-0.538573;0.721287;0.963554;0.494713;-0.161039;-0.14012;-0.093339;0.1419835;0.181108;0.099647;11.9;13.865;12.53;12.4975;13.87;11.795;3.61664;2.59663;1.98823;3.1204;3.93213;2.15499;41.793427335;36.3446933496;21.8898336086;39.2677607328;43.8233437084;34.569804092;0.28841372258;0.220960080944;0.0787862192641;0.254686889083;0.305678370801;0.203695405847;15.0675;15.2789;15.7353;16.746;18.9878;21.6;48.1165;36.2748;37.2129;28.0808;35.9989;35.7084;27.1659;29.5329;35.4143;27.9118;21.697;17.712;14.6585;12.0252;8.92321;5.29877;3.08709;3.33337;3.17519;2.64752;1.34932;0.981437;0.742229;0.574715;0.445577;0.285803;0.216842;0.168776;0.135832;0.112574;15.3034;15.7337;16.1026;18.29;21.4007;26.0814;39.3385;40.6212;34.2582;22.0087;24.3138;22.7489;19.204;24.3157;17.8271;12.9869;8.9189;10.5427;12.3804;10.0837;5.48845;3.58227;2.77285;2.56637;2.76193;1.71069;1.61086;1.10268;0.928417;0.639888;0.428186;0.209588;0.159964;0.136897;0.108228;0.083281;6.59488;6.68857;7.46977;7.39845;12.403;15.8594;17.7902;28.2442;16.8582;12.3715;21.1843;14.6303;10.7171;12.9389;11.0874;12.4626;7.34383;6.83882;5.87049;7.4601;3.2964;4.09798;2.67149;2.02757;2.35343;2.10122;0.950392;0.989546;0.746236;0.481632;0.291336;0.187027;0.136053;0.100162;0.076662;0.06093;14.59995;14.85145;15.26;16.4694;20.4033;23.91685;41.9597;36.4856;36.15285;24.7395;26.63615;28.25955;23.40295;27.3664;27.2851;21.964;16.3499;15.1261;13.82155;10.72095;7.437405;4.359065;2.95202;2.78891;2.931415;2.226945;1.41715;1.044125;0.803266;0.613746;0.4401865;0.233576;0.1779625;0.1472895;0.1156285;0.0918415;17.0304;17.5465;17.5854;19.6541;24.5261;26.3431;49.4245;45.8115;39.6767;30.5484;36.0194;37.1386;28.0796;30.1718;38.2739;29.698;22.2003;18.8517;16.2966;14.0253;9.99858;5.97208;3.50342;3.78541;3.86067;3.13476;1.74771;1.13374;0.959758;0.67779;0.512586;0.322309;0.245204;0.190389;0.152466;0.125772;12.8643;13.2987;13.6457;14.1571;16.9981;19.1299;29.553;28.7639;34.3004;19.3712;23.5974;22.4137;17.5883;18.1778;12.0281;10.0998;8.08072;9.05847;10.5243;7.61758;3.43868;2.03132;1.84634;2.07762;1.5238;1.35993;0.76882;0.655981;0.519746;0.498557;0.331174;0.181636;0.123877;0.089068;0.066337;0.056019
51;EMSC-19980716_0000001;1998-07-16 17:29:15;1166920.0;usp0008rmr;;19980716_0000001;GR;38.7633;20.502;10.2;ISC;U;5.0;ATH;;;4.9;ISC;5.2;Mw;Pap;;;;;;;;;;;;;;;;;;;HI;LEF1;0;HN;0.0;;;;GR;38.831967;20.703844;;C;VS30;Vs30_ref;273.0;Stewart_et_al_2014;3.0;CH;0.864449;345.069892;19.1;246.6;;;;;A;1.0;3;335.0;2;65.0;Z;0.3;0.3;0.3;25.0;25.0;25.0;13.642143;8.619691;-6.371723;11.7064575;14.729187;7.236207;1.155759;0.739666;0.407401;0.942491;1.20941;0.739666;0.2383;0.151146;0.112211;0.200951;0.240109;0.128983;8.695;8.68;9.42;8.62;8.72;8.04;4.16924;3.5709;1.86375;3.81911;4.54781;3.13686;21.891876421;18.3306340397;11.1224678849;20.2529066868;22.0721386343;18.2457700954;0.139787982004;0.0959434187339;0.0306161483149;0.117865708465;0.145315488561;0.0904159113585;13.6425;13.7641;17.7092;19.4921;21.516;22.261;22.9313;28.144;32.7812;31.6506;21.2128;18.9261;20.1515;17.5178;21.7702;27.9842;24.6959;23.6764;18.3982;11.7913;10.7747;10.6696;7.06481;5.96696;3.951;2.61605;1.70181;1.40314;0.958339;0.835919;0.527887;0.315145;0.233129;0.18165;0.149289;0.126157;8.62534;8.70073;10.5576;11.6294;12.4097;15.5094;21.6262;25.2283;25.1161;30.3003;30.2909;19.7861;14.2518;13.8419;18.4094;16.6611;15.555;13.9925;13.6402;9.51778;7.72809;8.7437;8.29102;6.25796;4.59974;1.96419;1.23167;0.822903;0.633869;0.525265;0.38667;0.239643;0.171514;0.134083;0.109174;0.091606;6.41786;6.66061;7.18855;7.50985;8.82778;13.837;13.1404;14.4536;9.61865;11.6748;9.91296;13.5118;11.2651;10.5725;6.12568;7.887;6.12;5.55222;5.09324;4.99144;4.60704;3.89793;2.82362;2.57277;2.97523;1.71525;1.11623;0.627309;0.47581;0.394534;0.370132;0.217087;0.144252;0.100511;0.073946;0.060516;11.7235;12.25425;14.5773;16.04805;17.5633;17.9372;22.5097;26.5138;28.7882;30.4411;24.2397;20.4153;16.2144;17.415;19.44475;21.56925;20.0489;19.8777;16.08635;11.6578;9.989995;9.771735;7.745005;6.160875;4.455555;2.56067;1.57046;1.178415;0.834594;0.658312;0.4543805;0.29044;0.2119635;0.1643915;0.132768;0.110901;14.7781;15.9328;20.6154;22.6954;24.8382;25.2626;30.7952;35.2799;33.4766;34.033;30.3531;21.7857;20.2415;22.0226;23.2707;28.4288;25.7593;24.0044;18.5203;13.9062;12.3796;12.5544;9.8821;6.62018;4.95072;2.92335;1.94282;1.40539;0.958403;0.837691;0.530403;0.315086;0.239472;0.19047;0.156833;0.132625;7.24892;7.36975;7.59869;9.08657;8.82495;9.99287;17.792;16.7792;17.4404;18.557;19.0364;17.4986;13.467;12.1313;15.4651;14.3964;13.0544;13.3727;12.5995;8.57703;4.29935;3.96437;3.73015;3.80419;3.62875;1.74877;1.01641;0.64028;0.455628;0.403879;0.268732;0.173631;0.131805;0.104213;0.085532;0.073135
52;EMSC-19980716_0000001;1998-07-16 17:29:15;1166920.0;usp0008rmr;;19980716_0000001;GR;38.7633;20.502;10.2;ISC;U;5.0;ATH;;;4.9;ISC;5.2;Mw;Pap;;;;;;;;;;;;;;;;;;;HL;LEFA;0;HN;;;;;GR;38.83319;20.70437;4.0;;;;;;;;0.252216;272.224756;19.2;246.3;;;;;D;0.0;3;240.0;2;150.0;Z;0.2;0.2;0.2;40.0;40.0;40.0;14.770203;-10.263442;7.051824;12.9893545;14.780746;10.263442;1.705346;-0.976993;-0.508224;1.29033;1.81905;0.764414;-0.466195;-0.211482;0.104475;0.3401885;0.46665;0.187728;11.905;15.76;13.135;12.955;16.355;11.895;5.78946;3.58464;1.96738;4.813745;5.92062;3.14319;53.8815737155;44.5531690788;29.3450053083;50.1829333126;56.5113181872;43.3042487866;0.413925601646;0.272289308179;0.111591643352;0.343107475577;0.437420769684;0.248794139478;14.7716;15.0717;15.4794;15.3371;18.0674;20.5315;29.9758;37.7058;50.5897;38.6724;47.5771;30.0034;25.7349;22.1756;28.9736;48.61;36.0277;30.7124;21.9164;11.949;13.0095;12.9629;13.1563;9.27335;6.45027;3.18569;2.65026;1.98883;1.61497;1.50818;1.26578;0.889388;0.625642;0.450985;0.32321;0.2316;10.2923;10.4288;11.6403;12.4263;14.4901;17.5648;34.0167;33.6861;32.3144;48.8252;26.2433;19.3291;21.2921;18.7085;15.3224;23.1196;21.3774;16.5292;16.7818;13.259;7.98042;5.58244;5.81861;4.99265;3.89392;2.65366;2.78777;1.92402;2.08149;1.55496;1.09299;0.59378;0.336947;0.22016;0.171221;0.135691;7.07047;9.43655;19.0431;19.9919;18.2916;14.4411;26.7377;26.3237;12.7524;13.9791;9.88704;10.3453;13.9616;14.8847;8.01325;6.9849;5.44311;4.68355;7.14215;6.42048;4.57609;4.75892;4.33934;3.2552;1.90368;1.34514;0.830665;0.599375;0.504659;0.409917;0.274971;0.242644;0.177258;0.125192;0.098386;0.080643;13.0139;13.1625;14.04375;14.10615;15.84165;18.555;32.113;36.28155;44.88465;45.9345;38.6665;26.0717;22.97085;19.114;23.12525;38.57505;29.9752;25.2527;19.3495;12.274;9.848395;10.6366;9.853575;7.432825;5.050005;2.942055;2.691995;1.919865;1.86773;1.55198;1.194505;0.7833905;0.459418;0.325248;0.235519;0.183234;14.7908;15.0716;15.4793;15.337;19.2937;21.1718;34.8017;38.8904;51.7593;53.2772;49.2974;30.7704;26.4179;22.6331;29.3389;51.9217;39.108;32.0095;23.5519;15.3881;13.2297;13.6905;13.9323;10.0656;6.58052;3.31313;3.48659;2.14159;2.17193;1.92017;1.67174;0.980101;0.647626;0.455919;0.324831;0.233585;10.2924;10.4287;11.6404;12.1345;13.2444;14.8987;21.0398;30.0441;29.1531;36.3063;25.2386;18.4191;20.478;16.5542;14.3553;11.989;13.0376;12.6258;15.2045;9.55525;6.70927;5.56569;4.34926;2.98422;3.52626;2.47307;1.46487;1.56011;1.2465;1.17435;0.683126;0.406703;0.291351;0.206762;0.160501;0.130483
