;event_id;event_time;ISC_ev_id;USGS_ev_id;INGV_ev_id;EMSC_ev_id;ev_nation_code;ev_latitude;ev_longitude;ev_depth_km;ev_hyp_ref;fm_type_code;ML;ML_ref;Mw;Mw_ref;Ms;Ms_ref;EMEC_Mw;EMEC_Mw_type;EMEC_Mw_ref;strike_1;dip_1;rake_1;strike_2;dip_2;rake_2;MT_Agency;MT_Identifier;event_source_id;es_strike;es_dip;es_rake;es_strike_dip_rake_ref;es_z_top;es_z_top_ref;es_length;es_width;es_geometry_ref;network_code;station_code;location_code;instrument_code;sensor_depth_m;proximity_code;housing_code;installation_code;st_nation_code;st_latitude;st_longitude;st_elevation;ec8_code;ec8_code_method;ec8_code_ref;vs30_m_sec;vs30_ref;vs30_calc_method;vs30_meas_type;slope_deg;vs30_m_sec_WA;epi_dist;epi_az;JB_dist;rup_dist;Rx_dist;Ry0_dist;instrument_type_code;late_triggered_flag_01;U_channel_code;U_azimuth_deg;V_channel_code;V_azimuth_deg;W_channel_code;U_hp;V_hp;W_hp;U_lp;V_lp;W_lp;U_pga;V_pga;W_pga;rotD50_pga;rotD100_pga;rotD00_pga;U_pgv;V_pgv;W_pgv;rotD50_pgv;rotD100_pgv;rotD00_pgv;U_pgd;V_pgd;W_pgd;rotD50_pgd;rotD100_pgd;rotD00_pgd;U_T90;V_T90;W_T90;rotD50_T90;rotD100_T90;rotD00_T90;U_housner;V_housner;W_housner;rotD50_housner;rotD100_housner;rotD00_housner;U_CAV;V_CAV;W_CAV;rotD50_CAV;rotD100_CAV;rotD00_CAV;U_ia;V_ia;W_ia;rotD50_ia;rotD100_ia;rotD00_ia;U_T0_010;U_T0_025;U_T0_040;U_T0_050;U_T0_070;U_T0_100;U_T0_150;U_T0_200;U_T0_250;U_T0_300;U_T0_350;U_T0_400;U_T0_450;U_T0_500;U_T0_600;U_T0_700;U_T0_750;U_T0_800;U_T0_900;U_T1_000;U_T1_200;U_T1_400;U_T1_600;U_T1_800;U_T2_000;U_T2_500;U_T3_000;U_T3_500;U_T4_000;U_T4_500;U_T5_000;U_T6_000;U_T7_000;U_T8_000;U_T9_000;U_T10_000;V_T0_010;V_T0_025;V_T0_040;V_T0_050;V_T0_070;V_T0_100;V_T0_150;V_T0_200;V_T0_250;V_T0_300;V_T0_350;V_T0_400;V_T0_450;V_T0_500;V_T0_600;V_T0_700;V_T0_750;V_T0_800;V_T0_900;V_T1_000;V_T1_200;V_T1_400;V_T1_600;V_T1_800;V_T2_000;V_T2_500;V_T3_000;V_T3_500;V_T4_000;V_T4_500;V_T5_000;V_T6_000;V_T7_000;V_T8_000;V_T9_000;V_T10_000;W_T0_010;W_T0_025;W_T0_040;W_T0_050;W_T0_070;W_T0_100;W_T0_150;W_T0_200;W_T0_250;W_T0_300;W_T0_350;W_T0_400;W_T0_450;W_T0_500;W_T0_600;W_T0_700;W_T0_750;W_T0_800;W_T0_900;W_T1_000;W_T1_200;W_T1_400;W_T1_600;W_T1_800;W_T2_000;W_T2_500;W_T3_000;W_T3_500;W_T4_000;W_T4_500;W_T5_000;W_T6_000;W_T7_000;W_T8_000;W_T9_000;W_T10_000;rotD50_T0_010;rotD50_T0_025;rotD50_T0_040;rotD50_T0_050;rotD50_T0_070;rotD50_T0_100;rotD50_T0_150;rotD50_T0_200;rotD50_T0_250;rotD50_T0_300;rotD50_T0_350;rotD50_T0_400;rotD50_T0_450;rotD50_T0_500;rotD50_T0_600;rotD50_T0_700;rotD50_T0_750;rotD50_T0_800;rotD50_T0_900;rotD50_T1_000;rotD50_T1_200;rotD50_T1_400;rotD50_T1_600;rotD50_T1_800;rotD50_T2_000;rotD50_T2_500;rotD50_T3_000;rotD50_T3_500;rotD50_T4_000;rotD50_T4_500;rotD50_T5_000;rotD50_T6_000;rotD50_T7_000;rotD50_T8_000;rotD50_T9_000;rotD50_T10_000;rotD100_T0_010;rotD100_T0_025;rotD100_T0_040;rotD100_T0_050;rotD100_T0_070;rotD100_T0_100;rotD100_T0_150;rotD100_T0_200;rotD100_T0_250;rotD100_T0_300;rotD100_T0_350;rotD100_T0_400;rotD100_T0_450;rotD100_T0_500;rotD100_T0_600;rotD100_T0_700;rotD100_T0_750;rotD100_T0_800;rotD100_T0_900;rotD100_T1_000;rotD100_T1_200;rotD100_T1_400;rotD100_T1_600;rotD100_T1_800;rotD100_T2_000;rotD100_T2_500;rotD100_T3_000;rotD100_T3_500;rotD100_T4_000;rotD100_T4_500;rotD100_T5_000;rotD100_T6_000;rotD100_T7_000;rotD100_T8_000;rotD100_T9_000;rotD100_T10_000;rotD00_T0_010;rotD00_T0_025;rotD00_T0_040;rotD00_T0_050;rotD00_T0_070;rotD00_T0_100;rotD00_T0_150;rotD00_T0_200;rotD00_T0_250;rotD00_T0_300;rotD00_T0_350;rotD00_T0_400;rotD00_T0_450;rotD00_T0_500;rotD00_T0_600;rotD00_T0_700;rotD00_T0_750;rotD00_T0_800;rotD00_T0_900;rotD00_T1_000;rotD00_T1_200;rotD00_T1_400;rotD00_T1_600;rotD00_T1_800;rotD00_T2_000;rotD00_T2_500;rotD00_T3_000;rotD00_T3_500;rotD00_T4_000;rotD00_T4_500;rotD00_T5_000;rotD00_T6_000;rotD00_T7_000;rotD00_T8_000;rotD00_T9_000;rotD00_T10_000
30;DE-1992-0010;1992-12-30 21:34:10;260076.0;usp0005k3a;494919.0;;DE;47.7083;8.2941;27.0;ISC;SS;4.1;FUR-NEIC;3.7;Plenefisch_Bonjer_1997;;;;;;;;;;;;;;;;;;;;;;;;LE;BAW;0;HN;0.0;;;;DE;47.798;7.677;600.0;A*;GEO;ESM;;;;;17.819271;1021.605304;47.3;101.9;;;;;U;0.0;3;;2;;Z;0.3;0.3;0.3;30.0;30.0;30.0;-3.000393;-2.212862;2.561568;;;;-0.06776;0.039587;0.055429;;;;0.003924;0.001403;0.001924;;;;1.995;2.17;8.61;;;;0.0889392;0.0358345;0.0434511;;;;1.83567871795;1.91761925121;2.1888385701;;;;0.00172944621174;0.00163701535608;0.00171998897603;;;;3.00044;3.30811;5.32853;8.35547;4.86323;9.31754;3.46057;4.99981;3.68486;3.374;2.40482;1.36765;0.858493;0.528512;0.415206;0.370863;0.326515;0.277494;0.202383;0.182541;0.140685;0.106215;0.08154;0.063483;0.051186;0.033387;0.024063;0.01884;0.015569;0.013556;0.011241;0.008699;0.007089;0.005954;0.005113;0.00447;2.22206;2.6746;3.80137;7.03029;6.79185;10.4641;4.47431;1.2779;0.819524;0.720508;0.710524;0.599439;0.482596;0.327196;0.189204;0.140429;0.126859;0.107743;0.083643;0.069306;0.050524;0.033459;0.025431;0.020283;0.016926;0.012505;0.010537;0.00878;0.007702;0.006942;0.005953;0.004799;0.004039;0.003491;0.003064;0.002727;2.58329;2.66669;3.12948;6.69358;5.92552;7.38112;6.79037;4.55545;1.27072;1.24619;0.706827;0.550237;0.379312;0.284239;0.149593;0.124758;0.125757;0.102676;0.081106;0.0617;0.043729;0.034882;0.029815;0.025903;0.022662;0.017591;0.013852;0.012126;0.010986;0.009833;0.008306;0.006716;0.005699;0.004919;0.004306;0.003817;;;;;;;;;;;;;;;;;;;;;;;;;;;;;;;;;;;;;;;;;;;;;;;;;;;;;;;;;;;;;;;;;;;;;;;;;;;;;;;;;;;;;;;;;;;;;;;;;;;;;;;;;;;;
31;DE-1992-0010;1992-12-30 21:34:10;260076.0;usp0005k3a;494919.0;;DE;47.7083;8.2941;27.0;ISC;SS;4.1;FUR-NEIC;3.7;Plenefisch_Bonjer_1997;;;;;;;;;;;;;;;;;;;;;;;;LE;BFO;0;HN;0.0;;;;DE;48.331;8.33;589.0;A*;GEO;ESM;;;;;14.206536;923.161335;69.3;182.2;;;;;U;0.0;3;;2;;Z;0.3;0.3;0.3;60.0;60.0;60.0;-0.94177;-1.078594;1.097975;;;;0.020906;0.02909;-0.022779;;;;-0.001784;0.001033;-0.001001;;;;11.915;11.57;11.5;;;;0.0433955;0.0316577;0.0318204;;;;0.926548563975;1.02970473887;1.06687028964;;;;0.000266040031966;0.000339978064563;0.000338131157076;;;;0.95218;1.39666;1.89465;2.43904;2.68656;2.65792;2.06709;1.95017;1.40855;1.23309;0.681243;0.520239;0.393134;0.321617;0.258217;0.218097;0.218512;0.198241;0.155743;0.123572;0.082705;0.05216;0.039388;0.029409;0.023791;0.01577;0.011367;0.00851;0.006742;0.005879;0.004841;0.00359;0.002839;0.002348;0.001995;0.001728;1.09205;1.14054;1.55645;2.06931;2.40028;3.95592;2.36333;2.26196;1.62935;0.888002;0.525832;0.41008;0.296772;0.318467;0.179576;0.125261;0.111107;0.106377;0.071462;0.060587;0.038615;0.027539;0.021548;0.016697;0.013458;0.009625;0.007986;0.006625;0.005737;0.005194;0.00447;0.003573;0.002983;0.002564;0.002247;0.001998;1.12356;1.31432;1.83631;1.89111;1.75741;1.91508;3.58261;1.48306;1.32877;1.2218;0.704814;0.544003;0.417167;0.332035;0.213387;0.136369;0.114458;0.112961;0.081982;0.057178;0.03245;0.023029;0.017416;0.014295;0.0118;0.008521;0.006751;0.005301;0.004449;0.004002;0.003364;0.002586;0.002133;0.00184;0.001629;0.001459;;;;;;;;;;;;;;;;;;;;;;;;;;;;;;;;;;;;;;;;;;;;;;;;;;;;;;;;;;;;;;;;;;;;;;;;;;;;;;;;;;;;;;;;;;;;;;;;;;;;;;;;;;;;
32;DE-1992-0010;1992-12-30 21:34:10;260076.0;usp0005k3a;494919.0;;DE;47.7083;8.2941;27.0;ISC;SS;4.1;FUR-NEIC;3.7;Plenefisch_Bonjer_1997;;;;;;;;;;;;;;;;;;;;;;;;LE;DOS;0;HN;0.0;;;;DE;47.62;7.853;391.0;A*;GEO;ESM;;;;;6.366226;660.498944;34.6;73.3;;;;;U;;3;;2;;Z;0.2;0.2;0.2;40.0;40.0;40.0;-4.206641;3.060186;4.927048;;;;0.130743;0.080078;0.143168;;;;0.005117;-0.002366;-0.00413;;;;2.195;2.505;2.205;;;;0.151243;0.0851771;0.142067;;;;3.03738667626;2.24835242075;4.64605195065;;;;0.00487880688565;0.00261584606098;0.0101557332199;;;;4.21127;4.48828;5.05382;7.1665;8.59315;11.8389;9.65549;10.1757;7.21093;4.02633;3.45616;3.08151;1.75963;1.00907;0.941282;0.78362;0.678042;0.560223;0.360986;0.245716;0.168229;0.111202;0.091477;0.080954;0.071667;0.052737;0.040435;0.032472;0.026907;0.023604;0.019911;0.015906;0.01326;0.011373;0.009958;0.008856;3.08598;3.26017;3.75232;4.52164;7.79445;13.0274;5.16131;6.71941;4.00462;2.42052;2.7989;1.92404;0.966987;0.717736;0.47217;0.361053;0.291244;0.226656;0.162164;0.127167;0.080295;0.057647;0.04292;0.03471;0.028929;0.02052;0.015852;0.013657;0.01193;0.010787;0.00946;0.007966;0.006856;0.006013;0.005354;0.004826;4.93166;5.22289;5.97913;6.1751;9.91351;18.2547;20.7423;14.5885;5.6224;3.64523;2.69045;1.80003;1.37727;0.923055;0.493176;0.390259;0.335864;0.293712;0.225422;0.185722;0.140099;0.113645;0.091836;0.07483;0.062802;0.043159;0.032755;0.026003;0.022349;0.020234;0.01776;0.014838;0.012726;0.01112;0.009863;0.008857;;;;;;;;;;;;;;;;;;;;;;;;;;;;;;;;;;;;;;;;;;;;;;;;;;;;;;;;;;;;;;;;;;;;;;;;;;;;;;;;;;;;;;;;;;;;;;;;;;;;;;;;;;;;
33;DE-1992-0010;1992-12-30 21:34:10;260076.0;usp0005k3a;494919.0;;DE;47.7083;8.2941;27.0;ISC;SS;4.1;FUR-NEIC;3.7;Plenefisch_Bonjer_1997;;;;;;;;;;;;;;;;;;;;;;;;LE;EFR;0;HN;0.0;;;;DE;47.665;7.564;270.0;A*;GEO;ESM;;;;;16.47448;984.539589;55.0;84.7;;;;;U;;3;;2;;Z;0.2;0.2;0.2;40.0;40.0;40.0;-0.73698;0.555767;0.54012;;;;-0.031073;-0.01568;0.012136;;;;0.003515;-0.000794;0.000784;;;;5.46;4.295;5.92;;;;0.083386;0.0302733;0.03071;;;;0.806078075279;0.636368990185;0.901825050834;;;;0.00017749806444;0.000123345410156;0.000175402251376;;;;0.74388;0.778213;1.00589;0.91633;1.39846;1.09226;0.91862;1.52057;1.78158;1.03822;0.703077;0.64383;0.624271;0.629536;0.684277;0.784751;0.723163;0.638844;0.471084;0.311338;0.168406;0.117285;0.082817;0.059656;0.044187;0.028654;0.02064;0.015514;0.012142;0.010149;0.007944;0.005661;0.004301;0.003416;0.002801;0.00236;0.562643;0.600332;0.902477;1.37919;1.11426;1.36966;1.41351;1.02962;1.47314;1.08495;0.518365;0.413576;0.334494;0.304566;0.221617;0.156986;0.112648;0.094346;0.080751;0.061142;0.039537;0.026595;0.027021;0.021043;0.017846;0.009041;0.005313;0.003807;0.002867;0.00253;0.00219;0.001728;0.001415;0.001213;0.001069;0.000958;0.540716;0.574469;0.633745;0.798501;0.960942;1.41697;1.73929;1.14538;0.799023;0.419312;0.365442;0.297247;0.297001;0.291961;0.340338;0.239612;0.24709;0.200849;0.100741;0.075623;0.046755;0.028847;0.029903;0.019533;0.0119;0.006346;0.004587;0.00345;0.00275;0.002365;0.00185;0.001374;0.001058;0.00091;0.000805;0.000722;;;;;;;;;;;;;;;;;;;;;;;;;;;;;;;;;;;;;;;;;;;;;;;;;;;;;;;;;;;;;;;;;;;;;;;;;;;;;;;;;;;;;;;;;;;;;;;;;;;;;;;;;;;;
34;DE-1992-0010;1992-12-30 21:34:10;260076.0;usp0005k3a;494919.0;;DE;47.7083;8.2941;27.0;ISC;SS;4.1;FUR-NEIC;3.7;Plenefisch_Bonjer_1997;;;;;;;;;;;;;;;;;;;;;;;;LE;END;0;HN;0.0;;;;DE;47.715;7.738;730.0;A*;GEO;ESM;;;;;7.564481;734.791554;41.7;90.8;;;;;U;0.0;3;;2;;Z;0.2;0.2;0.2;60.0;60.0;60.0;4.341098;7.204851;3.76629;;;;-0.085042;-0.121486;-0.056025;;;;0.003467;0.002582;0.001256;;;;2.73;2.12;9.025;;;;0.0980952;0.0759484;0.0381439;;;;3.36041014768;3.33850913853;3.08698499303;;;;0.00499267658032;0.0052438630635;0.00283635647896;;;;4.3441;6.86827;9.19335;10.5156;14.9611;8.27743;8.06002;6.62758;5.47769;2.84276;1.70531;1.84539;1.43827;0.977456;0.566295;0.286169;0.219566;0.196456;0.162461;0.135504;0.115012;0.096196;0.078954;0.065061;0.054135;0.036424;0.026283;0.020313;0.016209;0.013913;0.011655;0.009091;0.007442;0.0063;0.005627;0.005096;7.36055;8.70102;9.41665;11.3471;13.5932;14.6329;8.92326;4.63955;3.57537;2.10224;1.57336;1.09744;0.776605;0.559908;0.336246;0.254164;0.215851;0.185638;0.145156;0.117469;0.086888;0.069459;0.057698;0.048443;0.042151;0.031622;0.025888;0.0221;0.019222;0.017438;0.015332;0.012748;0.010879;0.009483;0.008405;0.007548;3.76655;5.43155;6.26828;7.80769;10.6565;8.97791;4.64717;2.41399;1.41403;0.884803;0.885826;0.544316;0.382631;0.289364;0.170142;0.095918;0.083771;0.069943;0.056814;0.048664;0.044299;0.036153;0.029796;0.024037;0.020191;0.013774;0.01058;0.008857;0.007888;0.007253;0.006446;0.00542;0.004677;0.004116;0.003677;0.00332;;;;;;;;;;;;;;;;;;;;;;;;;;;;;;;;;;;;;;;;;;;;;;;;;;;;;;;;;;;;;;;;;;;;;;;;;;;;;;;;;;;;;;;;;;;;;;;;;;;;;;;;;;;;
35;DE-1992-0010;1992-12-30 21:34:10;260076.0;usp0005k3a;494919.0;;DE;47.7083;8.2941;27.0;ISC;SS;4.1;FUR-NEIC;3.7;Plenefisch_Bonjer_1997;;;;;;;;;;;;;;;;;;;;;;;;LE;GLO;0;HN;0.0;;;;DE;48.058;7.964;360.0;A*;GEO;ESM;;;;;21.710582;1132.234002;46.1;147.5;;;;;U;0.0;3;;2;;Z;0.2;0.2;0.2;60.0;60.0;60.0;1.653275;-1.335796;2.333427;;;;-0.039448;0.029423;0.033543;;;;0.001647;0.00107;-0.001081;;;;5.025;11.6;11.63;;;;0.054598;0.0387913;0.0365957;;;;1.85563859102;2.00187640973;2.35404348096;;;;0.00114528170159;0.000976094234272;0.00127233445867;;;;1.67459;2.18845;2.55962;2.81007;6.54628;3.7545;4.81743;3.41048;2.95673;1.48103;1.60771;1.0781;0.800268;0.576114;0.256919;0.170001;0.147156;0.124795;0.09486;0.072685;0.052791;0.044139;0.036251;0.029527;0.024913;0.017151;0.012968;0.009942;0.008179;0.007257;0.006174;0.004862;0.004013;0.003436;0.003012;0.002682;1.3582;1.80929;2.28812;2.19396;3.89937;4.15795;4.46114;3.12776;1.53315;0.934204;0.87284;0.834028;0.494508;0.33473;0.222011;0.152675;0.11503;0.097827;0.083869;0.060246;0.033739;0.023994;0.021425;0.020631;0.017323;0.012204;0.008448;0.006506;0.005459;0.004784;0.003948;0.003078;0.002602;0.002288;0.002044;0.001845;2.38187;3.87612;2.78172;2.08729;3.42745;4.96944;4.95659;3.24438;1.47684;0.84604;0.65797;0.440484;0.419109;0.330034;0.180845;0.111693;0.105734;0.090325;0.068062;0.059663;0.040725;0.034978;0.025803;0.021603;0.016937;0.011957;0.00849;0.006849;0.005875;0.005201;0.004345;0.003408;0.002867;0.002512;0.002235;0.00202;;;;;;;;;;;;;;;;;;;;;;;;;;;;;;;;;;;;;;;;;;;;;;;;;;;;;;;;;;;;;;;;;;;;;;;;;;;;;;;;;;;;;;;;;;;;;;;;;;;;;;;;;;;;
36;DE-1992-0010;1992-12-30 21:34:10;260076.0;usp0005k3a;494919.0;;DE;47.7083;8.2941;27.0;ISC;SS;4.1;FUR-NEIC;3.7;Plenefisch_Bonjer_1997;;;;;;;;;;;;;;;;;;;;;;;;LE;HEX;0;HN;0.0;;;;DE;48.021;8.15;780.0;A*;GEO;ESM;;;;;19.609295;1071.826549;36.4;162.7;;;;;U;0.0;3;;2;;Z;0.2;0.2;0.2;60.0;60.0;60.0;-4.01415;8.272867;5.812289;;;;-0.045834;-0.163668;-0.090884;;;;0.001872;0.003213;0.001846;;;;8.695;9.53;9.77;;;;0.041032;0.087645;0.0498719;;;;3.73612723344;8.45102224419;5.1998474141;;;;0.00400385752948;0.020260977849;0.00739360799164;;;;4.34919;11.239;7.91819;8.00212;8.11637;7.40899;4.58749;2.32291;1.65555;1.07313;0.705634;0.482964;0.347325;0.284427;0.222192;0.139786;0.112378;0.10124;0.081535;0.067116;0.049491;0.038466;0.030878;0.025537;0.021679;0.015432;0.011993;0.009665;0.008046;0.007081;0.006001;0.004784;0.003962;0.003368;0.002922;0.002596;8.27326;16.3356;28.5635;16.1418;19.854;23.4412;12.1875;5.60765;3.58106;2.39922;1.6075;1.12869;0.812628;0.620532;0.409245;0.321947;0.284244;0.245423;0.186747;0.159567;0.119303;0.091316;0.078181;0.064025;0.055705;0.043673;0.0345;0.029275;0.025605;0.023219;0.020299;0.016764;0.014342;0.012573;0.01119;0.010089;5.83405;10.9561;9.6022;7.0153;13.1194;15.3218;6.30294;3.03512;1.9688;1.20341;0.811553;0.612052;0.465912;0.376998;0.252604;0.191262;0.165806;0.137043;0.102885;0.090028;0.063787;0.048806;0.039488;0.034495;0.031104;0.022946;0.019049;0.016474;0.014237;0.012758;0.011063;0.009193;0.007923;0.006964;0.006203;0.005584;;;;;;;;;;;;;;;;;;;;;;;;;;;;;;;;;;;;;;;;;;;;;;;;;;;;;;;;;;;;;;;;;;;;;;;;;;;;;;;;;;;;;;;;;;;;;;;;;;;;;;;;;;;;
37;DE-1992-0010;1992-12-30 21:34:10;260076.0;usp0005k3a;494919.0;;DE;47.7083;8.2941;27.0;ISC;SS;4.1;FUR-NEIC;3.7;Plenefisch_Bonjer_1997;;;;;;;;;;;;;;;;;;;;;;;;LE;KIR;0;HN;0.0;;;;DE;47.957;7.919;440.0;A*;GEO;ESM;;;;;5.049921;589.753363;39.4;134.4;;;;;U;0.0;3;;2;;Z;0.2;0.2;0.2;60.0;60.0;60.0;-2.745562;1.259192;1.110296;;;;-0.045867;0.023847;0.01491;;;;0.00092;0.000709;-0.000587;;;;4.265;7.64;9.09;;;;0.0236866;0.0287971;0.0226204;;;;1.73433657364;1.52129640043;1.50777092562;;;;0.00128903241722;0.000600491550336;0.000528737408745;;;;2.77451;3.55914;5.26223;7.25248;10.2263;3.1832;2.44384;1.51974;1.34461;0.718356;0.469373;0.369041;0.255789;0.209214;0.115547;0.078494;0.069202;0.065223;0.049985;0.042342;0.03048;0.02367;0.020036;0.017;0.014816;0.011647;0.009332;0.007861;0.006879;0.00628;0.005536;0.004613;0.003957;0.003472;0.003097;0.002798;1.28393;2.09789;2.01119;3.08669;3.66658;2.68413;3.59775;1.92754;0.829269;0.713337;0.590555;0.478297;0.369951;0.301148;0.168991;0.130929;0.097557;0.076151;0.061007;0.050567;0.034503;0.023278;0.018556;0.0168;0.014675;0.009514;0.006834;0.005381;0.004411;0.003858;0.003272;0.002653;0.002262;0.00197;0.001742;0.00156;1.15959;1.68666;2.16396;3.29496;2.28605;2.27417;2.86559;1.63066;0.835138;0.65345;0.342729;0.24332;0.175173;0.136022;0.104853;0.081675;0.06021;0.059836;0.056659;0.054947;0.038746;0.027814;0.017829;0.015157;0.011643;0.006602;0.004677;0.00378;0.003008;0.002534;0.002071;0.001653;0.001388;0.001189;0.001033;0.000909;;;;;;;;;;;;;;;;;;;;;;;;;;;;;;;;;;;;;;;;;;;;;;;;;;;;;;;;;;;;;;;;;;;;;;;;;;;;;;;;;;;;;;;;;;;;;;;;;;;;;;;;;;;;
38;DE-1992-0010;1992-12-30 21:34:10;260076.0;usp0005k3a;494919.0;;DE;47.7083;8.2941;27.0;ISC;SS;4.1;FUR-NEIC;3.7;Plenefisch_Bonjer_1997;;;;;;;;;;;;;;;;;;;;;;;;LE;KRE;0;HN;0.0;;;;DE;48.124;8.031;440.0;A*;GEO;ESM;;;;;26.557589;1278.835056;50.2;156.9;;;;;U;0.0;3;;2;;Z;0.2;0.2;0.2;60.0;60.0;60.0;1.207186;2.093941;1.240702;;;;-0.016993;-0.033157;0.024733;;;;0.000618;-0.000918;-0.000892;;;;7.985;11.76;13.585;;;;0.019258;0.029609;0.0331722;;;;1.62773159499;2.40472196019;2.2502804013;;;;0.000639729945318;0.0013497695471;0.00105004341932;;;;1.25297;2.58727;2.68027;2.80405;5.74664;2.90678;1.38305;0.938248;0.770363;0.473912;0.295132;0.263762;0.15808;0.106939;0.07955;0.076599;0.070492;0.060468;0.045179;0.038009;0.030782;0.024932;0.018316;0.01569;0.013455;0.009268;0.006688;0.005038;0.004066;0.003526;0.002914;0.002242;0.001835;0.001564;0.001366;0.001214;2.2304;4.01567;4.01066;4.71041;8.42981;2.82944;3.27258;2.52375;1.73926;1.05932;0.512975;0.330816;0.284658;0.160426;0.110382;0.093412;0.081149;0.068968;0.059552;0.053871;0.040434;0.030104;0.024163;0.018263;0.014256;0.009808;0.008034;0.00677;0.005749;0.005195;0.004543;0.003691;0.00311;0.0027;0.002392;0.002151;1.27552;2.62019;2.32607;2.98342;5.39176;4.39431;3.12755;2.92681;1.17365;0.877798;0.690604;0.464869;0.351749;0.287395;0.148138;0.099289;0.108097;0.100558;0.070807;0.061083;0.044122;0.034787;0.026272;0.020923;0.015911;0.010227;0.007428;0.005723;0.004669;0.004155;0.003547;0.002755;0.002271;0.001952;0.001722;0.001556;;;;;;;;;;;;;;;;;;;;;;;;;;;;;;;;;;;;;;;;;;;;;;;;;;;;;;;;;;;;;;;;;;;;;;;;;;;;;;;;;;;;;;;;;;;;;;;;;;;;;;;;;;;;
39;DE-1992-0010;1992-12-30 21:34:10;260076.0;usp0005k3a;494919.0;;DE;47.7083;8.2941;27.0;ISC;SS;4.1;FUR-NEIC;3.7;Plenefisch_Bonjer_1997;;;;;;;;;;;;;;;;;;;;;;;;LE;SLB;0;HN;0.0;;;;DE;47.697;7.898;880.0;A*;GEO;ESM;;;;;12.911788;888.681885;29.8;87.4;;;;;U;0.0;3;;2;;Z;0.2;0.2;0.2;60.0;60.0;60.0;7.053746;1.846241;-2.923385;;;;0.129589;0.027626;-0.046055;;;;-0.003451;-0.000968;0.00144;;;;1.835;3.36;6.225;;;;0.0935122;0.0382857;0.0535;;;;2.87543316419;1.98114572724;2.7081640034;;;;0.00567772781785;0.00133805830086;0.00272074429416;;;;7.15798;8.47928;10.5005;11.9999;18.8676;17.3144;9.31472;4.85338;2.95056;2.9847;1.57676;1.31725;1.04819;0.868134;0.511707;0.479953;0.418927;0.385818;0.256654;0.15959;0.124084;0.092526;0.064384;0.04932;0.041558;0.035711;0.029631;0.02491;0.021356;0.01918;0.016649;0.013671;0.011606;0.010093;0.008933;0.008028;1.89529;2.77623;5.04061;5.48253;6.84449;5.74022;3.81088;2.16966;1.48758;1.42166;0.737144;0.715226;0.418534;0.32186;0.2634;0.169922;0.135736;0.110951;0.079599;0.06106;0.042429;0.033471;0.02587;0.02006;0.015804;0.009841;0.007538;0.006278;0.005196;0.004621;0.003979;0.003177;0.002632;0.002246;0.001969;0.001766;3.02051;3.51969;5.8253;8.01044;8.21335;7.43901;7.73635;2.84024;1.9229;1.60939;1.02134;1.15765;0.916909;0.518219;0.28496;0.173254;0.147163;0.134918;0.102176;0.075537;0.044374;0.033302;0.02541;0.021174;0.018185;0.012699;0.009976;0.007844;0.006361;0.005668;0.005081;0.004313;0.003691;0.003207;0.002832;0.00258;;;;;;;;;;;;;;;;;;;;;;;;;;;;;;;;;;;;;;;;;;;;;;;;;;;;;;;;;;;;;;;;;;;;;;;;;;;;;;;;;;;;;;;;;;;;;;;;;;;;;;;;;;;;
