;event_id;event_time;ISC_ev_id;USGS_ev_id;INGV_ev_id;EMSC_ev_id;ev_nation_code;ev_latitude;ev_longitude;ev_depth_km;ev_hyp_ref;fm_type_code;ML;ML_ref;Mw;Mw_ref;Ms;Ms_ref;EMEC_Mw;EMEC_Mw_type;EMEC_Mw_ref;strike_1;dip_1;rake_1;strike_2;dip_2;rake_2;MT_Agency;MT_Identifier;event_source_id;es_strike;es_dip;es_rake;es_strike_dip_rake_ref;es_z_top;es_z_top_ref;es_length;es_width;es_geometry_ref;network_code;station_code;location_code;instrument_code;sensor_depth_m;proximity_code;housing_code;installation_code;st_nation_code;st_latitude;st_longitude;st_elevation;ec8_code;ec8_code_method;ec8_code_ref;vs30_m_sec;vs30_ref;vs30_calc_method;vs30_meas_type;slope_deg;vs30_m_sec_WA;epi_dist;epi_az;JB_dist;rup_dist;Rx_dist;Ry0_dist;instrument_type_code;late_triggered_flag_01;U_channel_code;U_azimuth_deg;V_channel_code;V_azimuth_deg;W_channel_code;U_hp;V_hp;W_hp;U_lp;V_lp;W_lp;U_pga;V_pga;W_pga;rotD50_pga;rotD100_pga;rotD00_pga;U_pgv;V_pgv;W_pgv;rotD50_pgv;rotD100_pgv;rotD00_pgv;U_pgd;V_pgd;W_pgd;rotD50_pgd;rotD100_pgd;rotD00_pgd;U_T90;V_T90;W_T90;rotD50_T90;rotD100_T90;rotD00_T90;U_housner;V_housner;W_housner;rotD50_housner;rotD100_housner;rotD00_housner;U_CAV;V_CAV;W_CAV;rotD50_CAV;rotD100_CAV;rotD00_CAV;U_ia;V_ia;W_ia;rotD50_ia;rotD100_ia;rotD00_ia;U_T0_010;U_T0_025;U_T0_040;U_T0_050;U_T0_070;U_T0_100;U_T0_150;U_T0_200;U_T0_250;U_T0_300;U_T0_350;U_T0_400;U_T0_450;U_T0_500;U_T0_600;U_T0_700;U_T0_750;U_T0_800;U_T0_900;U_T1_000;U_T1_200;U_T1_400;U_T1_600;U_T1_800;U_T2_000;U_T2_500;U_T3_000;U_T3_500;U_T4_000;U_T4_500;U_T5_000;U_T6_000;U_T7_000;U_T8_000;U_T9_000;U_T10_000;V_T0_010;V_T0_025;V_T0_040;V_T0_050;V_T0_070;V_T0_100;V_T0_150;V_T0_200;V_T0_250;V_T0_300;V_T0_350;V_T0_400;V_T0_450;V_T0_500;V_T0_600;V_T0_700;V_T0_750;V_T0_800;V_T0_900;V_T1_000;V_T1_200;V_T1_400;V_T1_600;V_T1_800;V_T2_000;V_T2_500;V_T3_000;V_T3_500;V_T4_000;V_T4_500;V_T5_000;V_T6_000;V_T7_000;V_T8_000;V_T9_000;V_T10_000;W_T0_010;W_T0_025;W_T0_040;W_T0_050;W_T0_070;W_T0_100;W_T0_150;W_T0_200;W_T0_250;W_T0_300;W_T0_350;W_T0_400;W_T0_450;W_T0_500;W_T0_600;W_T0_700;W_T0_750;W_T0_800;W_T0_900;W_T1_000;W_T1_200;W_T1_400;W_T1_600;W_T1_800;W_T2_000;W_T2_500;W_T3_000;W_T3_500;W_T4_000;W_T4_500;W_T5_000;W_T6_000;W_T7_000;W_T8_000;W_T9_000;W_T10_000;rotD50_T0_010;rotD50_T0_025;rotD50_T0_040;rotD50_T0_050;rotD50_T0_070;rotD50_T0_100;rotD50_T0_150;rotD50_T0_200;rotD50_T0_250;rotD50_T0_300;rotD50_T0_350;rotD50_T0_400;rotD50_T0_450;rotD50_T0_500;rotD50_T0_600;rotD50_T0_700;rotD50_T0_750;rotD50_T0_800;rotD50_T0_900;rotD50_T1_000;rotD50_T1_200;rotD50_T1_400;rotD50_T1_600;rotD50_T1_800;rotD50_T2_000;rotD50_T2_500;rotD50_T3_000;rotD50_T3_500;rotD50_T4_000;rotD50_T4_500;rotD50_T5_000;rotD50_T6_000;rotD50_T7_000;rotD50_T8_000;rotD50_T9_000;rotD50_T10_000;rotD100_T0_010;rotD100_T0_025;rotD100_T0_040;rotD100_T0_050;rotD100_T0_070;rotD100_T0_100;rotD100_T0_150;rotD100_T0_200;rotD100_T0_250;rotD100_T0_300;rotD100_T0_350;rotD100_T0_400;rotD100_T0_450;rotD100_T0_500;rotD100_T0_600;rotD100_T0_700;rotD100_T0_750;rotD100_T0_800;rotD100_T0_900;rotD100_T1_000;rotD100_T1_200;rotD100_T1_400;rotD100_T1_600;rotD100_T1_800;rotD100_T2_000;rotD100_T2_500;rotD100_T3_000;rotD100_T3_500;rotD100_T4_000;rotD100_T4_500;rotD100_T5_000;rotD100_T6_000;rotD100_T7_000;rotD100_T8_000;rotD100_T9_000;rotD100_T10_000;rotD00_T0_010;rotD00_T0_025;rotD00_T0_040;rotD00_T0_050;rotD00_T0_070;rotD00_T0_100;rotD00_T0_150;rotD00_T0_200;rotD00_T0_250;rotD00_T0_300;rotD00_T0_350;rotD00_T0_400;rotD00_T0_450;rotD00_T0_500;rotD00_T0_600;rotD00_T0_700;rotD00_T0_750;rotD00_T0_800;rotD00_T0_900;rotD00_T1_000;rotD00_T1_200;rotD00_T1_400;rotD00_T1_600;rotD00_T1_800;rotD00_T2_000;rotD00_T2_500;rotD00_T3_000;rotD00_T3_500;rotD00_T4_000;rotD00_T4_500;rotD00_T5_000;rotD00_T6_000;rotD00_T7_000;rotD00_T8_000;rotD00_T9_000;rotD00_T10_000
18;AM-1990-0013;1990-12-16 15:45:40;347607.0;usp0004j77;;;GE;41.3679;43.7234;28.3;ISC;SS;5.2;Arefiev_et_al_1991a;5.4;Arefiev_et_al_1991a;5.1;ISC;;;;;;;;;;;;;;;;;;;;;;A;SBGD;0;HN;0.0;;;;GE;41.265;43.6;2000.0;B*;GEO;ESM;;;;;2.622867;472.976765;15.4;42.1;;;;;D;0.0;E;90.0;N;0.0;Z;0.2;0.2;0.2;40.0;40.0;40.0;-40.446546;-38.005729;58.316399;41.5791605;46.116306;35.584293;2.211991;-1.761866;1.476421;2.002345;2.50645;1.42175;-0.282521;0.25398;0.182115;0.2693205;0.359059;0.160967;8.725;9.38;9.33;9.1225;9.385;8.715;6.79194;5.31699;3.96042;6.21945;7.54684;4.83635;92.631560497;87.8505067077;102.691246929;89.5444215018;93.6846450936;87.443861288;1.65613177582;1.48532495204;2.24732862856;1.57072846076;1.69089185756;1.45056486565;40.5177;42.547;57.2947;51.7827;77.017;85.0877;143.759;131.754;88.5602;62.5557;59.6284;59.4717;73.7419;65.5211;31.9235;32.7857;23.7857;22.0409;23.1946;20.6261;16.5553;14.2634;10.9368;8.86656;6.43468;3.2519;2.23168;1.40703;0.993642;0.837402;0.696108;0.516633;0.38065;0.288336;0.227622;0.187054;38.0856;39.1647;57.4509;58.7099;65.4519;102.904;114.688;113.064;68.3907;56.1633;68.8625;63.4677;45.1635;36.0059;23.8457;18.5315;16.7249;14.8967;13.0307;19.1956;16.7418;11.1369;7.83762;6.23137;5.13025;2.68178;1.55632;1.07624;0.849224;0.689396;0.508016;0.341241;0.261984;0.21756;0.187473;0.164699;58.7446;62.5315;71.067;88.8719;140.531;257.965;131.91;101.596;53.8965;33.7827;27.072;19.6779;19.5403;20.7693;13.7303;17.5264;22.219;27.9109;24.2145;16.5164;12.0284;5.74069;4.64882;3.22673;2.66681;1.949;1.13605;0.899337;0.761786;0.709431;0.550271;0.275249;0.221947;0.18084;0.149766;0.126183;41.6825;42.68725;55.65195;52.79625;75.83005;99.8257;140.79;123.2875;83.28935;58.6948;62.9903;61.53605;64.3041;50.8822;29.38295;24.23055;20.874;19.269;19.97095;24.07395;17.70405;12.78985;9.28191;7.59879;5.93908;2.96407;1.78202;1.198305;0.895679;0.7450135;0.59297;0.422996;0.3149335;0.2487;0.208127;0.17735;46.2717;46.916;59.3264;59.0361;93.5381;115.537;160.708;136.462;89.6105;62.9879;72.9455;71.7224;76.6217;70.0268;33.7171;33.6429;25.1489;22.2643;25.7077;27.5602;20.0988;15.4058;12.6678;10.4945;8.07811;3.66779;2.356;1.58944;1.19873;1.00571;0.799453;0.568136;0.421357;0.326626;0.263353;0.219204;35.6503;38.7339;46.0246;47.2856;62.1583;82.9704;92.6209;107.877;67.6941;52.1843;56.2206;54.0158;38.0704;31.4946;18.3177;11.5226;10.9695;12.308;13.0303;17.4421;15.8486;8.40186;5.45534;4.49307;2.89088;1.94816;1.07378;0.879316;0.625996;0.495921;0.370076;0.249206;0.203422;0.145039;0.111709;0.09687
19;AM-1990-0013;1990-12-16 15:45:40;347607.0;usp0004j77;;;GE;41.3679;43.7234;28.3;ISC;SS;5.2;Arefiev_et_al_1991a;5.4;Arefiev_et_al_1991a;5.1;ISC;;;;;;;;;;;;;;;;;;;;;;A;SBKR;0;HN;0.0;;;;GE;41.734;43.502;1807.0;C*;GEO;ESM;;;;;15.763664;965.157483;44.7;155.5;;;;;D;0.0;E;90.0;N;0.0;Z;0.2;0.2;0.2;40.0;40.0;40.0;41.398256;-41.110252;-11.941654;41.254253;46.73719;29.056297;1.537017;-1.639116;-0.460984;1.525315;1.64832;1.2291;-0.105356;0.09563;0.076938;0.09591875;0.115602;0.0720106;5.135;4.575;9.27;4.82;6.04;3.62;3.35707;2.92273;1.58685;3.21039;3.39266;2.80675;45.7713933739;54.873813478;23.4508556632;50.2275904409;54.9680435535;45.1881401028;0.722140775935;0.923598157182;0.117051129229;0.822869515562;0.957917827501;0.687821112394;41.3988;42.1316;44.0748;47.8504;54.2176;68.1374;123.377;92.4273;70.2863;118.726;89.7799;57.6219;38.5578;26.4586;18.2709;11.5108;9.44432;7.70979;9.54947;8.63582;4.32879;4.93284;3.01569;3.18958;2.92212;1.59897;1.0579;0.60499;0.471657;0.408699;0.328546;0.235741;0.17807;0.14121;0.127576;0.115866;41.1771;42.1099;45.3092;43.9618;48.5423;63.4698;106.128;130.294;104.027;98.594;56.3605;31.7568;21.0234;15.8713;12.2346;9.22076;8.97701;7.43743;8.56791;7.35929;5.9208;3.94194;3.79931;2.56061;2.03319;1.10743;0.781342;0.551268;0.369034;0.303898;0.245412;0.199609;0.169084;0.146448;0.129173;0.115333;11.9646;12.6313;13.4209;14.885;18.4843;30.6968;36.7312;37.3549;29.8288;21.4406;13.5892;10.2831;10.4705;7.61825;4.48638;4.49753;4.08872;3.64142;4.92164;3.91677;2.66793;3.60608;2.58214;2.45675;2.25569;1.28624;0.806447;0.452389;0.342613;0.265242;0.1844;0.116388;0.087677;0.071103;0.06162;0.052726;41.28785;42.12065;45.6507;45.7629;51.6585;67.77405;113.1985;112.924;93.39655;113.3;74.78905;46.10075;30.64855;23.13405;15.02625;10.40515;8.68756;7.723385;9.06898;8.452885;5.68311;4.483875;3.50239;2.967335;2.495875;1.32193;0.923941;0.568433;0.396658;0.337322;0.269422;0.2029945;0.168192;0.1448995;0.126484;0.1121355;46.7377;48.1515;51.5358;52.7836;58.0686;76.7357;137.64;141.985;104.225;122.695;89.7892;57.6104;38.7545;26.5575;19.7625;11.9025;9.50838;8.80454;10.2378;9.62802;6.26804;5.14588;3.84938;3.24919;2.90986;1.63321;1.12144;0.636775;0.490901;0.413619;0.320729;0.230071;0.193235;0.165333;0.143361;0.126121;29.0565;29.5305;32.618;33.9504;43.4258;54.9182;78.7335;75.3841;64.1776;87.9068;56.1255;31.3291;20.9802;14.4632;11.3836;8.11299;7.47888;6.86181;7.02073;7.06714;3.94564;2.64124;2.60254;1.87496;1.36616;1.04039;0.779536;0.523855;0.325991;0.253939;0.209874;0.160437;0.125301;0.107877;0.092181;0.081393
20;AM-1990-0013;1990-12-16 15:45:40;347607.0;usp0004j77;;;GE;41.3679;43.7234;28.3;ISC;SS;5.2;Arefiev_et_al_1991a;5.4;Arefiev_et_al_1991a;5.1;ISC;;;;;;;;;;;;;;;;;;;;;;A;SBVR;0;HN;0.0;;;;AM;41.12;43.809;2130.0;B*;GEO;ESM;;;;;0.310283;287.056329;28.5;345.4;;;;;D;0.0;E;90.0;N;0.0;Z;0.2;0.2;0.2;40.0;40.0;40.0;-115.529907;-79.973553;-66.263414;99.7356525;115.529907;76.408493;-5.173624;3.265195;2.042632;4.60888;6.10324;2.34958;0.849938;-0.329707;-0.125574;0.6116605;0.850253;0.290853;4.95;8.47;6.935;6.5025;9.33;4.25;15.1881;7.20605;3.85677;12.1276;15.4184;7.19858;138.713669696;121.282447322;106.066155249;130.020500912;140.378136605;120.717816956;5.58432805211;3.5005557736;2.57190094065;4.54244199711;5.61038433766;3.47449990285;115.562;119.0;121.501;134.578;172.398;187.152;269.515;247.217;286.701;310.648;171.287;105.833;83.9582;86.2766;84.6056;84.6844;84.3291;73.5083;61.3312;50.5404;36.0937;26.1998;21.6754;17.0505;13.1081;7.29832;4.57234;3.35969;2.54544;2.04465;1.61702;1.13915;0.854082;0.672356;0.547961;0.457973;80.3742;83.6703;100.48;101.454;131.304;151.501;169.616;234.154;168.643;94.9484;98.4727;116.563;87.1469;68.037;40.5876;50.1648;50.1386;44.8608;30.7689;25.3372;14.5276;8.12974;5.73368;4.12767;3.4093;2.70216;2.12334;1.56241;1.16493;0.929002;0.702058;0.51372;0.405551;0.325417;0.264054;0.234945;66.2661;67.6341;84.7765;90.3703;118.323;136.792;162.828;152.252;117.115;115.579;97.6291;78.1598;52.7812;35.5968;20.9326;18.4847;19.1439;16.858;11.6308;9.8553;4.40172;4.37139;3.11631;2.34347;1.89735;1.29885;1.13289;0.767725;0.579137;0.491815;0.376347;0.31516;0.261049;0.209911;0.169314;0.139046;99.8547;102.5015;108.5075;120.1845;136.46;180.9975;220.006;240.6855;232.5555;226.161;146.64;105.736;93.3744;80.6527;65.4241;67.6851;70.10005;62.2109;48.29765;39.7495;27.48855;19.5257;16.4359;13.4016;10.1741;5.663385;3.72472;2.69061;2.042025;1.6677;1.26622;0.8792205;0.664253;0.5214795;0.420137;0.3558705;115.562;119.0;126.287;136.277;184.416;202.806;270.445;331.073;317.143;314.835;172.937;119.497;103.336;90.4993;89.0447;85.8932;85.31;76.9031;65.4109;52.2332;37.4792;26.6965;21.8643;17.1514;13.1744;7.28415;4.74085;3.40997;2.55889;2.04161;1.61179;1.1402;0.858661;0.677005;0.551402;0.460055;76.8055;78.6268;87.3114;97.787;126.343;151.501;163.137;203.653;151.288;94.9483;90.1597;96.7001;71.5223;52.838;40.3486;46.6114;45.1316;41.0101;27.6485;15.9827;10.4866;8.11319;5.76333;4.13545;3.25927;2.10739;1.55949;1.20801;0.997174;0.803154;0.636989;0.478105;0.38149;0.324458;0.264322;0.228548
21;AM-1990-0013;1990-12-16 15:45:40;347607.0;usp0004j77;;;GE;41.3679;43.7234;28.3;ISC;SS;5.2;Arefiev_et_al_1991a;5.4;Arefiev_et_al_1991a;5.1;ISC;;;;;;;;;;;;;;;;;;;;;;A;SPIK;0;HN;0.0;;;;AM;40.848;44.32;1590.0;A*;GEO;ESM;;;;;6.678596;679.829996;76.5;319.2;;;;;D;0.0;E;90.0;N;0.0;Z;0.3;0.3;0.3;40.0;40.0;40.0;11.556328;12.906507;-10.799354;12.4737545;13.659938;11.180745;-0.475154;0.389531;0.249968;0.5046565;0.611563;0.38953;-0.058677;0.049984;0.025354;0.0548012;0.059481;0.0456945;17.99;16.48;17.16;17.245;18.05;16.375;1.61805;1.61741;0.7969;1.61779;1.72161;1.42141;37.3550236973;43.0330601739;30.3545348643;40.4037466801;43.0342608609;37.2901535513;0.17164679933;0.24167271137;0.112883990904;0.206659760452;0.242603691242;0.17071583532;11.6988;12.9456;16.183;18.0323;23.9183;61.5397;31.4353;20.5577;11.794;17.1126;16.8766;12.3692;10.0596;13.2268;11.362;9.02979;7.83809;8.73085;7.43433;6.06414;3.70727;2.25305;1.77278;1.91392;1.61443;0.888575;0.56671;0.390867;0.252183;0.182692;0.124232;0.096901;0.074071;0.057516;0.046943;0.040062;13.1887;14.5841;14.4997;19.2441;29.8852;45.4945;38.5312;27.9288;23.6221;32.6594;29.9172;24.0781;10.6729;11.3902;7.74847;5.48232;6.06112;5.7033;4.41776;2.82411;3.74032;2.09844;2.8239;2.18452;1.70627;0.958508;0.399346;0.221975;0.211144;0.186537;0.141948;0.109082;0.062459;0.047574;0.037304;0.032205;10.9116;13.3144;25.4371;38.0945;24.7567;37.628;19.7517;13.1755;7.30934;5.26578;7.9018;7.52357;5.28327;4.39441;5.4762;4.16617;4.19863;3.82766;3.13488;2.5571;1.96243;1.18115;1.44432;1.13321;0.589403;0.429914;0.223336;0.168765;0.133384;0.105978;0.085801;0.052993;0.050758;0.034844;0.025604;0.02185;12.50105;14.2725;15.46115;18.9464;26.42155;49.6262;36.4069;27.6572;18.98625;26.3463;23.1388;19.04545;11.15075;12.998;8.78347;6.56027;7.16268;6.427265;6.92616;4.369695;3.72239;2.171005;2.32811;2.053695;1.65957;0.9725505;0.4331665;0.2887615;0.2186385;0.1839765;0.128366;0.0958445;0.072978;0.058477;0.0483305;0.0412255;13.7292;15.3393;18.1334;20.259;29.9055;61.9451;41.5002;30.3093;23.7289;32.6594;31.774;25.9084;12.633;14.8198;11.5803;9.12718;8.01397;9.07563;7.57428;6.07318;4.42597;2.58522;3.19786;2.62574;2.32531;1.04743;0.569553;0.395098;0.272608;0.203379;0.152315;0.112992;0.081786;0.0658;0.052322;0.043899;11.3233;12.5927;14.4997;16.5503;21.2837;38.7123;26.7433;17.3129;11.0331;14.9361;12.6476;10.9823;10.0597;10.6758;6.09339;4.89674;5.69184;5.54501;3.81612;2.73137;2.05922;1.23408;1.22407;0.893133;0.939834;0.858408;0.333419;0.188179;0.181788;0.158102;0.098578;0.077778;0.063992;0.047733;0.037032;0.030884
22;AM-1990-0013;1990-12-16 15:45:40;347607.0;usp0004j77;;;GE;41.3679;43.7234;28.3;ISC;SS;5.2;Arefiev_et_al_1991a;5.4;Arefiev_et_al_1991a;5.1;ISC;;;;;;;;;;;;;;;;;;;;;;A;STPV;0;HN;0.0;;;;AM;40.997;44.396;1450.0;A*;GEO;ESM;;;;;1.708856;408.075683;69.9;306.3;;;;;D;0.0;E;90.0;N;0.0;Z;0.3;0.3;0.3;40.0;40.0;40.0;17.540254;22.304839;8.727524;17.9768955;22.724169;16.08279;0.423418;0.606261;-0.264551;0.547955;0.60834;0.415459;-0.062039;0.08824;-0.051211;0.0699201;0.0951804;0.0566451;14.755;14.485;17.415;14.57;14.765;14.37;1.80085;1.95918;1.25159;1.85019;2.11879;1.70352;49.8850327892;57.1081776287;29.5658576734;53.7571538225;57.3867481428;49.1131885553;0.358469929785;0.458480406131;0.104137065973;0.408475183277;0.463087647624;0.353862652392;17.5458;19.3335;26.4416;48.8561;45.161;62.6619;39.9756;34.5145;20.535;15.4299;14.0403;13.0077;12.6343;12.065;12.0427;10.1667;8.05671;7.4384;5.74489;5.53478;3.213;1.97022;3.02825;3.08785;2.07197;0.981073;0.614316;0.389343;0.228451;0.177456;0.144255;0.093458;0.066248;0.059797;0.046214;0.038255;22.3286;23.2552;29.9953;42.9789;48.334;73.7227;48.1575;33.1486;21.1327;29.6895;16.3881;19.6943;16.2839;12.545;12.0316;8.56267;9.84756;10.7426;8.61384;8.01813;6.52035;2.85657;2.05441;1.83842;1.50193;0.791548;0.45277;0.374348;0.334033;0.229421;0.146398;0.152024;0.111049;0.079204;0.063392;0.053791;8.82484;9.92343;18.1994;14.452;31.2407;24.8305;22.2259;12.6451;10.3885;6.8618;6.89619;7.09024;6.96074;6.70254;6.93207;4.8719;4.46891;5.38707;5.34614;4.94869;3.54598;2.73003;2.48738;1.88486;1.26899;0.628141;0.626889;0.299487;0.147794;0.150149;0.140807;0.071356;0.048467;0.040955;0.036215;0.030356;18.0337;19.3426;28.11355;43.73535;46.4867;63.11675;44.82375;33.83155;20.8339;23.01455;15.4094;15.5548;14.2441;12.64555;11.7955;10.06095;8.63416;9.509855;7.641225;6.607255;5.114365;2.851385;2.8019;2.464065;1.845625;0.948735;0.553187;0.37347;0.2701725;0.2059955;0.149268;0.114216;0.086795;0.0637405;0.050177;0.043068;22.9277;24.2563;30.5059;50.1754;58.8527;78.6291;48.1853;44.9888;27.298;32.4997;16.4528;19.6943;16.284;15.107;13.0045;10.8289;10.8936;12.188;9.40643;8.43162;6.57741;3.14719;3.60154;3.09189;2.09476;1.01036;0.665827;0.478466;0.380281;0.273222;0.169863;0.1609;0.122219;0.088344;0.069522;0.058306;16.5074;18.4617;26.0188;32.6523;34.1123;49.343;38.9728;22.0484;17.6099;15.1812;13.2431;11.6399;7.97576;7.9345;6.70905;6.99713;7.14402;6.55939;3.93042;3.14789;2.63584;1.96767;1.83742;1.40223;1.14527;0.768113;0.452551;0.298129;0.205781;0.174504;0.129157;0.088485;0.065277;0.054582;0.042986;0.03522
23;AM-1990-0013;1990-12-16 15:45:40;347607.0;usp0004j77;;;GE;41.3679;43.7234;28.3;ISC;SS;5.2;Arefiev_et_al_1991a;5.4;Arefiev_et_al_1991a;5.1;ISC;;;;;;;;;;;;;;;;;;;;;;A;STRS;0;HN;0.0;;;;AM;40.928;43.873;1870.0;A*;GEO;ESM;;;;;4.497107;564.492355;50.4;345.6;;;;;D;0.0;E;90.0;N;0.0;Z;0.3;0.3;0.3;40.0;40.0;40.0;65.000054;47.341837;22.044809;55.3733345;65.000053;45.226837;-2.299965;1.383007;0.526244;1.748965;2.30599;1.31103;-0.203235;-0.07612;0.036321;0.158944;0.203235;0.0617259;7.12;8.135;8.565;7.7525;8.355;7.115;5.26726;2.46665;1.10346;4.066925;5.28922;2.28226;91.2505548962;95.0998058446;51.8336578666;93.2565733574;103.572632214;82.8506371599;2.28566039723;2.07757668639;0.567585544658;2.18161863876;2.68303864363;1.68019853448;65.3625;68.8766;83.2541;79.7236;117.984;214.043;181.677;181.504;101.519;95.1672;84.0266;50.0781;34.9369;23.093;32.5474;20.1961;15.8708;14.9884;16.2009;15.8686;12.5857;9.72572;6.74294;5.45257;4.2613;2.58565;1.74556;1.20343;0.869617;0.727142;0.573361;0.399687;0.312858;0.265033;0.230794;0.203087;47.5786;49.5311;55.1529;66.1871;108.083;193.502;165.795;164.666;78.3868;81.0489;42.3857;22.2198;17.1873;10.6911;10.3343;7.77458;7.08938;7.1329;6.16231;5.92126;4.03021;2.86341;3.02526;2.19336;1.43467;0.768274;0.528216;0.57779;0.426089;0.296174;0.205093;0.143017;0.11511;0.101109;0.088329;0.079213;22.1839;26.0491;37.7752;75.8966;73.7617;100.457;70.9284;51.8475;25.5349;14.9291;14.199;9.56422;9.04263;5.69783;5.23069;4.76257;3.64917;3.10567;3.52281;2.41158;2.5524;1.88674;1.31247;1.07389;0.770503;0.516628;0.473302;0.303444;0.231053;0.171138;0.14263;0.087147;0.070077;0.050593;0.04181;0.039214;55.5555;58.2521;66.65605;73.30575;110.746;196.049;183.8425;174.255;95.98105;89.19555;60.78585;36.3152;24.8372;19.66555;23.5083;15.94755;13.4386;11.4465;11.55745;11.30175;9.69149;7.20057;5.332625;4.322635;3.21517;1.850715;1.260785;0.884853;0.6331015;0.5198035;0.405535;0.2941315;0.2250745;0.189968;0.1642815;0.143807;65.3624;68.8765;83.4832;83.571;128.942;214.457;227.136;197.006;119.766;99.5543;84.5375;50.3317;35.0897;23.2112;32.5467;20.2005;16.3158;15.5562;16.214;15.8595;12.7154;9.92435;6.91324;5.70551;4.27238;2.60755;1.77417;1.24584;0.891606;0.73184;0.568634;0.400681;0.31656;0.26725;0.2311;0.202274;45.7433;47.3271;52.5448;62.2653;105.179;152.207;125.307;95.6762;66.034;76.8052;31.445;20.9878;15.231;10.6907;9.95045;6.77823;5.94965;6.35589;5.98964;5.52631;2.64724;1.96796;1.65839;1.39996;1.15524;0.578248;0.489059;0.39155;0.325175;0.263637;0.195841;0.143479;0.115147;0.097493;0.085027;0.076368
