********************************************************************************
                       INSTITUTO DE INGENIERIA, UNAM
                  Coordinacion de Instrumentacion Sismica
  Ciudad Universitaria, Apartado Postal 70-472, Coyoacan 04510, Mexico, D.F.
 Tel.(52-5)622-3414    Fax.(52-5)616-1514    e-mail: isismica@pumas.iingen.unam.mx
**************************************************************************************
ARCHIVO ESTANDAR DE ACELERACION:
VERSION DEL FORMATO                    : 2.0
NOMBRE DEL ARCHIVO                     : ACAC8903.101
FECHA Y HORA DE CREACION               : Mon Mar 23 16:21:00 1998
REF. CATALOGO ACELEROGRAMAS, SMIS 1995 : REGISTRO No. 1319 /PAG. 142


================================================================================
DATOS DE LA ESTACION:
NOMBRE DE LA ESTACION                  : ACAPULCO CENTRO CULTURAL
CLAVE DE LA ESTACION                   : ACAC
LOCALIZACION DE LA ESTACION            : AV. COSTERA MIGUEL ALEMAN CERCA DE LA
                                       : PLAYA DE ICACOS, EN EL CENTRO
                                       : GUERRERENSE. ACAPULCO, GUERRERO.
                                       :
                                       :
COORDENADAS DE LA ESTACION             : 16.84851 LAT. N
                                       : 99.85157 LONG. W
ALTITUD (msnm)                         : 5   
TIPO DE SUELO                          : ARENA - LIMO - ARCILLA
                                       : 
                                       : 
INSTITUCION RESPONSABLE                : INSTITUTO DE INGENIERIA UNAM
                                       :

================================================================================
DATOS DEL ACELEROGRAFO: 
MODELO DEL ACELEROGRAFO                : DCA-333
NUMERO DE SERIE DEL ACELEROGRAFO       : 123
NUMERO DE CANALES                      : 3
ORIENTACION C1-C6 (rumbo;orientacion)  : /V/N90E/N00E
ORIENTACION C7-C12 (rumbo;orientacion) :
VEL. DE MUESTREO, C1-C6 (muestras/s)   : /100/100/100
VEL. DE MUESTREO, C7-C12 (muestras/s)  :
ESC. COMPLETA DE SENSORES, C1-C6, (g)  : /2/2/2
ESC. COMPLETA DE SENSORES, C7-C12 (g)  :
FREC. NAT. DE SENSORES, C1-C6, (Hz)    : /32.0/31.0/30.0
FREC. NAT. DE SENSORES, C7-C12 (Hz)    :
AMORTIGUAMIENTO DE SENSORES, C1-C6     : /0.66/0.66/0.68
AMORTIGUAMIENTO DE SENSORES, C7-C12    :
INTERVALO DE MUESTREO, C1-C6 (s)       : /0.01/0.01/0.01
INTERVALO DE MUESTREO, C7-C12 (s)      :
UMBRAL DE DISPARO, C1-C6 (Gal)         : /6/6/6
UMBRAL DE DISPARO, C7-C12 (Gal)        :
MEMORIA DE PREEVENTO (s)               : 4
TIEMPO DE POSEVENTO (s)                : 15


================================================================================
DATOS DEL SISMO:
FECHA DEL SISMO [GMT]                  : 1989/03/10
HORA EPICENTRO (GMT)                   : 05:19:51.0
MAGNITUD(ES)                           : /Mb=5.30/Ms=4.80/Mc=5.00
COORDENADAS DEL EPICENTRO              : 17.446 LAT. N 
                                       : 101.089 LONG. W
PROFUNDIDAD FOCAL (km)                 : 18 
FUENTES DE LOS DATOS EPICENTRALES      : INSTITUTO DE INGENIERIA UNAM
                                       : 

================================================================================
DATOS DE ESTE REGISTRO:
HORA DE LA PRIMERA MUESTRA (GMT)       : 05:20:30.00
EXACTITUD DEL TIEMPO (s)               : 1.00
DURACION DEL REGISTRO (s), C1-C6       : /24.55/24.55/24.55                      
DURACION DEL REGISTRO (s), C7-C12      : 
NUM. TOTAL DE MUESTRAS, C1-C6          : /2455/2455/2455                       
NUM. TOTAL DE MUESTRAS, C7-C12         : 
ACEL. MAX.(Gal), C1-C6                 : /-5.28/11.90/7.98                     
ACEL. MAX., C1-C6, EN LA MUESTRA       : /644/887/1189                         
ACEL. MAX.(Gal), C7-C12                : 
ACEL. MAX., C7-C12,EN LA MUESTRA       : 
UNIDADES DE LOS DATOS                  : Gal (cm/s/s)
FACTOR DE DECIMACION                   : 1
FORMATO DATOS (FORTRAN,10 campos/dato) : 3F10.2


================================================================================
CALIDAD DEL ACELEROGRAMA:
REGISTRO INCOMPLETO EN SU PARTE INTENSA, O CON MUCHOS GLITCHES, O
PELICULA ATORADA, O DUDOSO POR ALGUNA FALLA DEL APARATO. EN GENERAL UN
ACELEROGRAMA NO CONFIABLE QUE SOLO PERMITE TENER UNA IDEA APROXIMADA
===============================================================================
COMENTARIOS:
El canal 1 presenta transitorios en la se~al.













===============================================================================
DATOS DE ACELERACION:
---------+---------+---------+---------+---------+---------+---------+---------+
   CANAL-1   CANAL-2   CANAL-3
         V      N90E      N00E
---------+---------+---------+---------+---------+---------+---------+---------+
[...]
      2.37      4.25     -1.59
      2.37      4.25     -3.51
      2.37      5.20     -0.64
      2.37      7.12     -0.64
      2.37      6.16      0.32
      2.37      4.25      3.19
      2.37      4.25      3.19
      2.37      2.33      7.02
      2.37      2.33      7.02
     -1.45      0.42      7.02
     -1.45     -1.50      7.02
     -1.45     -2.45      7.02
     -1.45     -3.41      7.02
     -3.37     -4.37      7.02
     -2.41     -3.41      5.11
     -4.33     -3.41      3.19
     -2.41     -5.33      2.23
     -1.45     -5.33      2.23
      2.37     -8.20      0.32
      2.37     -8.20     -0.64
      2.37     -5.33     -0.64
      2.37     -3.41     -0.64
      2.37     -3.41     -1.59
      2.37     -0.54     -0.64
      2.37     -0.54     -0.64
      2.37      2.33     -0.64
      2.37      2.33     -0.64
      2.37      3.29     -1.59
      2.37      2.33     -1.59
      2.37      2.33     -1.59
      2.37      3.29     -2.55
     -1.45      2.33     -2.55
     -2.41      2.33     -1.59
     -1.45      2.33     -1.59
     -2.41      2.33     -0.64
      2.37     -0.54     -0.64
      0.46     -1.50      0.32
     -1.45     -3.41      2.23
     -1.45     -3.41      2.23
     -3.37     -3.41      3.19
     -4.33     -2.45      2.23
     -4.33     -0.54      2.23
     -4.33     -0.54      3.19
     -4.33      0.42      3.19
     -2.41      2.33      3.19
     -2.41      1.37      2.23
     -2.41      2.33      0.32
      2.37      3.29      0.32
      2.37      3.29      0.32
      2.37      4.25     -1.59
      2.37      5.20     -0.64
      0.46      5.20     -0.64
      2.37      7.12     -0.64
      2.37      8.07      0.32
      2.37      6.16      0.32
      2.37      4.25      0.32
      2.37      3.29     -0.64
      2.37      1.37     -0.64
      2.37      0.42     -0.64
      0.46     -1.50      1.28
     -2.41     -2.45      2.23
     -1.45     -3.41      2.23
     -1.45     -4.37      2.23
     -0.50     -3.41      1.28
      2.37     -3.41      0.32
      2.37     -4.37      0.32
      2.37     -6.28      0.32
      2.37     -5.33      0.32
      2.37     -3.41     -0.64
      2.37     -3.41     -0.64
      2.37     -2.45      0.32
      2.37     -2.45      0.32
      2.37     -1.50     -0.64
      2.37     -0.54     -0.64
      2.37      0.42     -0.64
      2.37      2.33     -0.64
      2.37      2.33     -0.64
     -1.45      1.37     -1.59
     -2.41      2.33     -2.55
     -2.41      1.37     -1.59
     -1.45      2.33     -2.55
     -2.41      2.33     -1.59
     -1.45      1.37     -0.64
     -2.41      2.33     -1.59
     -4.33      2.33      0.32
     -5.28      0.42     -0.64
     -4.33      0.42     -0.64
     -4.33      0.42      0.32
     -3.37     -0.54     -0.64
     -2.41     -0.54     -1.59
     -2.41     -0.54     -0.64
     -2.41     -0.54     -0.64
     -1.45     -0.54     -0.64
     -1.45     -0.54     -0.64
      0.46     -1.50     -0.64
      2.37     -0.54      0.32
      2.37     -0.54      0.32
      2.37     -0.54      2.23
     -1.45      0.42      0.32
      2.37      0.42      1.28
      2.37      0.42      2.23
      2.37      0.42      3.19
      2.37     -0.54      3.19
      2.37      0.42      2.23
      2.37      0.42      1.28
      2.37      0.42      1.28
      2.37      0.42      3.19
      2.37     -0.54      3.19
     -1.45     -0.54      3.19
     -1.45     -0.54      3.19
     -1.45     -0.54      3.19
      2.37     -0.54      3.19
      2.37     -0.54      1.28
      2.37     -0.54      2.23
      2.37     -0.54      0.32
      2.37     -1.50      0.32
     -1.45     -1.50     -0.64
     -1.45     -1.50     -0.64
     -1.45     -0.54      0.32
     -2.41     -0.54      1.28
     -1.45     -0.54      0.32
      2.37     -1.50      0.32
      2.37     -0.54     -1.59
      2.37      0.42     -1.59
     -1.45     -0.54     -1.59
     -2.41     -0.54     -0.64
     -2.41     -0.54     -0.64
     -3.37      0.42     -1.59
     -2.41      0.42     -0.64
     -0.50      1.37     -0.64
      2.37      0.42     -0.64
      2.37      0.42     -0.64
      2.37      0.42     -0.64
      2.37      1.37     -0.64
     -1.45      0.42     -1.59
     -2.41      0.42     -0.64
     -1.45      0.42     -0.64
     -1.45      1.37     -0.64
     -2.41      2.33      0.32
     -1.45      2.33      0.32
     -1.45      1.37     -0.64
     -1.45      2.33     -0.64
     -1.45      0.42     -0.64
      2.37     -0.54     -0.64
      2.37     -1.50     -0.64
      2.37     -1.50     -0.64
      2.37     -1.50      0.32
     -1.45     -0.54     -0.64
     -1.45     -2.45     -0.64
     -2.41     -2.45     -0.64
     -1.45     -2.45     -0.64
      0.46     -3.41     -0.64
     -2.41     -2.45     -0.64
     -2.41     -2.45     -1.59
     -4.33     -0.54     -0.64
     -2.41     -0.54     -0.64
     -1.45      2.33      2.23
     -1.45      3.29      3.19
      2.37      2.33      3.19
      2.37      3.29      3.19
      0.46      3.29      3.19
     -1.45      3.29      3.19
     -1.45      4.25      2.23
     -2.41      3.29      3.19
     -2.41      3.29      2.23
     -1.45      2.33      2.23
      2.37      2.33      2.23
      2.37      2.33      2.23
      2.37      2.33      3.19
      2.37      1.37      1.28
      2.37     -0.54      1.28
      2.37     -0.54      1.28
      2.37     -0.54      0.32
      2.37     -1.50      0.32
      2.37     -0.54     -0.64
      2.37     -1.50     -0.64
      2.37     -0.54     -0.64
      2.37     -0.54     -0.64
      2.37     -1.50      0.32
      2.37     -1.50      0.32
      2.37     -1.50      0.32
      2.37     -1.50     -0.64
      2.37     -2.45      0.32
      2.37     -1.50     -0.64
      2.37     -1.50     -0.64
      2.37     -0.54     -1.59
     -1.45     -0.54     -0.64
     -1.45     -0.54     -0.64
      2.37     -2.45     -0.64
      2.37     -2.45     -0.64
      2.37     -3.41     -1.59
      2.37     -3.41     -0.64
      2.37     -3.41     -1.59
      2.37     -2.45     -1.59
     -1.45     -2.45     -1.59
     -2.41     -2.45     -0.64
     -1.45     -2.45     -0.64
     -2.41     -2.45      0.32
     -1.45     -1.50      0.32
     -1.45     -0.54      0.32
     -1.45      0.42      2.23
     -1.45      0.42      1.28
     -2.41      0.42      2.23
     -2.41      0.42      1.28
     -2.41      2.33      2.23
     -1.45      3.29      2.23
     -2.41      2.33      1.28
      2.37      4.25      1.28
      2.37      3.29      0.32
      2.37      4.25      0.32
      2.37      4.25     -0.64
      2.37      3.29     -0.64
      2.37      4.25     -2.55
      2.37      2.33     -1.59
      2.37      4.25     -0.64
      2.37      2.33     -1.59
      0.46      3.29     -1.59
     -1.45      4.25     -1.59
      2.37      4.25     -1.59
      2.37      3.29     -0.64
      2.37      2.33     -1.59
      2.37      0.42     -0.64
      2.37      0.42     -1.59
      2.37     -0.54     -0.64
      2.37     -0.54      0.32
      2.37     -1.50      0.32
     -1.45     -1.50      1.28
     -1.45     -0.54      2.23
      2.37     -2.45      0.32
      2.37     -1.50      0.32
      2.37     -0.54      0.32
      2.37     -0.54     -0.64
      2.37     -2.45     -0.64
      2.37     -3.41     -0.64
      2.37     -3.41     -0.64
      2.37     -2.45     -0.64
      2.37     -2.45     -0.64
      2.37     -1.50     -0.64
      2.37     -1.50     -0.64
     -1.45     -2.45     -0.64
     -1.45     -0.54     -0.64
     -1.45     -0.54      0.32
     -1.45     -1.50      0.32
     -1.45     -2.45      0.32
     -1.45     -2.45      2.23
     -1.45     -2.45      2.23
     -2.41     -2.45      1.28
     -3.37     -3.41      2.23
     -3.37     -2.45      3.19
     -2.41     -3.41      3.19
     -1.45     -3.41      3.19
     -1.45     -3.41      3.19
     -1.45     -3.41      2.23
     -1.45     -2.45      2.23
     -1.45     -3.41      3.19
     -1.45     -2.45      3.19
     -1.45     -1.50      3.19
     -1.45     -0.54      2.23
     -1.45      0.42      1.28
     -1.45      2.33     -0.64
     -1.45      3.29     -0.64
     -1.45      3.29     -0.64
     -1.45      4.25     -0.64
     -2.41      3.29     -0.64
     -1.45      4.25     -1.59
     -0.50      4.25     -1.59
      2.37      3.29     -2.55
      2.37      4.25     -2.55
      2.37      3.29     -2.55
      2.37      2.33     -3.51
      2.37      3.29     -2.55
      2.37      4.25     -3.51
      2.37      2.33     -0.64
      2.37      3.29     -2.55
      2.37      3.29     -0.64
      2.37      3.29     -0.64
      2.37      3.29     -0.64
      2.37      3.29     -0.64
      2.37      2.33     -1.59
      2.37      3.29     -0.64
      2.37      4.25     -0.64
     -1.45      4.25     -0.64
     -1.45      4.25     -1.59
     -1.45      4.25     -0.64
      0.46      2.33     -1.59
      2.37      3.29     -0.64
     -1.45      3.29     -0.64
      2.37      3.29     -0.64
      2.37      2.33     -1.59
     -1.45      3.29     -0.64
     -1.45      2.33      0.32
     -1.45     -0.54      0.32
      2.37     -2.45      1.28
      2.37     -3.41      1.28
      2.37     -4.37      2.23
      2.37     -6.28      3.19
      0.46     -7.24      2.23
     -1.45     -7.24      3.19
      0.46     -9.15      7.02
     -1.45     -9.15      7.02
     -2.41    -10.11      7.02
     -1.45    -10.11      7.02
     -2.41     -8.20      7.02
     -1.45     -7.24      7.02
     -1.45     -8.20      7.02
     -1.45     -5.33      7.02
     -1.45     -5.33      7.02
     -1.45     -3.41      7.02
     -1.45     -3.41      4.15
     -1.45     -2.45      3.19
     -1.45     -2.45      2.23
      2.37      0.42      3.19
      2.37      0.42      0.32
      2.37      0.42     -0.64
      0.46      1.37     -0.64
     -1.45      3.29     -1.59
     -0.50      4.25     -1.59
     -1.45      4.25     -2.55
      0.46      4.25     -2.55
      2.37      5.20     -4.47
      2.37      5.20     -4.47
      2.37      6.16     -4.47
      2.37      6.16     -5.42
      2.37      6.16     -5.42
      2.37      6.16     -5.42
     -1.45      7.12     -5.42
     -1.45      8.07     -5.42
     -1.45      8.07     -5.42
      2.37     11.90     -4.47
      2.37     11.90     -4.47
      2.37     11.90     -3.51
      2.37      9.03     -2.55
      2.37      8.07     -0.64
     -1.45      8.07     -0.64
     -1.45      7.12     -0.64
     -1.45      5.20     -0.64
     -1.45      4.25      1.28
     -1.45      2.33      1.28
     -1.45      2.33      2.23
     -1.45     -0.54      2.23
     -1.45     -1.50      3.19
     -1.45     -2.45      3.19
     -1.45     -3.41      2.23
     -1.45     -3.41      2.23
     -2.41     -6.28      5.11
      0.46     -7.24      4.15
      2.37     -7.24      5.11
      2.37     -8.20      5.11
      2.37     -9.15      5.11
      2.37     -9.15      7.02
      2.37     -9.15      7.02
      2.37     -7.24      7.02
      2.37     -7.24      7.02
      2.37     -8.20      7.02
      2.37     -7.24      5.11
      2.37     -5.33      4.15
      2.37     -6.28      3.19
      2.37     -3.41      3.19
      0.46     -3.41      3.19
     -1.45     -3.41      1.28
     -2.41     -2.45      3.19
     -2.41     -2.45      1.28
     -3.37     -2.45      1.28
     -2.41     -2.45      1.28
     -3.37     -1.50      0.32
     -1.45     -0.54     -0.64
     -1.45     -0.54     -0.64
     -2.41      0.42     -1.59
     -1.45      1.37     -2.55
     -1.45      2.33     -1.59
      2.37      3.29     -2.55
      2.37      3.29     -2.55
     -0.50      4.25     -2.55
      2.37      4.25     -3.51
      2.37      4.25     -2.55
      2.37      4.25     -4.47
      2.37      5.20     -4.47
      2.37      5.20     -4.47
      2.37      6.16     -4.47
      2.37      7.12     -2.55
      2.37      6.16     -2.55
      2.37      6.16     -1.59
      2.37      5.20     -1.59
      2.37      5.20     -0.64
      2.37      5.20     -0.64
     -1.45      4.25     -0.64
     -1.45      4.25     -0.64
     -2.41      4.25     -0.64
     -1.45      4.25      0.32
     -2.41      3.29      3.19
     -2.41      4.25      2.23
     -1.45      2.33      1.28
     -1.45      2.33      3.19
      2.37      2.33      1.28
     -1.45      1.37      1.28
     -1.45      0.42      2.23
     -2.41      0.42      0.32
     -2.41     -0.54      0.32
     -1.45     -2.45      0.32
     -1.45     -3.41      0.32
      2.37     -4.37      0.32
      0.46     -6.28      0.32
     -2.41     -5.33      0.32
     -1.45     -7.24      0.32
     -1.45     -6.28      0.32
      2.37     -7.24      0.32
      2.37     -7.24      0.32
      2.37     -6.28      0.32
      2.37     -6.28      1.28
      2.37     -7.24      1.28
      2.37     -5.33      2.23
      2.37     -6.28      3.19
      2.37     -5.33      5.11
      2.37     -3.41      7.02
      0.46     -3.41      7.02
     -1.45     -1.50      7.02
     -1.45     -0.54      4.15
     -1.45     -0.54      3.19
     -2.41      0.42      2.23
     -2.41      1.37      3.19
     -2.41      2.33      2.23
     -1.45      1.37      2.23
     -2.41      2.33      0.32
     -2.41      3.29     -0.64
     -2.41      3.29     -1.59
     -1.45      4.25     -0.64
      0.46      2.33     -2.55
     -1.45      2.33     -0.64
     -1.45      4.25     -2.55
     -1.45      3.29     -1.59
      0.46      3.29     -2.55
      2.37      3.29     -2.55
      2.37      3.29     -2.55
      2.37      2.33     -2.55
      2.37      2.33     -3.51
      2.37      2.33     -2.55
      2.37      2.33     -1.59
      2.37      2.33     -1.59
      2.37      1.37     -0.64
      2.37      4.25      0.32
     -1.45      4.25      0.32
     -1.45      2.33      0.32
     -1.45      2.33      0.32
     -1.45      2.33      0.32
     -2.41      2.33      1.28
     -1.45      1.37      3.19
     -1.45      0.42      2.23
     -1.45      0.42      2.23
      2.37     -0.54      1.28
      2.37     -0.54      2.23
      2.37     -1.50      1.28
      2.37     -2.45      1.28
      0.46     -2.45      0.32
     -2.41     -3.41      1.28
     -1.45     -3.41      1.28
     -1.45     -3.41      0.32
      2.37     -3.41     -0.64
      2.37     -2.45     -1.59
      2.37     -2.45     -2.55
      2.37     -3.41     -1.59
      2.37     -3.41     -3.51
      0.46     -3.41     -1.59
     -1.45     -3.41     -2.55
     -1.45     -3.41     -1.59
     -1.45     -3.41     -0.64
     -1.45     -2.45      0.32
     -1.45     -1.50      0.32
      2.37     -0.54      1.28
      2.37      0.42      3.19
      2.37      0.42      2.23
