********************************************************************************
     CENTRO DE INVESTIGACION CIENTIFICA Y DE EDUCACION SUPERIOR DE ENSENADA     
                   GRUPO DE SISMOLOGIA DE MOVIMIENTOS FUERTES
CARR. ENSENADA-TIJUANA No. 3918 ZONA PLAYITAS, ENSENADA B. C. MEXICO, C.P. 22860
    APDO. POSTAL No. 360, TEL.: 01 (646) 175-05-00,  FAX: 01 (646) 175-05-59
********************************************************************************
ARCHIVO ESTANDAR DE ACELERACION:
VERSION DEL FORMATO                    : 2.0
NOMBRE DEL ARCHIVO                     : RAC_04042010224522.Dat
FECHA Y HORA DE CREACION               : 29 DE MARZO DE 2011
REF. CATALOGO ACELEROGRAMAS, SMIS 1995 : Reg. Num. 


================================================================================
DATOS DE LA ESTACION:
NOMBRE DE LA ESTACION                  : RANCHO AGUA CALIENTE
CLAVE DE LA ESTACION                   : RAC
LOCALIZACION DE LA ESTACION            : Region norte de B.C.
                                       :
                                       :
                                       :
                                       :
COORDENADAS DE LA ESTACION             : 32.020 Lat. N
                                       : 116.301 Long. O
ALTITUD (msnm)                         : 714 
TIPO DE SUELO                          : Rocas graniticas no diferenciadas
                                       :
                                       :
INSTITUCION RESPONSABLE                : Departamento de Sismologia, CICESE
                                       :

================================================================================
DATOS DEL ACELEROGRAFO:
MODELO DEL ACELEROGRAFO                : GMS-18
NUMERO DE SERIE DEL ACELEROGRAFO       : 100200
NUMERO DE CANALES                      : 3
ORIENTACION C1-C6 (rumbo;orientacion)  : /N90E;/N00E;/V;+
ORIENTACION C7-C12 (rumbo;orientacion) :
VEL. DE MUESTREO, C1-C6 (muestras/s)   : /200/200/200
VEL. DE MUESTREO, C7-C12 (muestras/s)  :
ESC. COMPLETA DE SENSORES, C1-C6, (g)  : /2.00/2.00/2.00
ESC. COMPLETA DE SENSORES, C7-C12, (g) :
FREC. NAT. DE SENSORES, C1-C6, (Hz)    : /400.0/400.0/400.0
FREC. NAT. DE SENSORES, C7-C12, (Hz)   :
AMORTIGUAMIENTO DE SENSORES, C1-C6     : /0.70/0.70/0.70
AMORTIGUAMIENTO DE SENSORES, C7-C12    :
INTERVALO DE MUESTREO, C1-C6, (s)      : /0.005/0.005/0.005
INTERVALO DE MUESTREO, C7-C12, (s)     :
UMBRAL DE DISPARO, C1-C6, (Gal)        : /6/6/6
UMBRAL DE DISPARO, C7-C12, (Gal)       :
MEMORIA DE PREEVENTO (s)               : 30.00
TIEMPO DE POSEVENTO (s)                : 90.00


================================================================================
DATOS DEL SISMO:
FECHA DEL SISMO (GMT)                  : 04 de ABRIL del 2010
HORA EPICENTRO (GMT)                   : 22:40:40.95
MAGNITUD(ES)                           : /Mw=7.2
COORDENADAS DEL EPICENTRO              : 32.320 LAT. N
                                       : 115.330 LONG. O
PROFUNDIDAD FOCAL (km)                 : 7.2
FUENTE DE LOS DATOS EPICENTRALES       : Departamento de Sismologia, CICESE
                                       : Sismologia de Mov. Fuertes

================================================================================
DATOS DE ESTE REGISTRO:
HORA DE LA PRIMERA MUESTRA (GMT)       : 22:45:22.147
EXACTITUD DEL TIEMPO (s)               : 0.001
DURACION DEL REGISTRO (s), C1-C6       : /89.40/89.40/89.40
DURACION DEL REGISTRO (s), C7-C12      :
NUM. TOTAL DE MUESTRAS, C1-C6          : /17880/17880/17880
NUM. TOTAL DE MUESTRAS, C7-C12         :
ACEL. MAX. (Gal), C1-C6                : /-72.8008/-64.4431/-59.2262
ACEL. MAX., C1-C6, EN LA MUESTRA       : /5633/5894/5619
ACEL. MAX. (Gal), C7-C12               :
ACEL. MAX., C7-C12, EN LA MUESTRA      :
UNIDADES DE LOS DATOS                  : Gal (cm/s/s)
FACTOR DE DECIMACION                   : 1
FORMATO DATOS (FORTRAN,10 campos/dato) : 3F10.4


================================================================================
CALIDAD DEL ACELEROGRAMA:
Registro digital completo. Tiempo absoluto correcto.


================================================================================
COMENTARIOS:

No obstante el tiempo de este registro, la forma,los valores maximos de amplitud 
y la longitud del mismo, dan indicios de que este registro pertenece al sismo
del 04/04/2010 a las 22:40:40. Por lo que se incluye en el archivo 
Si040410_224040.Zip junto con el resto de registros pertenecientes a dicho sismo









================================================================================
DATOS DE ACELERACION:
---------+---------+---------+---------+---------+---------+---------+---------+
   CANAL-1   CANAL-2   CANAL-3   CANAL-4   CANAL-5   CANAL-6   CANAL-7   CANAL-8
     N90E;     N00E;       V;+
---------+---------+---------+---------+---------+---------+---------+---------+
[...]
   -0.8007    6.7750    2.0501
    3.3040   10.0601    3.0101
    6.7355   12.1355    2.1908
    8.4160   12.7793   -0.9869
    8.1769   12.3258   -5.5739
    7.0998   11.4553   -9.6446
    6.4245   10.4379  -11.7324
    6.5546    9.1717  -10.7921
    7.4871    7.0299   -6.7435
    8.5689    3.4143   -1.2901
    8.2857   -1.3163    2.8107
    4.6880   -7.1884    3.7215
   -3.2746  -15.2701    2.1544
  -14.6128  -25.7725    0.2837
  -26.1266  -36.6478   -0.2078
  -34.3358  -44.4933    0.6113
  -37.4947  -47.2820    1.5397
  -34.6626  -44.6127    2.0176
  -27.0679  -38.0352    1.9026
  -17.8606  -31.2539    1.1713
   -9.2999  -26.3491   -0.0115
   -2.4851  -22.7737   -1.6393
    3.1820  -19.1924   -3.7034
    8.4640  -14.4402   -5.5802
   13.6194   -8.2627   -6.2092
   18.5813   -1.7857   -5.1598
   21.6237    3.2352   -2.7774
   21.0798    6.1574   -0.0419
   16.8295    7.2005    2.1054
   10.6087    7.0419    3.1999
    4.9663    7.0575    2.8149
    0.9958    8.2101    1.0233
   -1.5427   10.4441   -1.2683
   -2.8875   13.1217   -2.8511
   -2.7540   15.6776   -2.9508
   -1.1883   18.1252   -1.5559
    0.8564   20.7784    0.6941
    1.8055   23.6957    3.0519
    0.4830   26.5683    5.1472
   -2.9329   28.8965    6.8355
   -7.2279   30.3498    8.0370
  -10.8332   31.1268    8.6629
  -12.6847   31.6891    8.8226
  -12.3602   31.8182    9.1575
   -9.7467   30.6520   10.3299
   -5.1915   27.7711   12.2544
    0.3301   23.4543   13.9688
    5.4346   18.0538   14.2129
    8.9150   11.5952   12.7775
   10.1824    3.9925   10.8974
    9.4749   -4.2704    9.9080
    7.3817  -12.0234   10.2624
    4.3154  -18.4057   11.6206
    0.8179  -23.5736   12.9532
   -2.3322  -28.1147   12.7697
   -4.7037  -31.9829   10.0806
   -6.4618  -34.8165    5.2698
   -7.8533  -36.5736    0.1033
   -8.5597  -37.3163   -3.7984
   -7.5413  -36.5765   -6.3769
   -4.2071  -32.9736   -8.4912
    0.3712  -25.8327  -10.5722
    4.3097  -16.1391  -12.2114
    6.1067   -5.7769  -13.0172
    4.7913    3.2869  -13.0663
    0.4768   10.1551  -12.5741
   -5.5101   14.9512  -11.4323
  -10.7566   18.2026   -9.3606
  -12.1491   20.8478   -6.7274
   -8.4094   23.6819   -4.3483
   -1.6208   26.4824   -2.7896
    4.6293   28.0104   -1.9900
    7.7594   26.7425   -1.4417
    7.3010   22.0285   -0.5442
    4.6181   15.5680    1.6077
    1.3478   10.1892    5.8479
   -1.0108    7.2592   11.7603
   -1.1639    6.6961   17.9692
    0.9171    7.3856   23.1152
    4.7565    7.9207   25.8720
    9.5448    7.8742   25.4450
   13.7279    7.0479   21.9950
   16.2695    4.9512   15.9946
   17.2337    2.1264    8.1211
   16.7508   -0.3269   -0.1190
   14.9712   -1.9793   -7.5527
   12.2780   -2.6292  -13.9609
    8.5004   -2.6567  -19.2303
    3.7549   -2.9916  -23.3848
   -1.0892   -3.8231  -25.8257
   -4.8444   -4.2382  -25.3921
   -6.4584   -2.6541  -21.6299
   -6.0054    2.4940  -15.5934
   -4.8312   11.0947   -9.3474
   -4.4735   20.1281   -4.4625
   -5.6736   25.2261   -1.6592
   -8.5076   23.6222   -0.5035
  -12.3005   16.8015    0.1871
  -16.1022    9.2777    1.3813
  -19.0535    3.8713    3.5099
  -19.8406    0.4283    5.9409
  -17.7902   -2.3412    7.6180
  -13.9140   -5.1443    8.3109
   -9.6587   -7.8671    8.5733
   -5.8128  -10.5748    9.1845
   -2.1492  -13.8062   10.0972
    2.2079  -17.7964    9.9983
    7.4123  -21.7269    7.9941
   12.9106  -24.4814    4.5927
   17.7552  -25.8758    1.2123
   21.3838  -26.6172   -1.3062
   23.7652  -27.2709   -3.2260
   24.3774  -27.9296   -5.5314
   22.4952  -27.6424   -8.9748
   17.8007  -25.0149  -12.3446
   11.4381  -20.1675  -14.6097
    4.9816  -14.0518  -16.0145
   -0.5435   -8.0441  -17.1386
   -4.5781   -3.5614  -18.3120
   -6.9725   -0.8968  -18.6165
   -7.0732    0.3450  -16.4197
   -4.5054    0.7113  -10.5058
    0.4067    0.3019   -2.3241
    5.7542   -0.7420    5.3162
    9.0668   -1.8999   10.7369
    9.6839   -3.2745   13.4699
    8.2787   -5.1913   14.4257
    5.9985   -7.3603   14.7474
    3.5922   -8.7708   14.6467
    1.3369   -8.0444   13.1194
   -1.2696   -4.7380    9.8288
   -4.8701   -0.5995    5.6826
   -9.2508    1.8959    1.4714
  -13.8389    2.0766   -2.0536
  -17.6332    1.1814   -4.4503
  -19.4400    1.1640   -5.2647
  -18.1965    3.4315   -4.4262
  -13.7572    8.0533   -2.8439
   -7.1285   13.6666   -1.5959
    0.0801   18.7140   -1.0616
    6.0777   21.8893   -0.5333
   10.3158   21.9607    0.3488
   13.0610   19.0471    1.3585
   15.0254   14.4271    1.6640
   17.2308   10.2468    0.4841
   19.9754    7.2750   -1.7823
   22.9124    4.4177   -4.5472
   24.5690    1.3481   -6.5516
   24.8206   -1.3970   -7.6441
   24.5311   -2.5035   -7.4803
   23.8229   -2.4622   -4.8312
   23.4942   -1.5531   -0.9214
   22.0541    1.6952    3.5724
   17.6127    5.1654    7.3329
   10.7385    7.4928    8.3210
    3.0960    9.9659    6.6714
   -3.7073   10.0194    3.1770
  -10.3591    5.6522   -0.5050
  -16.9493   -0.6364   -3.9830
  -21.5117   -5.1105   -7.8074
  -22.6099   -4.7663  -11.4305
  -20.3264   -0.9993  -14.3722
  -16.5893    1.7323  -16.7045
  -13.6058    1.5830  -19.1160
  -12.1743    0.0513  -21.4393
  -11.6969   -0.8176  -22.4751
  -10.5512   -0.3287  -21.7809
   -7.5169    1.2331  -19.8775
   -2.9934    3.5691  -17.5498
    1.6825    6.2534  -15.1097
    5.3733    8.0679  -12.2226
    7.7888    7.7444   -8.8323
    8.8407    5.2236   -5.2741
    8.9220    2.0781   -2.0149
    9.2094   -0.0001    0.3966
   10.4339   -0.7545    1.7510
   11.9420   -1.0344    2.0049
   11.4319   -1.7343    1.3621
    7.3285   -2.6255    0.1064
    0.6245   -2.6533   -1.6852
   -6.6718   -1.2241   -3.5482
  -12.9968    1.3112   -4.8543
  -17.6968    4.5286   -5.1238
  -20.7459    7.6673   -4.3153
  -22.2724    9.5051   -3.1136
  -22.7628    9.5469   -1.6946
  -22.5112    7.5512   -0.3885
  -21.5785    4.5143    0.2232
  -20.2054    1.9405    0.5988
  -17.6749    0.5423    0.6500
  -13.4137    0.8133    0.0171
   -8.1721    1.8016   -1.4394
   -3.1328    2.8216   -3.3716
    0.6596    4.0195   -4.6253
    2.6495    5.0219   -4.9740
    2.1404    5.6852   -4.4067
   -0.6862    6.1107   -2.9342
   -4.4740    6.5634   -0.9466
   -7.7391    7.1494    1.1422
  -10.0011    7.2491    3.1407
  -12.1260    6.3669    5.2991
  -14.5373    5.2547    7.7166
  -16.9018    4.7402   10.6767
  -18.0140    4.3993   13.9751
  -16.9213    3.3920   16.7101
  -13.8296    1.5991   18.1390
   -9.2760   -0.4689   18.1107
   -3.7260   -2.3062   17.2454
    2.6986   -3.6432   16.2077
    9.8119   -4.3065   14.9668
   17.0006   -4.1982   12.6588
   23.1814   -3.6253    8.5954
   27.6791   -3.1686    3.2131
   30.6346   -2.9282   -1.8298
   32.6922   -1.9638   -4.7902
   34.4784    1.2346   -5.1897
   35.9691    7.1909   -4.0915
   36.4480   14.3577   -3.1673
   34.4799   19.9067   -3.0588
   29.0309   21.4677   -3.3973
   20.3059   18.5891   -3.2364
    9.2216   12.6960   -1.7210
   -2.5679    5.7745    0.7886
  -12.7462   -0.4648    3.1820
  -19.7996   -5.2871    4.5317
  -23.6598   -8.6521    4.6869
  -25.2696  -10.9232    4.5683
  -26.1045  -13.4165    5.0218
  -26.8899  -16.9106    5.4899
  -27.5654  -20.5727    4.8682
  -27.6456  -23.1551    2.9527
  -26.3831  -24.2563    0.6928
  -23.6065  -24.3833   -0.6862
  -19.7243  -24.2426   -0.5022
  -15.7081  -24.7784    1.3995
  -12.2384  -26.3953    4.4118
   -8.5792  -27.7297    7.3054
   -3.4960  -26.3870    8.9342
    3.5013  -21.1589    8.6097
   11.7317  -13.2210    6.2503
   19.6914   -4.7554    2.3058
   25.9706    2.6638   -2.3485
   29.4858    8.3594   -6.4582
   29.8425   12.1490   -8.7482
   27.7820   14.1879   -8.4969
   24.4524   15.2807   -5.9371
   20.6395   16.4357   -2.2397
   16.3404   18.0876    1.2118
   11.1318   20.2148    3.6321
    5.2207   22.7266    5.0483
   -0.3410   25.2845    6.1086
   -4.2530   27.2830    7.4931
   -5.6991   28.3876    9.1935
   -4.7686   28.5868   10.0721
   -2.6827   27.5551    8.4165
   -1.2782   24.5888    3.7020
   -1.4383   19.6047   -2.6427
   -3.0422   13.5854   -8.3022
   -5.8678    7.6678  -11.3202
   -9.1018    2.7053  -10.9546
  -11.1782   -0.5382   -7.7965
  -10.4829   -1.8275   -3.3898
   -6.8447   -2.1128    0.4478
   -2.1323   -3.0689    2.9925
    1.3574   -5.7873    4.9769
    2.5682  -10.3918    7.2750
    2.6869  -16.1705    9.6385
    3.6721  -21.5953   10.9997
    6.2399  -24.8423   10.8647
    9.5819  -25.0557   10.0715
   11.6500  -23.1870   10.0313
   11.1840  -20.9299   11.1414
    8.7836  -19.3232   12.7222
    5.8264  -18.0675   14.3193
    3.5903  -15.4797   15.8757
    2.6846  -10.2217   16.9409
    2.6980   -3.1390   16.8952
    2.4268    2.9405   15.7365
    1.1759    5.0691   14.1822
   -0.4469    2.7736   13.2372
   -1.0357   -1.3986   12.9148
    0.4231   -4.1302   11.8130
    3.4919   -4.1253    8.3041
    6.7176   -2.9666    1.6892
    8.3534   -2.9859   -7.0893
    7.3106   -5.0874  -16.1985
    4.0353   -8.7248  -23.8280
    0.0469  -12.9773  -28.3888
   -2.4879  -16.7437  -29.2318
   -1.9807  -18.2845  -26.6658
    1.1292  -15.7619  -21.6498
    5.0104   -9.2451  -16.0500
    7.4450   -0.9874  -11.5424
    6.8555    6.8116   -8.1254
    3.5854   13.1165   -4.8719
   -0.7761   18.8038   -0.7862
   -4.7723   25.1827    4.3025
   -7.4699   31.8156    9.2372
   -8.6864   36.8876   13.2097
   -8.6522   38.1851   16.5073
   -7.5200   35.3904   19.5092
   -5.7357   30.0209   21.3436
   -4.0430   24.0994   20.4591
   -2.3919   19.2522   16.1979
    0.0163   15.2552    9.4827
    3.9940   11.5529    2.0636
    9.8833    8.6050   -5.4654
   17.1953    7.1691  -13.7018
   25.0355    6.7091  -23.1636
   32.1645    5.9448  -33.3420
   37.5426    4.3274  -43.2498
   40.4990    2.1391  -51.5739
   41.1343    0.2907  -57.1444
   40.0956   -0.2989  -59.2262
   37.8354    2.1947  -57.3848
   35.0638    8.0596  -53.4766
   30.5769   15.2916  -49.1250
   22.4999   21.4586  -44.6716
   10.6850   23.8297  -40.2463
   -4.2466   21.9534  -34.7477
  -21.0515   17.3594  -27.0806
  -37.7131   12.2990  -16.8470
  -51.1729    9.4145   -5.5965
  -59.7844    9.6730    4.1586
  -64.4790   10.6128   11.2330
  -67.7226    8.3573   16.3017
  -70.8418    1.4049   20.6154
  -72.8008   -8.4587   24.7118
  -72.3507  -18.1051   28.6078
  -67.6392  -25.7525   30.6769
  -58.0819  -29.9073   29.4723
  -45.0655  -31.0826   24.8769
  -30.4325  -31.9904   18.0019
  -16.2647  -33.5094   11.2637
   -2.6930  -35.0318    5.3695
   11.1375  -34.7579   -0.0543
   25.3364  -31.3622   -4.9368
   39.3889  -25.7278   -9.0610
   50.6963  -20.6272  -11.6320
   57.3057  -18.4231  -12.6849
   58.5410  -19.2599  -12.1758
   53.4264  -22.2275   -9.6633
   44.3109  -25.2050   -5.3688
   33.8867  -26.1375    1.2375
   22.8047  -24.0902    9.5817
   12.2759  -18.1996   18.0536
    3.0709   -8.0574   26.2625
   -3.9192    4.6740   33.7216
   -8.5050   16.1724   39.2158
  -12.0237   24.1674   41.6034
  -15.3125   30.1714   40.9962
  -18.4533   36.0812   38.6361
  -20.9193   42.7639   36.2954
  -22.0987   48.9333   34.6396
  -21.7576   51.2025   32.8078
  -19.9967   48.2412   30.3124
  -17.7770   41.3054   26.7744
  -16.0565   34.1453   22.5905
  -15.3784   29.2888   18.0985
  -16.0153   26.4325   13.3208
  -17.0041   24.3777    8.8592
  -16.9114   20.8901    4.9689
  -14.5887   15.4369    2.0280
   -9.9892    8.6484   -0.2314
   -4.4828    1.9712   -2.5264
    1.1043   -3.2805   -5.7294
    6.6423   -6.9898  -10.2999
   12.1121   -9.6755  -15.6920
   17.5180  -12.0305  -21.2212
   22.0069  -13.3379  -25.5513
   24.6609  -13.2049  -27.4163
   24.6939  -12.1063  -26.3582
   23.2486   -9.6976  -23.7724
   23.8917   -3.0497  -20.2357
   25.9681    5.4946  -13.3958
   28.2519    8.2366   -6.0591
   28.1210    9.0113    0.3574
   21.6839    9.1920    9.5004
   12.8613    1.9834   16.2739
    4.4125   -1.8145   18.1725
   -0.3166    2.9128   18.0154
   -1.4542    3.2329   15.5927
   -7.0893   -4.4690   12.5488
  -17.7819  -16.3384    8.9043
  -28.7526  -23.8334    5.4320
  -35.6115  -23.0437    3.0613
  -38.0368  -21.2456    0.5960
  -37.5980  -22.8594   -4.2099
  -35.5658  -26.5708  -12.3137
  -34.5853  -28.3468  -19.8139
  -32.9744  -26.3288  -23.5715
  -27.3909  -23.7522  -22.8007
  -17.6916  -23.7649  -18.3198
   -5.7245  -23.9142  -12.2288
    6.8479  -20.2845   -6.7365
   17.4390  -13.6863   -2.7748
   23.4828   -7.7949    0.7211
   24.1516   -5.8553    4.6085
   20.1434   -8.0278    8.9923
   14.9366  -11.2771   13.2676
   12.2985  -12.6540   16.4175
   13.1918  -11.2153   18.2472
   15.1568   -8.3292   20.0250
   15.3518   -6.6186   22.8571
   13.5090   -7.3878   26.7887
   11.0778  -10.4910   31.1263
   10.0453  -14.1486   34.4864
   11.4576  -15.2104   35.4073
   14.8798  -12.0954   32.9952
   19.3480   -5.5944   26.9704
   23.3322    2.0052   17.8843
   24.9356    8.6567    7.4352
   23.4605   13.5792   -2.8317
   19.3726   17.0437  -12.0250
   13.6583   19.6839  -19.7848
    7.3472   21.6681  -25.9713
    0.9672   23.7310  -30.2508
   -5.3592   26.2957  -32.4411
  -11.6265   28.4487  -32.5050
  -17.2668   28.9853  -30.2515
  -21.6540   25.8427  -25.3579
  -23.7756   18.6185  -18.1225
  -22.9139    9.6211   -9.4385
  -19.3183    1.5052   -0.9331
  -13.1992   -3.8659    6.8202
   -5.6134   -8.9912   14.4452
    3.8024  -16.4444   19.9835
   14.2926  -24.0486   22.6816
   22.7748  -31.4533   23.4420
   29.5816  -38.0619   20.1777
   35.8213  -37.8195   12.7365
   42.3976  -28.9678    3.3411
   48.1409  -17.7801   -6.0340
   48.9273   -9.5826  -13.7727
   43.7457   -4.7320  -20.1449
   34.9888    0.5726  -25.5336
   25.3234    7.8830  -29.9239
   14.5771   13.5576  -32.4427
    2.4888   16.2420  -32.1174
   -9.6504   18.4409  -28.6983
  -20.5839   22.5202  -22.5330
  -28.1225   28.6138  -15.6269
  -30.6963   33.6518  -10.2960
  -29.1508   33.7523   -7.9551
  -27.3205   27.9450   -7.4836
  -28.0360   18.2659   -6.1588
  -30.8263    6.6426   -2.6899
  -33.2345   -5.8439    1.9473
  -32.4315  -17.3190    5.7854
  -27.8283  -25.3773    8.0624
  -20.0600  -28.0685    8.5941
  -11.1787  -24.9762    7.5416
   -3.9711  -18.4488    5.2430
    0.1977  -12.0271    1.2616
    1.0111   -7.5514   -4.0656
   -0.4419   -4.4945   -9.2287
   -2.4939   -1.1496  -13.2216
   -4.2510    3.2064  -16.7336
   -6.0542    8.1473  -20.5231
   -8.2627   12.5794  -24.3119
  -10.5146   15.7903  -27.0407
  -12.2073   18.1182  -27.1440
  -12.3755   20.3337  -24.0227
  -10.4824   23.2788  -18.0472
   -6.8193   25.7962  -10.8113
   -2.1240   27.2030   -3.7141
    3.1230   26.9959    1.6788
    6.6831   23.8315    5.5896
