;event_id;event_time;ISC_ev_id;USGS_ev_id;INGV_ev_id;EMSC_ev_id;ev_nation_code;ev_latitude;ev_longitude;ev_depth_km;ev_hyp_ref;fm_type_code;ML;ML_ref;Mw;Mw_ref;Ms;Ms_ref;EMEC_Mw;EMEC_Mw_type;EMEC_Mw_ref;strike_1;dip_1;rake_1;strike_2;dip_2;rake_2;MT_Agency;MT_Identifier;event_source_id;es_strike;es_dip;es_rake;es_strike_dip_rake_ref;es_z_top;es_z_top_ref;es_length;es_width;es_geometry_ref;network_code;station_code;location_code;instrument_code;sensor_depth_m;proximity_code;housing_code;installation_code;st_nation_code;st_latitude;st_longitude;st_elevation;ec8_code;ec8_code_method;ec8_code_ref;vs30_m_sec;vs30_ref;vs30_calc_method;vs30_meas_type;slope_deg;vs30_m_sec_WA;epi_dist;epi_az;JB_dist;rup_dist;Rx_dist;Ry0_dist;instrument_type_code;late_triggered_flag_01;U_channel_code;U_azimuth_deg;V_channel_code;V_azimuth_deg;W_channel_code;U_hp;V_hp;W_hp;U_lp;V_lp;W_lp;U_pga;V_pga;W_pga;rotD50_pga;rotD100_pga;rotD00_pga;U_pgv;V_pgv;W_pgv;rotD50_pgv;rotD100_pgv;rotD00_pgv;U_pgd;V_pgd;W_pgd;rotD50_pgd;rotD100_pgd;rotD00_pgd;U_T90;V_T90;W_T90;rotD50_T90;rotD100_T90;rotD00_T90;U_housner;V_housner;W_housner;rotD50_housner;rotD100_housner;rotD00_housner;U_CAV;V_CAV;W_CAV;rotD50_CAV;rotD100_CAV;rotD00_CAV;U_ia;V_ia;W_ia;rotD50_ia;rotD100_ia;rotD00_ia;U_T0_010;U_T0_025;U_T0_040;U_T0_050;U_T0_070;U_T0_100;U_T0_150;U_T0_200;U_T0_250;U_T0_300;U_T0_350;U_T0_400;U_T0_450;U_T0_500;U_T0_600;U_T0_700;U_T0_750;U_T0_800;U_T0_900;U_T1_000;U_T1_200;U_T1_400;U_T1_600;U_T1_800;U_T2_000;U_T2_500;U_T3_000;U_T3_500;U_T4_000;U_T4_500;U_T5_000;U_T6_000;U_T7_000;U_T8_000;U_T9_000;U_T10_000;V_T0_010;V_T0_025;V_T0_040;V_T0_050;V_T0_070;V_T0_100;V_T0_150;V_T0_200;V_T0_250;V_T0_300;V_T0_350;V_T0_400;V_T0_450;V_T0_500;V_T0_600;V_T0_700;V_T0_750;V_T0_800;V_T0_900;V_T1_000;V_T1_200;V_T1_400;V_T1_600;V_T1_800;V_T2_000;V_T2_500;V_T3_000;V_T3_500;V_T4_000;V_T4_500;V_T5_000;V_T6_000;V_T7_000;V_T8_000;V_T9_000;V_T10_000;W_T0_010;W_T0_025;W_T0_040;W_T0_050;W_T0_070;W_T0_100;W_T0_150;W_T0_200;W_T0_250;W_T0_300;W_T0_350;W_T0_400;W_T0_450;W_T0_500;W_T0_600;W_T0_700;W_T0_750;W_T0_800;W_T0_900;W_T1_000;W_T1_200;W_T1_400;W_T1_600;W_T1_800;W_T2_000;W_T2_500;W_T3_000;W_T3_500;W_T4_000;W_T4_500;W_T5_000;W_T6_000;W_T7_000;W_T8_000;W_T9_000;W_T10_000;rotD50_T0_010;rotD50_T0_025;rotD50_T0_040;rotD50_T0_050;rotD50_T0_070;rotD50_T0_100;rotD50_T0_150;rotD50_T0_200;rotD50_T0_250;rotD50_T0_300;rotD50_T0_350;rotD50_T0_400;rotD50_T0_450;rotD50_T0_500;rotD50_T0_600;rotD50_T0_700;rotD50_T0_750;rotD50_T0_800;rotD50_T0_900;rotD50_T1_000;rotD50_T1_200;rotD50_T1_400;rotD50_T1_600;rotD50_T1_800;rotD50_T2_000;rotD50_T2_500;rotD50_T3_000;rotD50_T3_500;rotD50_T4_000;rotD50_T4_500;rotD50_T5_000;rotD50_T6_000;rotD50_T7_000;rotD50_T8_000;rotD50_T9_000;rotD50_T10_000;rotD100_T0_010;rotD100_T0_025;rotD100_T0_040;rotD100_T0_050;rotD100_T0_070;rotD100_T0_100;rotD100_T0_150;rotD100_T0_200;rotD100_T0_250;rotD100_T0_300;rotD100_T0_350;rotD100_T0_400;rotD100_T0_450;rotD100_T0_500;rotD100_T0_600;rotD100_T0_700;rotD100_T0_750;rotD100_T0_800;rotD100_T0_900;rotD100_T1_000;rotD100_T1_200;rotD100_T1_400;rotD100_T1_600;rotD100_T1_800;rotD100_T2_000;rotD100_T2_500;rotD100_T3_000;rotD100_T3_500;rotD100_T4_000;rotD100_T4_500;rotD100_T5_000;rotD100_T6_000;rotD100_T7_000;rotD100_T8_000;rotD100_T9_000;rotD100_T10_000;rotD00_T0_010;rotD00_T0_025;rotD00_T0_040;rotD00_T0_050;rotD00_T0_070;rotD00_T0_100;rotD00_T0_150;rotD00_T0_200;rotD00_T0_250;rotD00_T0_300;rotD00_T0_350;rotD00_T0_400;rotD00_T0_450;rotD00_T0_500;rotD00_T0_600;rotD00_T0_700;rotD00_T0_750;rotD00_T0_800;rotD00_T0_900;rotD00_T1_000;rotD00_T1_200;rotD00_T1_400;rotD00_T1_600;rotD00_T1_800;rotD00_T2_000;rotD00_T2_500;rotD00_T3_000;rotD00_T3_500;rotD00_T4_000;rotD00_T4_500;rotD00_T5_000;rotD00_T6_000;rotD00_T7_000;rotD00_T8_000;rotD00_T9_000;rotD00_T10_000
1834;EMSC-20130108_0000044;2013-01-08 14:16:09;602216240.0;usp000jy2b;1667271.0;20130108_0000044;GR;39.6681;25.5372;11.1303;ISC;SS;5.8;ATH;5.81;GCMT;5.82;ISC;5.8;Mw;GEOFON;331.0;77.0;-1.0;61.0;88.0;-166.0;GFZ;300037;v0000044;61.0;89.0;-173.0;GCMT;6.42006;from_nulcleation_depth;9.72523;7.06643;empirical_fault;HL;PRK;0;HN;0.0;;;;GR;39.24565;26.26499;130.0;;;;;;;;5.704845;619.736567;78.3;307.1;76.38;76.77;71.82;26.33;D;0.0;E;90.0;N;0.0;Z;0.02;0.02;0.02;30.0;30.0;30.0;-19.926643;19.562941;13.683885;19.744792;27.042519;12.396879;-1.493074;-1.20715;-0.961706;1.381805;1.78326;0.959154;-0.299679;-0.301144;-0.144461;0.3004125;0.360339;0.1827;12.33;11.51;18.935;11.795;18.465;9.28;5.19547;5.02898;2.92858;5.15244;5.58359;4.53516;79.7309482428;67.3782813641;60.5966483796;73.6299026653;82.5059123073;63.3493249084;0.571455527138;0.447915685908;0.289829205132;0.509685583906;0.733673034392;0.285698209513;19.9506;20.0704;20.2746;20.7117;22.2904;24.7045;38.0286;38.2471;38.1923;48.9268;99.7587;99.6688;75.2736;51.5222;29.4255;38.8105;30.3115;27.8734;27.1567;15.5308;11.7985;7.627;6.53609;4.24295;3.02574;1.57171;1.18389;0.896409;0.754931;0.715886;0.635478;0.387718;0.349342;0.30939;0.273668;0.257884;19.567;19.6875;19.9568;20.0114;21.9805;29.2225;40.5545;43.3264;34.1494;44.3873;70.0713;95.9564;87.8808;53.4298;26.4121;17.1822;16.698;19.4702;15.2757;9.87343;9.5302;10.5681;8.81072;7.452;5.23435;2.69503;1.67835;1.2579;1.02737;0.901293;0.684507;0.387669;0.339105;0.276175;0.247327;0.220798;13.7105;13.841;14.0815;14.4561;16.4266;21.4087;29.3695;28.0539;30.6048;24.2559;27.4772;43.6825;53.5955;53.2624;25.5799;19.997;12.0128;9.92613;9.2272;7.10872;3.78557;3.76608;3.73116;3.84978;2.74893;1.19255;0.577089;0.425084;0.45708;0.366781;0.523334;0.46412;0.250993;0.16542;0.139434;0.124521;19.7588;19.87895;20.1157;20.36155;22.13545;27.73735;43.6285;39.7556;37.7182;46.92465;85.6698;97.8126;82.2466;52.476;28.06165;31.0035;23.25125;23.2581;22.7323;13.80825;10.86475;9.226615;7.432585;6.0936;4.163485;2.302825;1.488385;1.11771;0.89395;0.766488;0.652458;0.400134;0.3523695;0.2928555;0.2574925;0.237764;27.0762;27.2741;27.6303;28.1729;29.6892;30.8834;47.8467;53.7721;48.7595;54.8325;112.906;137.356;112.958;68.7383;37.2851;39.535;31.417;27.8734;28.9446;16.3732;12.4587;10.8763;9.34767;7.54038;5.67019;2.69503;1.76841;1.30565;1.05202;0.936854;0.796328;0.538679;0.41849;0.315897;0.283271;0.310238;12.4116;12.4896;12.7326;13.1096;14.5578;16.0906;34.6907;24.6573;23.4593;25.099;45.0937;37.8903;34.9318;25.8209;24.098;16.9998;16.698;15.7113;10.94;8.78923;6.73711;7.60729;5.0477;2.75783;1.93816;1.44462;1.12409;0.772538;0.64816;0.622994;0.529623;0.305296;0.304126;0.235533;0.178441;0.153149
1835;EMSC-20130108_0000044;2013-01-08 14:16:09;602216240.0;usp000jy2b;1667271.0;20130108_0000044;GR;39.6681;25.5372;11.1303;ISC;SS;5.8;ATH;5.81;GCMT;5.82;ISC;5.8;Mw;GEOFON;331.0;77.0;-1.0;61.0;88.0;-166.0;GFZ;300037;v0000044;61.0;89.0;-173.0;GCMT;6.42006;from_nulcleation_depth;9.72523;7.06643;empirical_fault;HL;PSRA;0;HN;0.0;;;;GR;38.53978;25.56202;13.0;;;;;;;;2.79923;485.509639;125.3;359.0;122.94;123.22;109.73;55.69;D;0.0;E;90.0;N;0.0;Z;0.04;0.04;0.04;30.0;30.0;30.0;6.859103;6.753628;3.619535;6.7445415;7.950311;5.209907;-0.533993;0.312982;0.190531;0.4224395;0.555058;0.29175;0.193086;-0.072595;-0.075896;0.1425265;0.194898;0.0710957;28.0;28.48;28.63;28.205;28.485;27.72;2.15849;1.12509;0.878889;1.69306;2.16166;1.11982;38.6293996152;38.1354362995;21.760161646;38.3977817139;40.3792039047;36.006774755;0.084464685353;0.0856913268076;0.0270995551249;0.0850780060803;0.0962749458923;0.0738810598411;6.87264;6.93897;7.03785;7.09945;7.63098;9.42519;18.0726;19.3905;21.8741;17.8133;11.839;16.5879;14.8414;10.0772;8.3803;9.56635;9.51583;8.63936;9.86429;7.73956;4.84675;5.13861;4.02966;3.58612;2.36186;1.75784;1.31327;0.785929;0.483742;0.475402;0.454372;0.326315;0.179515;0.124929;0.155379;0.152746;6.76871;6.86345;7.07449;7.30716;7.65027;10.2727;20.6777;20.2156;19.4672;22.9663;12.4075;10.9793;9.28504;7.94581;7.92193;8.58456;6.62707;6.49841;6.09358;3.04487;2.0552;1.38503;1.23562;1.21434;0.836328;0.424724;0.386203;0.335618;0.322071;0.313298;0.282574;0.187431;0.183772;0.171954;0.104378;0.09399;3.62442;3.6954;3.87313;4.19803;5.0175;7.21319;15.3905;8.35358;7.38576;7.25586;5.45266;6.92309;5.34424;3.95902;3.84002;2.96588;3.92722;3.63463;2.25435;1.85095;1.8901;2.43127;1.89236;1.67901;1.351;0.463187;0.352919;0.291023;0.240295;0.242187;0.200055;0.196708;0.171206;0.168758;0.120304;0.072676;6.76114;6.833555;6.93126;6.9916;7.44477;9.975205;18.3014;19.8818;20.2763;20.41975;13.3;13.91535;11.8356;8.490485;8.309495;8.98862;7.899015;7.837995;7.50294;5.93928;3.66698;3.655605;2.90064;2.650955;1.693525;1.25082;0.9703245;0.609836;0.422547;0.3522185;0.330328;0.2433725;0.180432;0.146699;0.1314485;0.1262235;7.95388;8.04473;8.25369;8.4612;8.7295;12.0724;22.8976;21.9706;27.5431;27.2955;14.7353;16.622;14.8414;10.769;9.73234;10.0759;10.9651;9.96443;9.94659;7.85591;4.86737;5.16531;4.09502;3.74509;2.39168;1.76863;1.32648;0.806535;0.513908;0.483338;0.454374;0.329857;0.209599;0.194334;0.165467;0.174523;5.21254;5.27843;5.42823;5.52634;6.07201;9.16728;13.2184;14.8168;14.6712;10.4164;11.6271;9.7871;9.2178;6.90251;7.06928;4.88823;4.08001;4.39795;5.5648;2.97302;1.83578;1.27028;1.04495;0.880883;0.5932;0.382426;0.381978;0.298944;0.277353;0.280948;0.209511;0.17331;0.152626;0.124924;0.103039;0.071935
1836;EMSC-20130108_0000044;2013-01-08 14:16:09;602216240.0;usp000jy2b;1667271.0;20130108_0000044;GR;39.6681;25.5372;11.1303;ISC;SS;5.8;ATH;5.81;GCMT;5.82;ISC;5.8;Mw;GEOFON;331.0;77.0;-1.0;61.0;88.0;-166.0;GFZ;300037;v0000044;61.0;89.0;-173.0;GCMT;6.42006;from_nulcleation_depth;9.72523;7.06643;empirical_fault;HL;SMTH;0;HN;0.0;;;;GR;40.47094;25.53045;365.0;;;;;;;;19.7731;1076.476682;89.1;179.6;86.76;86.99;-77.45;39.09;D;0.0;E;90.0;N;0.0;Z;0.03;0.03;0.03;30.0;30.0;30.0;-5.321418;-6.346579;-5.386645;5.8128515;7.360722;4.343479;-0.76764;-0.661559;-0.619789;0.666145;0.823141;0.372857;0.227873;0.14794;0.184658;0.213041;0.245184;0.115435;25.55;23.8;27.13;24.605;27.175;22.32;2.05985;1.95842;1.86922;2.00391;2.41355;1.50667;25.1008576584;28.9091967239;23.8091191767;26.9979906615;29.0762708167;24.8447036117;0.0382711524319;0.0525806676337;0.0337932911787;0.0454259097164;0.0557623551941;0.0350894702044;5.32829;5.38711;5.70061;6.57593;12.2744;14.0713;18.6593;8.45819;6.98933;8.14762;7.79081;6.89871;9.11317;12.0096;9.15454;10.0787;10.2896;9.69087;6.97476;5.58211;4.19886;4.69038;4.55117;3.76581;2.7752;1.77992;0.918461;0.853256;0.660371;0.575275;0.447287;0.335155;0.274887;0.33403;0.311403;0.257966;6.37494;6.54899;7.73931;8.17971;11.4019;13.9465;10.6553;11.1563;12.2004;11.4874;11.8543;12.2732;10.6538;11.8267;12.3955;7.7188;7.24249;7.24105;8.53085;7.59679;5.57566;5.25236;3.31469;2.37663;2.02168;1.35424;0.824261;0.731405;0.733812;0.415089;0.384315;0.278691;0.285635;0.190161;0.165086;0.156558;5.43086;5.69662;6.34031;7.24778;8.38212;11.6094;9.88359;9.55045;7.46365;8.83257;9.00728;6.67355;6.35772;7.17469;7.77061;6.54855;7.18545;7.96733;8.9754;8.55586;6.13619;4.49402;3.39224;2.59152;2.06928;1.35727;1.05429;0.492244;0.65179;0.521076;0.459538;0.331521;0.276192;0.178403;0.160427;0.10979;5.820295;5.978715;6.23638;6.85735;12.03515;14.42355;15.0772;9.628715;9.12516;10.175;10.1535;9.947085;10.2023;11.91815;10.8763;8.975985;8.884555;8.4405;7.87969;6.71605;4.840675;4.815825;4.265425;3.088355;2.234035;1.429815;0.821765;0.759135;0.7232155;0.4970355;0.3936135;0.288814;0.2802785;0.278034;0.241615;0.2036545;7.36552;7.58001;8.66095;9.48776;14.1047;15.5622;20.6935;11.2147;12.2444;11.5225;13.0708;14.0167;12.4468;13.858;14.4694;12.5999;12.3936;11.6;10.3834;8.45377;6.23107;6.48299;5.34947;3.96442;2.7801;1.8026;0.949193;0.880785;0.815884;0.639654;0.456259;0.353588;0.368148;0.365219;0.313237;0.265189;4.36596;4.49708;4.844;5.56338;8.94591;12.2737;10.6553;7.50876;6.27318;7.06001;6.97603;5.83118;6.34819;7.50414;5.95139;4.27591;3.93379;3.84857;3.32722;2.65301;3.26783;3.60398;3.05013;2.37319;1.87121;1.17807;0.670649;0.654712;0.421222;0.292485;0.306502;0.264577;0.190566;0.144347;0.144809;0.104917
1837;EMSC-20130108_0000044;2013-01-08 14:16:09;602216240.0;usp000jy2b;1667271.0;20130108_0000044;GR;39.6681;25.5372;11.1303;ISC;SS;5.8;ATH;5.81;GCMT;5.82;ISC;5.8;Mw;GEOFON;331.0;77.0;-1.0;61.0;88.0;-166.0;GFZ;300037;v0000044;61.0;89.0;-173.0;GCMT;6.42006;from_nulcleation_depth;9.72523;7.06643;empirical_fault;HL;TNSA;0;HN;0.0;;;;GR;37.53942;25.1631;21.0;;;;;;;;2.574727;469.556462;238.5;7.7;235.51;235.7;188.4;141.5;D;0.0;E;90.0;N;0.0;Z;0.03;0.03;0.03;30.0;30.0;30.0;0.266875;-0.362877;0.346261;0.3089235;0.380759;0.250053;-0.034086;0.049689;0.036426;0.0439124;0.0496889;0.0333175;-0.033386;0.041707;-0.037335;0.0410842;0.0517975;0.0273661;74.75;50.5;69.3;62.03;77.485;50.395;0.151294;0.233743;0.17174;0.1953935;0.233772;0.150731;3.89635319436;4.50656949806;4.39616437513;4.23849670973;4.55485357101;3.87693092516;0.000364848928629;0.000606628304259;0.000473938156834;0.000485738625801;0.000613894159992;0.000357583078163;0.266996;0.269126;0.269686;0.270643;0.28711;0.436535;0.555198;0.598423;0.584224;0.704484;0.657471;0.909507;0.878966;0.763945;0.57968;0.485118;0.445114;0.412408;0.526367;0.419932;0.377127;0.324523;0.261522;0.276784;0.23559;0.183171;0.108358;0.132269;0.096435;0.104556;0.065461;0.070133;0.082894;0.083133;0.056635;0.04263;0.363055;0.364343;0.366626;0.370614;0.406066;0.517971;0.758056;0.819079;0.891054;0.962554;0.776119;1.06887;1.55096;1.08482;0.981203;1.15943;1.05055;0.819944;0.759143;0.788847;0.656907;0.593421;0.609504;0.368587;0.200646;0.275058;0.224113;0.109588;0.076826;0.084062;0.104401;0.095505;0.072553;0.079889;0.081891;0.063023;0.346468;0.347537;0.353336;0.362211;0.386328;0.466442;0.591283;0.611844;0.660876;0.567787;0.79076;0.952417;1.48733;1.1223;0.656041;0.641237;0.633201;0.583279;0.568358;0.438716;0.465727;0.413739;0.462602;0.247717;0.229663;0.1705;0.149336;0.100952;0.080869;0.09489;0.077098;0.096318;0.09304;0.070708;0.052809;0.040232;0.3089415;0.3119145;0.315537;0.318615;0.374086;0.468035;0.6068205;0.683527;0.7632585;0.8324;0.8452585;0.9842915;1.205005;0.8905195;0.7844685;0.8716735;0.7654205;0.581581;0.6243215;0.599083;0.5187325;0.471352;0.454664;0.31639;0.233882;0.202563;0.1710475;0.110472;0.089137;0.1063475;0.08642;0.077609;0.087071;0.0815115;0.065957;0.0530385;0.380815;0.38311;0.385824;0.393847;0.429642;0.579531;0.762896;0.819316;0.893573;0.963628;0.950239;1.15756;1.55273;1.1109;1.02185;1.22568;1.08149;0.820285;0.772673;0.833223;0.680312;0.594897;0.642577;0.385602;0.253422;0.279891;0.224679;0.132428;0.115712;0.117828;0.104748;0.106424;0.105648;0.107922;0.090661;0.073518;0.250661;0.252434;0.257558;0.261905;0.28711;0.401494;0.482746;0.551303;0.581667;0.512917;0.657472;0.880085;0.813966;0.750698;0.56109;0.388757;0.383756;0.402011;0.421948;0.364611;0.377127;0.294622;0.257539;0.197914;0.197943;0.166043;0.1022;0.095629;0.075877;0.076324;0.064817;0.065912;0.06587;0.057642;0.036195;0.021652
1838;EMSC-20130108_0000044;2013-01-08 14:16:09;602216240.0;usp000jy2b;1667271.0;20130108_0000044;GR;39.6681;25.5372;11.1303;ISC;SS;5.8;ATH;5.81;GCMT;5.82;ISC;5.8;Mw;GEOFON;331.0;77.0;-1.0;61.0;88.0;-166.0;GFZ;300037;v0000044;61.0;89.0;-173.0;GCMT;6.42006;from_nulcleation_depth;9.72523;7.06643;empirical_fault;HL;YDRA;0;HN;0.0;;;;GR;37.34947;23.46529;20.0;;;;;;;;13.183462;895.8858;314.5;34.4;310.26;310.38;129.62;281.94;D;0.0;E;90.0;N;0.0;Z;0.04;0.04;0.04;30.0;30.0;30.0;0.503902;-0.359486;-0.198579;0.403702;0.515313;0.337538;0.075533;-0.056752;-0.034283;0.0755152;0.0817646;0.0555754;0.069918;0.040344;0.028739;0.05648155;0.0798485;0.0287146;63.9;67.555;83.87;66.4025;70.145;62.805;0.338751;0.253837;0.1597;0.2979825;0.338751;0.252794;6.02821246512;4.75481757206;3.40692819493;5.3747701725;6.04720333826;4.68537549214;0.000924189138444;0.000626464299593;0.000241361183079;0.000775326701766;0.000940332795464;0.000610320560766;0.503934;0.50538;0.523598;0.513564;0.510183;0.506331;0.527106;0.616745;0.723098;0.833391;1.03606;0.825844;1.18979;1.05989;0.776378;1.26543;1.24007;1.38054;1.51008;1.8397;1.01285;1.02006;0.733978;0.46189;0.330454;0.298242;0.156208;0.137451;0.120967;0.156499;0.150788;0.086524;0.061697;0.046872;0.042666;0.048359;0.359552;0.360851;0.375536;0.366565;0.372089;0.377711;0.369088;0.394405;0.569519;0.719242;0.761465;0.935457;1.44507;1.78143;0.975436;1.31158;1.20567;0.956625;1.01908;1.29817;0.793329;0.47905;0.54129;0.450048;0.268618;0.13183;0.081627;0.09517;0.083028;0.103791;0.148948;0.102034;0.096278;0.060362;0.042009;0.051816;0.198612;0.199397;0.208399;0.202229;0.203982;0.219537;0.226932;0.271452;0.368452;0.54127;0.520377;0.59546;0.649154;0.879361;0.453521;0.487318;0.384715;0.447295;0.459472;0.526376;0.349069;0.289794;0.4357;0.380002;0.263202;0.152444;0.098081;0.100287;0.075197;0.074866;0.100642;0.069339;0.087501;0.06634;0.047851;0.030195;0.403911;0.4055595;0.419163;0.418687;0.412143;0.4152245;0.4534775;0.509782;0.662612;0.7771635;0.867114;0.8736705;1.41176;1.536315;0.936017;1.288505;1.222865;1.200845;1.28204;1.604165;0.989168;0.827361;0.619088;0.455969;0.3045715;0.213911;0.1243305;0.109973;0.090975;0.124729;0.144372;0.09747;0.080605;0.05373;0.0423385;0.050087;0.515376;0.515868;0.535398;0.53804;0.520284;0.534009;0.582567;0.63369;0.762391;0.873439;1.1658;0.961502;1.55052;1.78189;1.1644;1.43832;1.48215;1.4814;1.75197;2.23066;1.06877;1.02006;0.777327;0.521076;0.339329;0.300484;0.157443;0.139873;0.1246;0.170064;0.169493;0.102771;0.099071;0.061422;0.052518;0.066626;0.337698;0.339557;0.351087;0.34649;0.348859;0.351263;0.364801;0.389425;0.504745;0.617381;0.71809;0.738114;1.13058;0.904793;0.772238;0.840001;1.03192;0.955407;0.615281;0.798888;0.73502;0.455023;0.393967;0.324999;0.240145;0.130042;0.080806;0.07976;0.05947;0.075438;0.097847;0.080216;0.051284;0.037147;0.033555;0.019635
