;event_id;event_time;ISC_ev_id;USGS_ev_id;INGV_ev_id;EMSC_ev_id;ev_nation_code;ev_latitude;ev_longitude;ev_depth_km;ev_hyp_ref;fm_type_code;ML;ML_ref;Mw;Mw_ref;Ms;Ms_ref;EMEC_Mw;EMEC_Mw_type;EMEC_Mw_ref;strike_1;dip_1;rake_1;strike_2;dip_2;rake_2;MT_Agency;MT_Identifier;event_source_id;es_strike;es_dip;es_rake;es_strike_dip_rake_ref;es_z_top;es_z_top_ref;es_length;es_width;es_geometry_ref;network_code;station_code;location_code;instrument_code;sensor_depth_m;proximity_code;housing_code;installation_code;st_nation_code;st_latitude;st_longitude;st_elevation;ec8_code;ec8_code_method;ec8_code_ref;vs30_m_sec;vs30_ref;vs30_calc_method;vs30_meas_type;slope_deg;vs30_m_sec_WA;epi_dist;epi_az;JB_dist;rup_dist;Rx_dist;Ry0_dist;instrument_type_code;late_triggered_flag_01;U_channel_code;U_azimuth_deg;V_channel_code;V_azimuth_deg;W_channel_code;U_hp;V_hp;W_hp;U_lp;V_lp;W_lp;U_pga;V_pga;W_pga;rotD50_pga;rotD100_pga;rotD00_pga;U_pgv;V_pgv;W_pgv;rotD50_pgv;rotD100_pgv;rotD00_pgv;U_pgd;V_pgd;W_pgd;rotD50_pgd;rotD100_pgd;rotD00_pgd;U_T90;V_T90;W_T90;rotD50_T90;rotD100_T90;rotD00_T90;U_housner;V_housner;W_housner;rotD50_housner;rotD100_housner;rotD00_housner;U_CAV;V_CAV;W_CAV;rotD50_CAV;rotD100_CAV;rotD00_CAV;U_ia;V_ia;W_ia;rotD50_ia;rotD100_ia;rotD00_ia;U_T0_010;U_T0_025;U_T0_040;U_T0_050;U_T0_070;U_T0_100;U_T0_150;U_T0_200;U_T0_250;U_T0_300;U_T0_350;U_T0_400;U_T0_450;U_T0_500;U_T0_600;U_T0_700;U_T0_750;U_T0_800;U_T0_900;U_T1_000;U_T1_200;U_T1_400;U_T1_600;U_T1_800;U_T2_000;U_T2_500;U_T3_000;U_T3_500;U_T4_000;U_T4_500;U_T5_000;U_T6_000;U_T7_000;U_T8_000;U_T9_000;U_T10_000;V_T0_010;V_T0_025;V_T0_040;V_T0_050;V_T0_070;V_T0_100;V_T0_150;V_T0_200;V_T0_250;V_T0_300;V_T0_350;V_T0_400;V_T0_450;V_T0_500;V_T0_600;V_T0_700;V_T0_750;V_T0_800;V_T0_900;V_T1_000;V_T1_200;V_T1_400;V_T1_600;V_T1_800;V_T2_000;V_T2_500;V_T3_000;V_T3_500;V_T4_000;V_T4_500;V_T5_000;V_T6_000;V_T7_000;V_T8_000;V_T9_000;V_T10_000;W_T0_010;W_T0_025;W_T0_040;W_T0_050;W_T0_070;W_T0_100;W_T0_150;W_T0_200;W_T0_250;W_T0_300;W_T0_350;W_T0_400;W_T0_450;W_T0_500;W_T0_600;W_T0_700;W_T0_750;W_T0_800;W_T0_900;W_T1_000;W_T1_200;W_T1_400;W_T1_600;W_T1_800;W_T2_000;W_T2_500;W_T3_000;W_T3_500;W_T4_000;W_T4_500;W_T5_000;W_T6_000;W_T7_000;W_T8_000;W_T9_000;W_T10_000;rotD50_T0_010;rotD50_T0_025;rotD50_T0_040;rotD50_T0_050;rotD50_T0_070;rotD50_T0_100;rotD50_T0_150;rotD50_T0_200;rotD50_T0_250;rotD50_T0_300;rotD50_T0_350;rotD50_T0_400;rotD50_T0_450;rotD50_T0_500;rotD50_T0_600;rotD50_T0_700;rotD50_T0_750;rotD50_T0_800;rotD50_T0_900;rotD50_T1_000;rotD50_T1_200;rotD50_T1_400;rotD50_T1_600;rotD50_T1_800;rotD50_T2_000;rotD50_T2_500;rotD50_T3_000;rotD50_T3_500;rotD50_T4_000;rotD50_T4_500;rotD50_T5_000;rotD50_T6_000;rotD50_T7_000;rotD50_T8_000;rotD50_T9_000;rotD50_T10_000;rotD100_T0_010;rotD100_T0_025;rotD100_T0_040;rotD100_T0_050;rotD100_T0_070;rotD100_T0_100;rotD100_T0_150;rotD100_T0_200;rotD100_T0_250;rotD100_T0_300;rotD100_T0_350;rotD100_T0_400;rotD100_T0_450;rotD100_T0_500;rotD100_T0_600;rotD100_T0_700;rotD100_T0_750;rotD100_T0_800;rotD100_T0_900;rotD100_T1_000;rotD100_T1_200;rotD100_T1_400;rotD100_T1_600;rotD100_T1_800;rotD100_T2_000;rotD100_T2_500;rotD100_T3_000;rotD100_T3_500;rotD100_T4_000;rotD100_T4_500;rotD100_T5_000;rotD100_T6_000;rotD100_T7_000;rotD100_T8_000;rotD100_T9_000;rotD100_T10_000;rotD00_T0_010;rotD00_T0_025;rotD00_T0_040;rotD00_T0_050;rotD00_T0_070;rotD00_T0_100;rotD00_T0_150;rotD00_T0_200;rotD00_T0_250;rotD00_T0_300;rotD00_T0_350;rotD00_T0_400;rotD00_T0_450;rotD00_T0_500;rotD00_T0_600;rotD00_T0_700;rotD00_T0_750;rotD00_T0_800;rotD00_T0_900;rotD00_T1_000;rotD00_T1_200;rotD00_T1_400;rotD00_T1_600;rotD00_T1_800;rotD00_T2_000;rotD00_T2_500;rotD00_T3_000;rotD00_T3_500;rotD00_T4_000;rotD00_T4_500;rotD00_T5_000;rotD00_T6_000;rotD00_T7_000;rotD00_T8_000;rotD00_T9_000;rotD00_T10_000
137;EMSC-20041205_0000033;2004-12-05 01:52:35;7445791.0;usp000da1z;;20041205_0000033;DE;48.1039;7.9208;10.0;ISC;SS;4.1;NAO;4.55;MED_RCMT;3.96;ISC;4.6;Mw;Ben-MKS12;109.0;70.0;-159.0;11.5204599273;70.3206623502;-43.8328409074;INGV;1652;;;;;;;;;;;CH;BOURR;0;HG;0.0;;;;CH;47.39377;7.23018;860.0;;;;;;;;9.45237;798.192221;94.4;33.0;;;;;D;0.0;E;90.0;N;0.0;Z;0.1;0.1;0.1;30.0;30.0;30.0;0.933588;-0.903275;1.363412;0.9184315;1.181392;0.715785;-0.059484;-0.086643;-0.064505;0.071531;0.0954936;0.0415357;0.012134;-0.012209;-0.005881;0.0114192;0.0122841;0.00850845;29.935;33.585;29.645;33.32;35.225;29.795;0.229703;0.249143;0.206226;0.233041;0.255186;0.211776;5.35216837554;5.53196384215;6.77535861119;5.43108995119;5.72118679427;5.04183708191;0.0015883005521;0.00160378985571;0.00283456240215;0.00159604520391;0.00193621274648;0.00125587759098;0.935893;0.949802;0.959282;1.00161;1.45412;1.78334;1.68416;2.27418;2.14207;2.02017;2.23576;3.05081;2.63354;2.80132;1.80522;1.25237;1.05088;0.799434;0.973515;0.638142;0.384222;0.474005;0.264489;0.227162;0.260231;0.107774;0.077822;0.058496;0.062459;0.047816;0.03085;0.017001;0.011976;0.010243;0.008611;0.007668;0.910093;0.947384;1.11161;1.09735;1.92027;2.11194;2.63659;1.74577;2.86715;2.38065;2.02636;1.73261;2.15265;2.48505;1.9046;1.22636;1.10119;0.943616;0.695867;0.491136;0.500896;0.49487;0.493953;0.380574;0.278165;0.146753;0.100744;0.081699;0.067844;0.056742;0.033941;0.023115;0.013621;0.010335;0.008232;0.006634;1.36463;1.38788;1.54441;1.72013;2.38834;3.15515;2.99034;3.86934;4.90668;4.31322;3.25993;2.52539;2.38451;1.73855;1.43929;0.720499;0.638311;0.643506;0.546077;0.36153;0.382491;0.284422;0.199323;0.228996;0.2131;0.113445;0.061142;0.029135;0.02074;0.017874;0.012138;0.008139;0.006669;0.00556;0.004758;0.004132;0.922993;0.948593;1.039325;1.062655;1.78373;1.9513;1.89735;2.06987;2.585585;2.14911;2.14795;2.323245;2.401565;2.6659;1.87477;1.236885;1.03818;0.845779;0.837682;0.581876;0.4378425;0.47412;0.374715;0.283238;0.273032;0.132161;0.091432;0.073208;0.0651535;0.052334;0.0332385;0.0198465;0.013009;0.010255;0.008368;0.0069755;1.18365;1.19747;1.25214;1.34258;1.97408;2.3386;2.66875;2.37723;3.26789;2.88457;2.42828;3.26455;3.25087;3.72745;2.07703;1.40302;1.1528;1.04898;0.979875;0.656558;0.509178;0.551709;0.496613;0.383056;0.317372;0.161092;0.103509;0.082571;0.091495;0.07084;0.041735;0.025632;0.015638;0.011408;0.009204;0.007891;0.716481;0.728238;0.761955;0.820129;1.41659;1.43884;1.57797;1.45615;2.08751;1.52335;1.75103;1.60304;1.60397;1.77162;1.07136;0.757179;0.751087;0.634146;0.608964;0.441342;0.354001;0.428701;0.259616;0.163305;0.124713;0.104898;0.064878;0.040953;0.026632;0.022676;0.01933;0.012368;0.009011;0.00698;0.005959;0.005305
138;EMSC-20041205_0000033;2004-12-05 01:52:35;7445791.0;usp000da1z;;20041205_0000033;DE;48.1039;7.9208;10.0;ISC;SS;4.1;NAO;4.55;MED_RCMT;3.96;ISC;4.6;Mw;Ben-MKS12;109.0;70.0;-159.0;11.5204599273;70.3206623502;-43.8328409074;INGV;1652;;;;;;;;;;;CH;DIX;0;HG;0.0;;;;CH;46.08007;7.40815;2410.0;;;;;;;;31.079867;1427.234491;228.3;9.6;;;;;D;0.0;E;90.0;N;0.0;Z;0.2;0.2;0.2;30.0;30.0;30.0;-0.11212;-0.101653;-0.094572;0.1113805;0.120916;0.094231;-0.006039;0.006847;0.005925;0.006152295;0.00691226;0.00544175;-0.001476;0.000883;-0.001628;0.00119645;0.00148137;0.000838448;44.345;40.665;49.43;42.4275;44.865;39.36;0.0286746;0.0248169;0.0269566;0.0266849;0.0289748;0.0237003;0.908815370016;0.932061050181;0.864725630044;0.922844787535;0.958631339512;0.883967439579;3.1079558287e-05;3.29460275627e-05;2.52573850513e-05;3.20127856223e-05;3.40236590387e-05;3.0001893009e-05;0.112443;0.114545;0.126133;0.128443;0.193505;0.187852;0.281629;0.431241;0.30074;0.221605;0.288597;0.277498;0.184884;0.175499;0.124011;0.098999;0.104355;0.09469;0.095673;0.094401;0.077716;0.056835;0.030247;0.042464;0.043625;0.018539;0.010417;0.010856;0.00994;0.007311;0.005272;0.002709;0.001802;0.001279;0.00095;0.000771;0.101783;0.103749;0.111552;0.122485;0.154036;0.218024;0.347653;0.320839;0.28716;0.267823;0.22693;0.218013;0.176105;0.162779;0.14784;0.101431;0.11009;0.104794;0.075323;0.065833;0.06307;0.049198;0.045233;0.028219;0.021965;0.019254;0.012813;0.005485;0.006016;0.005697;0.003131;0.00168;0.001218;0.000802;0.000629;0.000492;0.094838;0.096398;0.107045;0.101942;0.122461;0.200329;0.235552;0.277239;0.287798;0.179742;0.202454;0.192994;0.28318;0.163002;0.110133;0.074284;0.062665;0.085277;0.070015;0.058711;0.075073;0.049001;0.043944;0.045493;0.044352;0.020421;0.015939;0.009502;0.006581;0.005143;0.003302;0.002157;0.001445;0.001143;0.000939;0.00076;0.1115655;0.114323;0.120108;0.128522;0.154328;0.2099445;0.3157905;0.383408;0.2877455;0.2368885;0.243481;0.2357805;0.1941555;0.1670305;0.1327055;0.100215;0.1087285;0.102235;0.0822555;0.08179;0.0710085;0.0511825;0.0383835;0.036602;0.033486;0.018188;0.010492;0.0091135;0.007157;0.006831;0.004285;0.002235;0.0014745;0.001085;0.0008685;0.000695;0.121079;0.124902;0.137176;0.14141;0.199529;0.239356;0.401452;0.433293;0.311954;0.310409;0.307655;0.307647;0.223483;0.175899;0.152706;0.11992;0.120868;0.139716;0.099965;0.102052;0.089576;0.058238;0.047693;0.044221;0.043868;0.019511;0.013211;0.010879;0.010051;0.007501;0.005272;0.002712;0.001824;0.001309;0.00096;0.000774;0.094232;0.096018;0.102067;0.112579;0.135994;0.166614;0.234578;0.320762;0.223605;0.216925;0.214149;0.203565;0.167664;0.131547;0.108736;0.077176;0.085695;0.06853;0.057371;0.041561;0.044265;0.040903;0.030247;0.028219;0.020964;0.013359;0.009527;0.005486;0.005831;0.00395;0.002724;0.001513;0.001029;0.000801;0.000621;0.000479
139;EMSC-20041205_0000033;2004-12-05 01:52:35;7445791.0;usp000da1z;;20041205_0000033;DE;48.1039;7.9208;10.0;ISC;SS;4.1;NAO;4.55;MED_RCMT;3.96;ISC;4.6;Mw;Ben-MKS12;109.0;70.0;-159.0;11.5204599273;70.3206623502;-43.8328409074;INGV;1652;;;;;;;;;;;CH;EMV;0;HG;0.0;;;;CH;46.06318;6.89883;2210.0;;;;;;;;25.331172;1240.663843;239.8;18.5;;;;;D;0.0;E;90.0;N;0.0;Z;0.1;0.1;0.1;30.0;30.0;30.0;-0.231992;0.172522;-0.175693;0.1980625;0.275948;0.172522;0.008785;-0.008572;0.005847;0.008362635;0.00942279;0.00759553;-0.002548;0.001975;-0.001052;0.002297275;0.00325305;0.000857664;37.585;43.3;46.76;41.7125;43.94;36.205;0.0402304;0.0297568;0.0236943;0.03514355;0.042221;0.0265857;1.3432188954;1.30970485535;1.11312003996;1.3273582521;1.40642567942;1.25467329984;7.92654050922e-05;7.08725743817e-05;4.47723671554e-05;7.50689847727e-05;8.44658617604e-05;6.56721147691e-05;0.232637;0.241585;0.269111;0.317073;0.509095;0.669008;0.568837;0.358926;0.441902;0.368645;0.367095;0.53305;0.524978;0.383274;0.214943;0.152439;0.136881;0.120995;0.141839;0.148567;0.104477;0.064381;0.058697;0.038937;0.033833;0.027133;0.029486;0.015682;0.009848;0.010083;0.009835;0.007014;0.003993;0.002855;0.002029;0.00172;0.173276;0.180419;0.21739;0.269402;0.466015;0.465026;0.47115;0.760392;0.431002;0.321197;0.265244;0.339109;0.290171;0.2022;0.212975;0.134944;0.135832;0.11833;0.123029;0.082554;0.061012;0.043498;0.040324;0.021096;0.02395;0.02852;0.022057;0.011375;0.009657;0.009263;0.006915;0.004069;0.00253;0.001633;0.001481;0.001204;0.177468;0.184826;0.212013;0.221098;0.329691;0.381016;0.330226;0.419429;0.423666;0.345367;0.234807;0.25261;0.207265;0.16198;0.133234;0.174908;0.127213;0.095356;0.091134;0.077271;0.040037;0.030826;0.044125;0.025644;0.02432;0.016113;0.013085;0.01006;0.009077;0.006223;0.004153;0.001966;0.001651;0.000974;0.000896;0.000833;0.198924;0.206029;0.244784;0.2952935;0.472401;0.5304935;0.471769;0.6101515;0.462146;0.3879225;0.3605;0.40788;0.402319;0.276625;0.213959;0.1441535;0.1363565;0.1196625;0.13235;0.1136425;0.0867785;0.0507205;0.0451445;0.033671;0.0312525;0.0278265;0.026701;0.012919;0.0097525;0.009674;0.008503;0.00566;0.0032685;0.0023655;0.001755;0.0014665;0.276427;0.284843;0.333652;0.411373;0.519638;0.750231;0.597214;0.766135;0.597175;0.473133;0.395812;0.53305;0.564444;0.390919;0.240006;0.17273;0.17829;0.147357;0.143946;0.154894;0.11485;0.066321;0.060742;0.042325;0.036914;0.038101;0.030573;0.01817;0.012201;0.013646;0.01198;0.007518;0.004319;0.003248;0.002448;0.002043;0.173276;0.180419;0.210763;0.226766;0.377409;0.408457;0.423712;0.346435;0.42321;0.316246;0.233441;0.254234;0.26382;0.182986;0.18378;0.109062;0.096549;0.099935;0.077991;0.05417;0.048776;0.042635;0.030797;0.017942;0.018483;0.016575;0.012663;0.00968;0.005397;0.00381;0.002118;0.001484;0.001155;0.000937;0.000698;0.000555
140;EMSC-20041205_0000033;2004-12-05 01:52:35;7445791.0;usp000da1z;;20041205_0000033;DE;48.1039;7.9208;10.0;ISC;SS;4.1;NAO;4.55;MED_RCMT;3.96;ISC;4.6;Mw;Ben-MKS12;109.0;70.0;-159.0;11.5204599273;70.3206623502;-43.8328409074;INGV;1652;;;;;;;;;;;CH;LIENZ;0;HG;0.0;;;;CH;47.2946;9.4927;1720.0;;;;;;;;10.802799;833.262139;148.4;307.9;;;;;D;0.0;E;90.0;N;0.0;Z;0.07;0.07;0.07;30.0;30.0;30.0;-2.616299;-2.399381;1.362253;2.5014795;3.321209;1.816421;-0.086074;0.087153;0.087284;0.0902205;0.099547;0.0777045;-0.008132;-0.00932;0.009694;0.0088629;0.0101113;0.00649366;7.42;8.31;18.135;7.7275;8.44;7.41;0.222925;0.251019;0.260339;0.235682;0.258852;0.219753;5.97947566786;5.64091552204;4.72966950759;5.80919092532;5.99740030032;5.64091552204;0.00468201946858;0.00357887793237;0.00205934681933;0.00413044847381;0.00474446837657;0.00351642892618;2.618;2.7096;2.95446;3.37477;5.45244;7.91385;8.35089;4.60194;4.57399;5.11112;3.03132;3.56859;2.98599;3.26121;1.47318;1.41013;1.22768;1.03099;0.782271;0.560234;0.341418;0.229248;0.147631;0.120125;0.121813;0.089837;0.05013;0.038472;0.026815;0.02404;0.023363;0.016776;0.012176;0.01052;0.008836;0.007487;2.39954;2.46951;2.75279;2.99898;4.96301;4.74753;6.38968;4.34;3.72217;4.30041;4.75912;3.58762;2.37755;2.43556;1.65875;1.3091;1.26122;1.12931;0.80276;0.590775;0.469631;0.296133;0.329326;0.262298;0.203653;0.153455;0.079301;0.045486;0.038683;0.030917;0.02299;0.015735;0.011911;0.009593;0.008413;0.00703;1.36385;1.4051;1.60525;2.25144;3.12759;2.7666;3.44777;2.79022;2.42178;3.31785;3.56854;2.59263;1.56563;1.97448;2.05604;1.70809;1.97242;2.0658;1.44566;1.07112;0.670756;0.459603;0.265213;0.169818;0.135655;0.08617;0.063305;0.043168;0.030909;0.025961;0.020865;0.015243;0.011742;0.009461;0.007925;0.006928;2.50717;2.585885;2.860445;3.19375;5.2891;6.26286;7.4497;4.72903;4.386515;4.66286;4.421675;3.593755;2.490855;2.578255;1.46758;1.361985;1.247325;1.11392;0.789004;0.581604;0.454952;0.278897;0.256252;0.1925335;0.163261;0.1181;0.0643205;0.0432135;0.0332905;0.0268625;0.0231765;0.0160435;0.0122755;0.009617;0.0080585;0.006791;3.32916;3.4442;3.57561;4.14152;6.45423;8.02448;9.30997;5.31094;4.86414;5.32854;5.48564;4.32402;3.14547;3.3089;1.66898;1.48;1.38887;1.17577;0.879106;0.70962;0.504791;0.307393;0.329326;0.269388;0.208398;0.162416;0.082574;0.057309;0.046876;0.037818;0.027665;0.019212;0.013995;0.01075;0.009171;0.007815;1.81655;1.88891;2.25965;2.44862;3.75862;4.0206;4.17302;4.13605;3.24764;2.63988;3.03132;2.82957;2.1207;2.0705;1.34192;1.14831;1.00005;1.0118;0.730131;0.539532;0.341405;0.198105;0.144044;0.120125;0.088664;0.063947;0.041335;0.026993;0.021709;0.018668;0.01513;0.012246;0.009579;0.008073;0.006995;0.00596
141;EMSC-20041205_0000033;2004-12-05 01:52:35;7445791.0;usp000da1z;;20041205_0000033;DE;48.1039;7.9208;10.0;ISC;SS;4.1;NAO;4.55;MED_RCMT;3.96;ISC;4.6;Mw;Ben-MKS12;109.0;70.0;-159.0;11.5204599273;70.3206623502;-43.8328409074;INGV;1652;;;;;;;;;;;CH;LLS;0;HG;0.0;;;;CH;46.84676;9.00825;1860.0;;;;;;;;14.107671;920.515084;162.0;330.0;;;;;D;0.0;E;90.0;N;0.0;Z;0.2;0.2;0.2;30.0;30.0;30.0;0.595501;-0.563773;-0.747704;0.560413;0.602387;0.464939;0.010744;-0.010608;0.021198;0.0107058;0.0114636;0.0103339;-0.00107;-0.001669;0.001749;0.00133187;0.00175406;0.000932493;22.8;21.855;16.825;22.1975;26.02;19.545;0.033967;0.0370823;0.0549694;0.0364656;0.0379083;0.0336902;2.3402396694;2.32468011567;2.52084636119;2.33442555293;2.38849241052;2.26099904545;0.000345484440415;0.00033119811465;0.000485339584857;0.000338341329045;0.000382784334676;0.000293898187945;0.606066;0.65571;0.978397;1.20346;1.96078;1.6629;1.16881;1.18852;0.76064;0.683312;0.572734;0.386664;0.239042;0.193744;0.166522;0.17528;0.176104;0.136044;0.086833;0.060036;0.07587;0.080825;0.056461;0.025444;0.019662;0.014144;0.006517;0.005915;0.004288;0.003692;0.002615;0.002033;0.001447;0.00127;0.00101;0.000844;0.569218;0.610262;0.874005;1.17258;1.75332;2.07274;1.26973;0.887479;0.577319;0.428654;0.285915;0.18485;0.147371;0.19153;0.202435;0.127769;0.114753;0.122378;0.095828;0.110898;0.099213;0.093631;0.06854;0.039862;0.030242;0.020997;0.01485;0.007613;0.004738;0.003887;0.002957;0.002492;0.001689;0.001316;0.001057;0.000904;0.751323;0.784364;1.24851;1.58639;2.26932;1.52834;2.96466;1.60823;1.4813;0.786266;0.654364;0.499949;0.415164;0.363523;0.231018;0.18706;0.157814;0.149339;0.15913;0.1377;0.120004;0.103878;0.09702;0.063956;0.049084;0.020158;0.014523;0.011767;0.008747;0.006357;0.004481;0.003214;0.002508;0.002025;0.001737;0.001536;0.5663195;0.6105125;0.892998;1.18607;1.819395;1.817155;1.252565;0.971821;0.6977755;0.570893;0.433628;0.2986225;0.2142535;0.192637;0.2173095;0.1518825;0.147156;0.131284;0.1032505;0.103546;0.084423;0.086186;0.0601205;0.036541;0.0256325;0.01786;0.011055;0.006327;0.00455;0.003698;0.002842;0.0021765;0.0015275;0.0012485;0.001006;0.0008475;0.606066;0.663809;1.0182;1.30479;1.96904;2.07274;1.30706;1.27387;0.774026;0.787531;0.602694;0.393162;0.250989;0.227774;0.232384;0.17528;0.176767;0.138195;0.112168;0.119757;0.101041;0.097157;0.073906;0.043042;0.034201;0.021784;0.014885;0.007662;0.004978;0.004214;0.003216;0.002692;0.001791;0.001411;0.001099;0.000917;0.470481;0.503931;0.750428;0.910224;1.37739;1.65407;1.1604;0.550743;0.545811;0.276576;0.219339;0.173945;0.141965;0.153811;0.166522;0.12062;0.109477;0.118389;0.0859;0.060036;0.048764;0.066703;0.051359;0.023406;0.016109;0.009719;0.006302;0.005626;0.004288;0.003349;0.002325;0.001637;0.001281;0.001125;0.000902;0.000757
