;event_id;event_time;ISC_ev_id;USGS_ev_id;INGV_ev_id;EMSC_ev_id;ev_nation_code;ev_latitude;ev_longitude;ev_depth_km;ev_hyp_ref;fm_type_code;ML;ML_ref;Mw;Mw_ref;Ms;Ms_ref;EMEC_Mw;EMEC_Mw_type;EMEC_Mw_ref;strike_1;dip_1;rake_1;strike_2;dip_2;rake_2;MT_Agency;MT_Identifier;event_source_id;es_strike;es_dip;es_rake;es_strike_dip_rake_ref;es_z_top;es_z_top_ref;es_length;es_width;es_geometry_ref;network_code;station_code;location_code;instrument_code;sensor_depth_m;proximity_code;housing_code;installation_code;st_nation_code;st_latitude;st_longitude;st_elevation;ec8_code;ec8_code_method;ec8_code_ref;vs30_m_sec;vs30_ref;vs30_calc_method;vs30_meas_type;slope_deg;vs30_m_sec_WA;epi_dist;epi_az;JB_dist;rup_dist;Rx_dist;Ry0_dist;instrument_type_code;late_triggered_flag_01;U_channel_code;U_azimuth_deg;V_channel_code;V_azimuth_deg;W_channel_code;U_hp;V_hp;W_hp;U_lp;V_lp;W_lp;U_pga;V_pga;W_pga;rotD50_pga;rotD100_pga;rotD00_pga;U_pgv;V_pgv;W_pgv;rotD50_pgv;rotD100_pgv;rotD00_pgv;U_pgd;V_pgd;W_pgd;rotD50_pgd;rotD100_pgd;rotD00_pgd;U_T90;V_T90;W_T90;rotD50_T90;rotD100_T90;rotD00_T90;U_housner;V_housner;W_housner;rotD50_housner;rotD100_housner;rotD00_housner;U_CAV;V_CAV;W_CAV;rotD50_CAV;rotD100_CAV;rotD00_CAV;U_ia;V_ia;W_ia;rotD50_ia;rotD100_ia;rotD00_ia;U_T0_010;U_T0_025;U_T0_040;U_T0_050;U_T0_070;U_T0_100;U_T0_150;U_T0_200;U_T0_250;U_T0_300;U_T0_350;U_T0_400;U_T0_450;U_T0_500;U_T0_600;U_T0_700;U_T0_750;U_T0_800;U_T0_900;U_T1_000;U_T1_200;U_T1_400;U_T1_600;U_T1_800;U_T2_000;U_T2_500;U_T3_000;U_T3_500;U_T4_000;U_T4_500;U_T5_000;U_T6_000;U_T7_000;U_T8_000;U_T9_000;U_T10_000;V_T0_010;V_T0_025;V_T0_040;V_T0_050;V_T0_070;V_T0_100;V_T0_150;V_T0_200;V_T0_250;V_T0_300;V_T0_350;V_T0_400;V_T0_450;V_T0_500;V_T0_600;V_T0_700;V_T0_750;V_T0_800;V_T0_900;V_T1_000;V_T1_200;V_T1_400;V_T1_600;V_T1_800;V_T2_000;V_T2_500;V_T3_000;V_T3_500;V_T4_000;V_T4_500;V_T5_000;V_T6_000;V_T7_000;V_T8_000;V_T9_000;V_T10_000;W_T0_010;W_T0_025;W_T0_040;W_T0_050;W_T0_070;W_T0_100;W_T0_150;W_T0_200;W_T0_250;W_T0_300;W_T0_350;W_T0_400;W_T0_450;W_T0_500;W_T0_600;W_T0_700;W_T0_750;W_T0_800;W_T0_900;W_T1_000;W_T1_200;W_T1_400;W_T1_600;W_T1_800;W_T2_000;W_T2_500;W_T3_000;W_T3_500;W_T4_000;W_T4_500;W_T5_000;W_T6_000;W_T7_000;W_T8_000;W_T9_000;W_T10_000;rotD50_T0_010;rotD50_T0_025;rotD50_T0_040;rotD50_T0_050;rotD50_T0_070;rotD50_T0_100;rotD50_T0_150;rotD50_T0_200;rotD50_T0_250;rotD50_T0_300;rotD50_T0_350;rotD50_T0_400;rotD50_T0_450;rotD50_T0_500;rotD50_T0_600;rotD50_T0_700;rotD50_T0_750;rotD50_T0_800;rotD50_T0_900;rotD50_T1_000;rotD50_T1_200;rotD50_T1_400;rotD50_T1_600;rotD50_T1_800;rotD50_T2_000;rotD50_T2_500;rotD50_T3_000;rotD50_T3_500;rotD50_T4_000;rotD50_T4_500;rotD50_T5_000;rotD50_T6_000;rotD50_T7_000;rotD50_T8_000;rotD50_T9_000;rotD50_T10_000;rotD100_T0_010;rotD100_T0_025;rotD100_T0_040;rotD100_T0_050;rotD100_T0_070;rotD100_T0_100;rotD100_T0_150;rotD100_T0_200;rotD100_T0_250;rotD100_T0_300;rotD100_T0_350;rotD100_T0_400;rotD100_T0_450;rotD100_T0_500;rotD100_T0_600;rotD100_T0_700;rotD100_T0_750;rotD100_T0_800;rotD100_T0_900;rotD100_T1_000;rotD100_T1_200;rotD100_T1_400;rotD100_T1_600;rotD100_T1_800;rotD100_T2_000;rotD100_T2_500;rotD100_T3_000;rotD100_T3_500;rotD100_T4_000;rotD100_T4_500;rotD100_T5_000;rotD100_T6_000;rotD100_T7_000;rotD100_T8_000;rotD100_T9_000;rotD100_T10_000;rotD00_T0_010;rotD00_T0_025;rotD00_T0_040;rotD00_T0_050;rotD00_T0_070;rotD00_T0_100;rotD00_T0_150;rotD00_T0_200;rotD00_T0_250;rotD00_T0_300;rotD00_T0_350;rotD00_T0_400;rotD00_T0_450;rotD00_T0_500;rotD00_T0_600;rotD00_T0_700;rotD00_T0_750;rotD00_T0_800;rotD00_T0_900;rotD00_T1_000;rotD00_T1_200;rotD00_T1_400;rotD00_T1_600;rotD00_T1_800;rotD00_T2_000;rotD00_T2_500;rotD00_T3_000;rotD00_T3_500;rotD00_T4_000;rotD00_T4_500;rotD00_T5_000;rotD00_T6_000;rotD00_T7_000;rotD00_T8_000;rotD00_T9_000;rotD00_T10_000
1845;EMSC-20130108_0000044;2013-01-08 14:16:09;602216240.0;usp000jy2b;1667271.0;20130108_0000044;GR;39.6681;25.5372;11.1303;ISC;SS;5.8;ATH;5.81;GCMT;5.82;ISC;5.8;Mw;GEOFON;331.0;77.0;-1.0;61.0;88.0;-166.0;GFZ;300037;v0000044;61.0;89.0;-173.0;GCMT;6.42006;from_nulcleation_depth;9.72523;7.06643;empirical_fault;KO;KIYI;0;HN;0.0;;;;TR;41.4844;28.3;23.0;;;;;;;;4.800245;578.339304;308.8;230.1;303.96;304.03;-62.76;297.41;D;0.0;E;90.0;N;0.0;Z;0.04;0.04;0.04;30.0;30.0;30.0;12.284263;-15.757848;10.94137;14.1328805;17.666695;11.497662;1.25698;-1.61841;0.998138;1.556865;1.82428;1.16006;0.521888;-0.544697;0.130575;0.5333;0.657274;0.182363;46.14;38.505;38.22;43.975;49.93;37.51;4.50547;5.82789;3.27061;5.17629;5.88191;4.48658;162.617455762;168.679123129;78.4292338857;165.751983864;175.687794167;150.518510139;0.890913518588;1.0072915097;0.257311321266;0.949102470085;1.16819940872;0.730005691027;12.2859;12.3973;12.365;12.5599;12.5997;14.0012;16.2259;24.1632;29.7286;37.5821;42.1731;48.1631;54.1344;52.6326;38.7616;29.3688;25.7478;21.7444;26.5782;14.2693;10.9336;6.50012;4.78307;3.79384;3.88713;3.18425;3.32705;2.17329;2.31248;2.26589;2.36716;1.39338;0.857149;0.576801;0.440715;0.357872;15.7688;15.7732;15.9583;16.0289;16.8601;19.3279;19.0952;26.5898;46.3997;46.2862;39.4631;61.1778;73.074;56.9001;46.08;39.4204;32.567;27.695;16.8837;16.8217;13.211;7.83487;7.68093;7.78522;7.38495;3.45238;2.97398;2.56977;2.79015;2.49375;2.68535;1.54094;0.925548;0.62494;0.443481;0.337849;10.9424;11.1001;10.9519;11.1316;11.5363;14.6085;12.1795;12.5745;21.8873;16.7046;21.3212;26.7387;27.0704;29.4626;39.4828;50.2669;44.5323;31.0839;15.7738;8.60737;7.68388;4.10136;2.41722;1.8478;1.88149;1.18516;0.995377;1.00618;0.701142;0.695774;0.494758;0.317971;0.262778;0.172405;0.134322;0.101013;14.1401;14.2324;14.51965;14.46365;14.76445;16.507;18.47195;24.7176;37.769;37.81015;41.47895;53.7501;62.95795;64.4379;41.19105;32.6786;31.60945;25.13035;21.56935;15.3964;11.7362;7.02198;6.093765;6.169765;5.89555;3.32439;3.10701;2.353065;2.54152;2.3648;2.529465;1.464805;0.891345;0.600789;0.442018;0.34792;17.6728;17.7169;18.0681;17.6815;18.8346;20.1385;19.3464;26.8701;50.6603;46.2862;49.513;72.3869;73.0739;71.7511;52.6288;40.5475;39.4821;29.4995;30.5037;17.0819;13.2389;7.90475;7.75132;8.18575;8.32142;3.76101;4.23995;3.0863;3.49221;3.26297;3.51074;2.03917;1.25341;0.848278;0.6247;0.491678;11.4997;11.6151;11.5695;11.7545;11.8529;13.7551;16.2259;20.9954;28.9871;32.4389;30.3854;42.2952;51.4561;51.8017;34.6104;26.3649;23.5738;16.6894;11.6952;9.70652;7.97672;4.79794;4.48797;3.23359;2.70199;2.3722;1.72737;1.2927;0.895458;0.726968;0.433884;0.376412;0.240384;0.192024;0.15913;0.145491
1846;EMSC-20130108_0000044;2013-01-08 14:16:09;602216240.0;usp000jy2b;1667271.0;20130108_0000044;GR;39.6681;25.5372;11.1303;ISC;SS;5.8;ATH;5.81;GCMT;5.82;ISC;5.8;Mw;GEOFON;331.0;77.0;-1.0;61.0;88.0;-166.0;GFZ;300037;v0000044;61.0;89.0;-173.0;GCMT;6.42006;from_nulcleation_depth;9.72523;7.06643;empirical_fault;KO;KRBN;0;HN;0.0;;;;TR;38.5936;26.5537;135.0;;;;;;;;5.085015;591.358409;148.2;323.9;147.58;147.85;147.16;12.68;D;0.0;E;90.0;N;0.0;Z;0.04;0.04;0.04;30.0;30.0;30.0;12.859398;18.023993;-14.514436;16.2527185;18.941128;11.748792;1.547797;1.380572;1.412873;1.44618;1.68866;0.972652;0.783933;-0.634926;0.334611;0.7009555;0.982676;0.437794;53.56;44.89;36.54;51.85;62.01;40.37;5.78264;6.68188;5.40053;6.25646;7.49372;4.89647;112.304674669;124.575479371;94.319480366;118.03472369;126.488749026;111.312066522;0.417833647202;0.572439205406;0.386361812821;0.495136427058;0.606596323334;0.38367658801;12.8633;13.2034;13.6276;13.8729;14.3493;16.744;34.4101;34.7281;41.2468;39.5972;23.6353;22.3027;28.8675;21.5877;26.2351;33.7776;36.2526;32.6594;23.7111;21.1608;12.5532;12.5237;8.70792;8.64541;6.45984;4.64481;3.00711;2.25305;2.33453;2.86108;2.51393;1.47009;0.889722;0.948159;1.11103;1.09095;18.0426;18.3425;18.4773;18.2337;19.8193;22.8877;41.5592;47.1263;75.3904;44.5896;31.5585;29.8306;47.0379;38.6165;24.4354;26.0286;23.2326;19.5197;16.5762;20.8333;17.5162;11.838;13.0824;11.8926;8.85126;7.09272;4.14384;3.15377;2.94629;1.84772;1.83062;1.32645;0.910565;0.642551;0.708313;0.818778;14.5241;14.6276;14.9623;14.7409;15.6169;17.514;21.9434;26.5837;27.9276;25.9485;22.8038;32.6008;36.482;46.1928;41.9418;47.7562;47.6423;39.5103;21.5733;16.3248;10.8705;10.6038;8.67021;5.61783;4.24359;3.0014;3.403;1.97172;1.79209;2.39665;1.67043;0.67167;0.566596;0.571655;0.399469;0.348238;16.27535;16.44105;16.9698;17.0188;17.81965;20.60625;38.31425;45.3263;59.8226;41.66315;28.0986;27.82635;39.11745;30.86895;24.4907;30.37265;28.8181;25.8065;20.4831;20.99705;15.3412;11.87175;11.1985;10.65515;7.90453;5.952265;3.56472;2.71902;2.69367;2.19188;2.271215;1.400065;0.9001925;0.80105;0.8737515;0.963508;18.9412;19.245;19.5705;19.5013;21.1688;26.0658;49.5093;48.3738;81.7976;45.4075;32.9918;33.2823;53.2353;41.4462;28.1494;37.1842;38.2782;33.1355;27.6226;28.4875;19.8289;12.834;13.2071;14.361;9.39625;7.7271;4.95945;3.17705;3.03928;3.01192;2.53552;1.95194;1.12869;1.02744;1.22919;1.29244;11.7518;12.0473;12.4672;12.4644;12.7354;15.7764;31.9746;28.997;25.5525;30.2087;17.397;20.0622;18.5559;18.2011;22.2346;23.072;20.0114;15.4207;14.9005;14.4902;12.3806;9.81871;8.37031;7.66441;4.75158;3.6876;3.00711;1.76472;1.72021;1.84773;1.63268;0.758041;0.723082;0.463241;0.36707;0.331533
1847;EMSC-20130108_0000044;2013-01-08 14:16:09;602216240.0;usp000jy2b;1667271.0;20130108_0000044;GR;39.6681;25.5372;11.1303;ISC;SS;5.8;ATH;5.81;GCMT;5.82;ISC;5.8;Mw;GEOFON;331.0;77.0;-1.0;61.0;88.0;-166.0;GFZ;300037;v0000044;61.0;89.0;-173.0;GCMT;6.42006;from_nulcleation_depth;9.72523;7.06643;empirical_fault;KO;ORLT;0;HN;0.0;;;;TR;40.0452;28.8914;650.0;;;;;;;;9.898872;809.755212;290.0;262.8;285.39;285.51;101.81;266.66;D;0.0;E;90.0;N;0.0;Z;0.04;0.04;0.04;30.0;30.0;30.0;-14.531754;-12.231347;-5.946544;13.786431;16.682392;11.491652;-1.412783;1.398639;-0.730996;1.48887;1.61116;1.16912;0.255461;0.532523;-0.224327;0.4418425;0.540636;0.255464;38.345;34.575;57.94;36.9275;39.335;33.635;5.95262;7.1005;3.21414;6.31264;7.29752;5.75454;118.430002347;118.186909414;55.9565530602;118.30845588;121.180480855;116.57463172;0.566092324278;0.547822822298;0.106033038104;0.556957572359;0.572343057693;0.54157215671;14.5355;14.5684;14.6573;14.7622;14.8872;15.6551;19.9773;38.392;40.9827;42.4164;37.7394;43.0905;54.9076;45.953;26.8397;24.7098;18.6544;16.4531;20.5583;23.9481;22.0812;12.7455;10.1905;7.89319;6.37657;3.17331;2.11743;1.07296;1.02397;0.923146;0.622345;0.416456;0.302573;0.242695;0.21985;0.164539;12.2374;12.2899;12.4064;12.5072;12.8961;14.0826;15.831;25.1712;54.3319;36.8528;38.3597;38.9734;40.3664;32.2438;26.9629;27.8755;22.1475;20.9315;21.9841;19.5409;22.7366;13.3427;11.6131;10.922;12.5417;6.21391;2.55814;2.51948;2.03187;1.52934;1.57011;0.860998;0.605492;0.5473;0.545748;0.474721;5.95119;5.96834;5.9857;6.03642;6.16068;6.27224;7.65142;7.801;12.6294;11.806;18.255;13.9952;14.1943;16.3274;9.85832;12.6868;16.693;17.5601;17.2248;11.1526;12.7115;12.3629;5.34872;3.36185;2.50198;1.65956;1.42954;1.27001;0.95568;0.745204;0.563871;0.450587;0.415;0.30441;0.236625;0.189559;13.7981;13.84665;13.99245;14.13225;14.7309;15.65085;18.95585;31.82685;44.43715;40.333;37.3681;41.9373;45.81845;40.3701;25.74315;26.26645;21.78095;18.3102;21.17705;21.34715;22.40895;13.0441;10.77125;9.62694;10.0358;4.82955;2.299745;1.944245;1.499335;1.22214;1.239285;0.7472655;0.545783;0.4353315;0.4348255;0.3609945;16.6939;16.7523;16.8546;16.9664;17.1132;18.398;20.286;41.7801;54.3319;44.4618;39.1788;47.9887;54.9076;46.2358;27.2579;36.021;25.1153;23.3587;29.4266;27.1265;27.5608;16.3555;11.6367;11.6037;12.7521;6.23292;2.77393;2.53832;2.05901;1.52932;1.58448;0.939981;0.611847;0.568653;0.560364;0.474617;11.4982;11.5467;11.6318;11.7014;12.0176;13.0244;15.4398;23.9262;35.5129;34.8547;35.3859;33.1649;34.7001;32.2438;21.6053;15.9409;16.2106;14.5848;13.2918;13.937;9.45003;10.3162;9.51587;5.96396;4.70722;3.15477;1.9306;1.04223;0.92185;0.816871;0.62227;0.4166;0.274594;0.212254;0.187035;0.164953
1848;EMSC-20130108_0000044;2013-01-08 14:16:09;602216240.0;usp000jy2b;1667271.0;20130108_0000044;GR;39.6681;25.5372;11.1303;ISC;SS;5.8;ATH;5.81;GCMT;5.82;ISC;5.8;Mw;GEOFON;331.0;77.0;-1.0;61.0;88.0;-166.0;GFZ;300037;v0000044;61.0;89.0;-173.0;GCMT;6.42006;from_nulcleation_depth;9.72523;7.06643;empirical_fault;KO;SHAP;0;HN;0.0;;;;TR;39.0231;29.222;1050.0;;;;;;;;10.970781;837.645812;325.6;283.9;321.84;321.98;215.51;239.14;D;0.0;E;90.0;N;0.0;Z;0.03;0.03;0.03;30.0;30.0;30.0;-3.388897;-3.605205;-1.443125;3.499206;4.761509;2.954921;0.294301;-0.424108;-0.237737;0.3933915;0.441406;0.291638;0.132756;0.189815;0.145861;0.185269;0.216529;0.132767;76.015;69.98;90.985;73.7625;76.65;68.55;1.45233;1.87369;0.947847;1.650255;1.87369;1.45233;40.7177021128;40.6425678445;26.8897571301;40.6801349787;42.5323745456;38.8251029166;0.0398250193462;0.0439762889426;0.0145087190831;0.041900652231;0.0476133002617;0.0361880104754;3.38984;3.40273;3.42041;3.4816;3.69395;3.79856;4.74376;7.28137;9.134;8.07804;8.01315;11.0928;9.37471;6.65261;5.29359;4.1042;5.08657;4.34112;5.1453;6.30366;4.73007;4.14149;2.2943;1.91946;1.40452;1.13073;0.895975;0.794369;0.557231;0.468686;0.563182;0.611394;0.471885;0.342909;0.25139;0.174766;3.60714;3.63038;3.71028;3.656;3.71932;4.17616;5.51157;5.34481;9.59325;11.4706;10.2501;13.0867;13.8024;10.4148;6.9445;11.184;10.0737;9.29978;7.85506;5.42183;5.31527;4.03663;2.83124;2.43836;1.87958;1.65659;0.964048;0.784352;0.660345;0.823546;0.714138;0.543573;0.470411;0.42471;0.325557;0.259972;1.44479;1.44321;1.44517;1.60168;1.42771;1.72265;2.20099;3.91044;3.91771;3.62454;3.45708;2.87231;4.58521;3.8963;3.96858;3.20763;3.23408;3.40711;3.8945;2.90516;2.6126;2.23431;2.33444;1.7443;1.03244;1.01883;1.09723;0.595298;0.384575;0.322824;0.396952;0.511717;0.440987;0.316875;0.208568;0.180548;3.500175;3.522045;3.587285;3.610055;3.706635;3.980815;5.039005;6.48304;9.37006;9.51738;8.407745;12.0428;11.7703;9.692315;6.140035;8.234985;7.772465;7.42442;6.60054;5.86008;4.89091;4.05462;2.707525;2.07472;1.63275;1.46178;0.888365;0.786174;0.6636305;0.783833;0.6080905;0.5776055;0.471147;0.383202;0.2879575;0.223385;4.76362;4.78324;4.81325;4.91022;5.00165;5.1414;6.04525;7.43981;11.6512;12.8035;10.8161;14.5833;13.8622;11.402;6.97159;11.2198;10.0995;9.33198;7.85506;7.77809;5.31527;4.67565;2.96133;2.43836;2.06197;1.66539;0.99996;0.879404;0.722377;0.889924;0.768678;0.673602;0.565351;0.469362;0.331239;0.260042;2.9583;2.95474;3.00336;2.99464;3.06647;3.422;4.43876;4.81559;7.39663;5.02508;5.65269;7.45893;9.35715;6.40896;5.2538;4.1042;4.8352;4.34112;5.10322;4.02161;4.31868;3.03428;2.14554;1.79785;1.40452;1.05155;0.745027;0.539224;0.481084;0.438055;0.478622;0.374978;0.290532;0.290358;0.226566;0.17477
