;event_id;event_time;ISC_ev_id;USGS_ev_id;INGV_ev_id;EMSC_ev_id;ev_nation_code;ev_latitude;ev_longitude;ev_depth_km;ev_hyp_ref;fm_type_code;ML;ML_ref;Mw;Mw_ref;Ms;Ms_ref;EMEC_Mw;EMEC_Mw_type;EMEC_Mw_ref;strike_1;dip_1;rake_1;strike_2;dip_2;rake_2;MT_Agency;MT_Identifier;event_source_id;es_strike;es_dip;es_rake;es_strike_dip_rake_ref;es_z_top;es_z_top_ref;es_length;es_width;es_geometry_ref;network_code;station_code;location_code;instrument_code;sensor_depth_m;proximity_code;housing_code;installation_code;st_nation_code;st_latitude;st_longitude;st_elevation;ec8_code;ec8_code_method;ec8_code_ref;vs30_m_sec;vs30_ref;vs30_calc_method;vs30_meas_type;slope_deg;vs30_m_sec_WA;epi_dist;epi_az;JB_dist;rup_dist;Rx_dist;Ry0_dist;instrument_type_code;late_triggered_flag_01;U_channel_code;U_azimuth_deg;V_channel_code;V_azimuth_deg;W_channel_code;U_hp;V_hp;W_hp;U_lp;V_lp;W_lp;U_pga;V_pga;W_pga;rotD50_pga;rotD100_pga;rotD00_pga;U_pgv;V_pgv;W_pgv;rotD50_pgv;rotD100_pgv;rotD00_pgv;U_pgd;V_pgd;W_pgd;rotD50_pgd;rotD100_pgd;rotD00_pgd;U_T90;V_T90;W_T90;rotD50_T90;rotD100_T90;rotD00_T90;U_housner;V_housner;W_housner;rotD50_housner;rotD100_housner;rotD00_housner;U_CAV;V_CAV;W_CAV;rotD50_CAV;rotD100_CAV;rotD00_CAV;U_ia;V_ia;W_ia;rotD50_ia;rotD100_ia;rotD00_ia;U_T0_010;U_T0_025;U_T0_040;U_T0_050;U_T0_070;U_T0_100;U_T0_150;U_T0_200;U_T0_250;U_T0_300;U_T0_350;U_T0_400;U_T0_450;U_T0_500;U_T0_600;U_T0_700;U_T0_750;U_T0_800;U_T0_900;U_T1_000;U_T1_200;U_T1_400;U_T1_600;U_T1_800;U_T2_000;U_T2_500;U_T3_000;U_T3_500;U_T4_000;U_T4_500;U_T5_000;U_T6_000;U_T7_000;U_T8_000;U_T9_000;U_T10_000;V_T0_010;V_T0_025;V_T0_040;V_T0_050;V_T0_070;V_T0_100;V_T0_150;V_T0_200;V_T0_250;V_T0_300;V_T0_350;V_T0_400;V_T0_450;V_T0_500;V_T0_600;V_T0_700;V_T0_750;V_T0_800;V_T0_900;V_T1_000;V_T1_200;V_T1_400;V_T1_600;V_T1_800;V_T2_000;V_T2_500;V_T3_000;V_T3_500;V_T4_000;V_T4_500;V_T5_000;V_T6_000;V_T7_000;V_T8_000;V_T9_000;V_T10_000;W_T0_010;W_T0_025;W_T0_040;W_T0_050;W_T0_070;W_T0_100;W_T0_150;W_T0_200;W_T0_250;W_T0_300;W_T0_350;W_T0_400;W_T0_450;W_T0_500;W_T0_600;W_T0_700;W_T0_750;W_T0_800;W_T0_900;W_T1_000;W_T1_200;W_T1_400;W_T1_600;W_T1_800;W_T2_000;W_T2_500;W_T3_000;W_T3_500;W_T4_000;W_T4_500;W_T5_000;W_T6_000;W_T7_000;W_T8_000;W_T9_000;W_T10_000;rotD50_T0_010;rotD50_T0_025;rotD50_T0_040;rotD50_T0_050;rotD50_T0_070;rotD50_T0_100;rotD50_T0_150;rotD50_T0_200;rotD50_T0_250;rotD50_T0_300;rotD50_T0_350;rotD50_T0_400;rotD50_T0_450;rotD50_T0_500;rotD50_T0_600;rotD50_T0_700;rotD50_T0_750;rotD50_T0_800;rotD50_T0_900;rotD50_T1_000;rotD50_T1_200;rotD50_T1_400;rotD50_T1_600;rotD50_T1_800;rotD50_T2_000;rotD50_T2_500;rotD50_T3_000;rotD50_T3_500;rotD50_T4_000;rotD50_T4_500;rotD50_T5_000;rotD50_T6_000;rotD50_T7_000;rotD50_T8_000;rotD50_T9_000;rotD50_T10_000;rotD100_T0_010;rotD100_T0_025;rotD100_T0_040;rotD100_T0_050;rotD100_T0_070;rotD100_T0_100;rotD100_T0_150;rotD100_T0_200;rotD100_T0_250;rotD100_T0_300;rotD100_T0_350;rotD100_T0_400;rotD100_T0_450;rotD100_T0_500;rotD100_T0_600;rotD100_T0_700;rotD100_T0_750;rotD100_T0_800;rotD100_T0_900;rotD100_T1_000;rotD100_T1_200;rotD100_T1_400;rotD100_T1_600;rotD100_T1_800;rotD100_T2_000;rotD100_T2_500;rotD100_T3_000;rotD100_T3_500;rotD100_T4_000;rotD100_T4_500;rotD100_T5_000;rotD100_T6_000;rotD100_T7_000;rotD100_T8_000;rotD100_T9_000;rotD100_T10_000;rotD00_T0_010;rotD00_T0_025;rotD00_T0_040;rotD00_T0_050;rotD00_T0_070;rotD00_T0_100;rotD00_T0_150;rotD00_T0_200;rotD00_T0_250;rotD00_T0_300;rotD00_T0_350;rotD00_T0_400;rotD00_T0_450;rotD00_T0_500;rotD00_T0_600;rotD00_T0_700;rotD00_T0_750;rotD00_T0_800;rotD00_T0_900;rotD00_T1_000;rotD00_T1_200;rotD00_T1_400;rotD00_T1_600;rotD00_T1_800;rotD00_T2_000;rotD00_T2_500;rotD00_T3_000;rotD00_T3_500;rotD00_T4_000;rotD00_T4_500;rotD00_T5_000;rotD00_T6_000;rotD00_T7_000;rotD00_T8_000;rotD00_T9_000;rotD00_T10_000
1839;EMSC-20130108_0000044;2013-01-08 14:16:09;602216240.0;usp000jy2b;1667271.0;20130108_0000044;GR;39.6681;25.5372;11.1303;ISC;SS;5.8;ATH;5.81;GCMT;5.82;ISC;5.8;Mw;GEOFON;331.0;77.0;-1.0;61.0;88.0;-166.0;GFZ;300037;v0000044;61.0;89.0;-173.0;GCMT;6.42006;from_nulcleation_depth;9.72523;7.06643;empirical_fault;KO;ENZZ;0;HN;0.0;;;;TR;40.607;26.1406;11.0;;;;;;;;0.789371;338.348707;116.2;206.4;112.16;112.35;-64.94;91.45;D;0.0;E;90.0;N;0.0;Z;0.04;0.04;0.04;30.0;30.0;30.0;-170.726857;-115.808429;-21.761585;150.284691;176.312988;106.585655;-16.793776;11.962223;2.568392;14.8808;18.1723;11.6416;2.647857;-2.343311;0.738297;2.53394;2.66728;1.70411;32.4;34.84;59.455;32.9375;37.685;31.665;65.0701;41.8395;13.3405;54.48145;68.1977;40.0012;873.078818751;883.547649283;324.545487335;878.313234017;953.794663246;775.566380293;38.6144986153;35.5573250045;3.11437242817;37.0859136128;46.4606675633;27.7111579714;170.837;171.248;171.888;172.952;177.853;182.339;210.948;212.97;369.457;308.628;247.185;222.17;293.629;370.117;379.625;447.455;420.949;427.782;328.426;296.009;214.478;158.647;101.91;69.3897;47.7239;34.6903;21.9989;13.7359;12.0783;9.49425;9.46578;6.60238;3.98359;3.86797;2.59222;2.33687;115.823;116.122;116.849;117.111;119.031;141.272;137.387;176.137;206.438;210.105;273.118;264.196;393.606;464.35;398.9;369.369;332.22;269.774;189.512;127.471;95.1833;70.8161;45.9095;51.5335;33.2819;32.7528;24.9528;11.6321;10.8241;7.98743;8.73851;4.78685;4.0135;2.36554;1.81267;1.47791;21.7924;21.9625;22.7499;22.7449;26.0802;34.2202;57.5029;45.9561;53.6645;61.4241;69.1102;58.6384;82.5064;92.3326;76.4445;100.613;71.3142;43.4328;47.495;51.8131;37.9249;15.4786;21.236;24.298;13.1646;14.2903;11.4057;7.75209;4.95821;3.63;2.99718;1.60573;1.37134;0.828105;0.612471;0.536137;150.3445;150.8315;151.769;152.705;157.12;165.2105;173.5205;212.3115;270.5325;277.3065;248.546;245.156;359.128;424.1795;390.6415;403.45;374.516;366.521;241.923;210.281;173.1835;115.175;82.67585;59.20915;43.75875;32.07575;23.29945;13.511;11.05845;9.26123;9.23114;5.569905;3.998475;3.04005;2.212545;1.992095;176.349;176.578;177.027;177.698;182.855;195.349;236.818;224.454;371.169;312.208;276.765;264.502;429.812;499.49;464.228;499.676;459.947;453.635;333.408;296.186;216.06;159.719;101.909;79.43;56.1807;38.2121;26.3573;15.0927;13.0105;11.6126;10.8101;6.82657;4.5527;3.86805;2.60636;2.33722;106.628;106.992;107.517;108.266;110.99;121.288;137.387;161.89;199.146;205.084;230.785;198.078;205.995;262.756;293.021;320.227;319.734;264.627;154.355;108.42;89.626;61.217;40.9541;31.6294;28.6957;22.1427;11.795;11.4368;9.54216;7.41933;6.70061;3.87039;2.68732;2.21851;1.58106;1.18216
1840;EMSC-20130108_0000044;2013-01-08 14:16:09;602216240.0;usp000jy2b;1667271.0;20130108_0000044;GR;39.6681;25.5372;11.1303;ISC;SS;5.8;ATH;5.81;GCMT;5.82;ISC;5.8;Mw;GEOFON;331.0;77.0;-1.0;61.0;88.0;-166.0;GFZ;300037;v0000044;61.0;89.0;-173.0;GCMT;6.42006;from_nulcleation_depth;9.72523;7.06643;empirical_fault;KO;FOCM;0;HN;0.0;;;;TR;38.7131;26.7309;34.0;;;;;;;;2.86062;489.873133;147.9;316.2;146.66;146.92;143.11;32.61;D;0.0;E;90.0;N;0.0;Z;0.04;0.04;0.04;30.0;30.0;30.0;-12.514443;12.311513;6.645565;12.412978;14.667898;8.582754;1.174895;1.080183;-0.546634;1.197175;1.42168;0.84478;-0.660438;0.735566;0.352645;0.694231;0.895403;0.28265;38.145;32.065;43.75;35.315;42.115;29.465;5.43235;3.92735;2.40895;4.91516;5.54787;3.81035;84.8903386138;82.2502956108;54.4745144462;83.3248770251;85.6982246764;79.9355391812;0.322523307614;0.306814634373;0.107914220213;0.314668985442;0.373596791856;0.2557411653;12.522;12.5639;12.9994;12.9481;13.9488;15.4897;28.9689;41.2442;31.9728;32.3273;45.1958;59.8629;45.2121;31.6043;19.0255;16.3688;13.1063;13.5168;18.555;18.9572;11.8765;10.5548;11.2335;8.33929;5.96852;6.72458;5.09018;3.48939;2.08259;1.89018;2.37839;1.06319;0.57586;0.633515;0.77258;0.691272;12.3441;12.444;12.757;12.6896;12.7132;19.9515;26.7401;39.3732;29.9126;46.7141;53.6742;26.5125;22.0709;23.5076;16.1617;12.3919;11.137;12.0014;8.89989;7.44527;8.79274;7.33565;7.3687;5.86833;5.19935;4.60467;5.41559;3.20861;2.87054;2.83583;2.48411;1.49189;0.928016;0.590632;0.741538;0.668512;6.64999;6.72845;6.75358;6.58532;7.12663;11.0367;14.8207;23.403;18.8484;17.4274;16.1471;19.8483;15.9683;13.649;7.22016;6.33064;6.40294;6.60798;6.7052;5.47435;3.50079;3.63415;3.6199;5.26056;4.55302;3.48024;2.95944;1.28526;1.27091;1.2985;1.43836;0.809097;0.554397;0.414621;0.288415;0.22324;12.43305;12.50395;12.8782;12.81885;13.41705;17.57165;27.76545;40.90365;30.74385;39.7537;49.60665;46.8299;36.693;28.21255;16.41;14.0386;11.35015;12.0242;14.1807;13.8454;9.9843;9.70354;9.75174;8.185475;5.786435;6.17617;5.258455;3.15181;2.42095;2.50886;2.43125;1.27217;0.7650815;0.610552;0.75721;0.679744;14.6914;14.8189;15.1035;15.4206;16.209;21.6874;31.4206;46.3131;36.6834;52.8557;69.7963;63.2189;46.5037;32.6268;19.1699;19.8536;14.9593;14.8602;18.6546;19.2931;13.7823;12.5573;11.447;9.52367;7.17736;8.03748;6.69979;3.57896;2.87053;3.24203;3.28083;1.76199;1.03971;0.764956;1.04587;0.961291;8.60136;8.73379;8.95977;9.29718;10.9601;14.1547;24.2862;27.683;21.3901;23.3362;25.2396;21.3411;19.8015;22.4521;13.6047;9.17768;9.67822;10.6822;7.83149;7.19016;6.92393;6.28984;6.06469;5.84719;5.14609;3.25076;2.82302;2.63017;1.66701;1.46041;1.32374;0.613532;0.408639;0.330283;0.317988;0.260069
1841;EMSC-20130108_0000044;2013-01-08 14:16:09;602216240.0;usp000jy2b;1667271.0;20130108_0000044;GR;39.6681;25.5372;11.1303;ISC;SS;5.8;ATH;5.81;GCMT;5.82;ISC;5.8;Mw;GEOFON;331.0;77.0;-1.0;61.0;88.0;-166.0;GFZ;300037;v0000044;61.0;89.0;-173.0;GCMT;6.42006;from_nulcleation_depth;9.72523;7.06643;empirical_fault;KO;GMLD;0;HN;0.0;;;;TR;38.0764;26.8747;10.0;;;;;;;;9.985842;812.011087;211.4;327.1;211.02;211.25;210.95;9.23;D;0.0;E;90.0;N;0.0;Z;0.05;0.05;0.05;30.0;30.0;30.0;-11.916812;-12.937232;-6.088203;12.947393;14.469734;11.040295;1.116421;1.507656;0.419905;1.21154;1.56216;1.11428;0.27218;-0.509913;-0.152476;0.405381;0.552141;0.162909;35.82;37.475;45.31;35.9125;37.645;35.42;4.16513;4.77415;1.97124;4.413465;4.78501;4.09779;129.51755936;120.921430274;53.5002033039;124.989100318;130.872074998;120.673553648;0.673264606275;0.579820662819;0.100571177008;0.62654261598;0.681804680522;0.571280556334;11.9201;11.9429;12.0376;12.0565;12.2755;13.544;18.4873;28.1255;32.5817;29.7196;49.0178;66.4693;44.6575;43.9377;52.5635;33.8239;29.2336;22.6407;17.1058;12.0868;8.31247;5.59103;3.81805;3.14907;3.16908;2.62318;1.54941;0.859205;0.681928;0.777845;0.567598;0.329109;0.241758;0.210513;0.254827;0.288839;12.9387;13.0203;12.9322;13.1881;13.6092;14.5144;15.8643;28.5542;24.5072;30.0398;38.7358;41.6588;47.7727;49.7642;54.3929;40.8225;31.5338;25.4067;15.5226;12.9041;9.31495;5.02967;4.57352;5.42565;4.29494;4.43095;2.36548;1.98356;1.53239;1.50308;1.35524;1.14939;0.662321;0.593656;0.713231;0.633716;6.09108;6.16141;6.10933;6.11032;6.18268;6.38112;6.9273;11.9781;19.8943;15.111;23.78;18.238;20.0798;15.3641;14.4829;11.5535;10.1606;7.59635;5.61163;5.0717;4.79603;3.92682;3.25925;2.99736;2.04795;1.16886;1.06587;0.721372;0.591996;0.519976;0.666489;0.270548;0.264363;0.240141;0.20444;0.142563;12.94895;12.9968;13.0129;13.19585;13.45095;14.4415;18.33175;27.84995;27.06135;32.3817;49.22785;54.0667;46.4477;46.06755;52.6035;38.08425;30.93675;24.4381;15.3115;11.8434;8.054655;5.400985;4.01398;4.37685;4.06325;3.288485;2.062195;1.518985;1.161375;1.13269;1.010148;0.8369755;0.509067;0.4472195;0.524147;0.493861;14.4791;14.5695;14.5713;14.8928;15.1026;15.8204;19.324;31.6334;32.7036;35.2128;58.7336;70.3745;54.1554;53.4946;61.7938;44.5724;35.2248;26.7352;17.5441;13.4169;9.31495;5.6396;4.90491;5.45147;5.03094;4.43096;2.37358;2.12669;1.56761;1.56009;1.41042;1.16876;0.678668;0.605349;0.74125;0.680391;11.0505;11.0896;11.0872;11.1298;11.2478;13.0075;14.7182;22.237;24.5072;28.2304;32.4722;38.8094;37.5902;36.7715;42.3912;31.2857;24.8035;19.0878;12.4262;9.31192;6.98839;4.68674;3.34228;2.70051;2.5505;2.35264;0.92854;0.750119;0.543272;0.531986;0.418435;0.30444;0.201224;0.143419;0.12405;0.112492
1842;EMSC-20130108_0000044;2013-01-08 14:16:09;602216240.0;usp000jy2b;1667271.0;20130108_0000044;GR;39.6681;25.5372;11.1303;ISC;SS;5.8;ATH;5.81;GCMT;5.82;ISC;5.8;Mw;GEOFON;331.0;77.0;-1.0;61.0;88.0;-166.0;GFZ;300037;v0000044;61.0;89.0;-173.0;GCMT;6.42006;from_nulcleation_depth;9.72523;7.06643;empirical_fault;KO;GOKC;0;HN;0.0;;;;TR;40.1998;25.9183;123.0;;;;;;;;9.077905;788.517904;67.4;209.0;63.26;63.58;-34.96;52.72;D;0.0;E;90.0;N;0.0;Z;0.04;0.04;0.04;30.0;30.0;30.0;125.454167;-92.81634;-55.849155;104.1938935;147.158722;84.096214;7.107743;-7.988153;-4.102463;7.371495;9.60931;5.02251;-1.89023;-1.490918;-1.213912;1.651045;1.91982;1.31273;16.345;17.005;22.195;16.5975;17.02;16.345;30.7924;33.1839;20.2027;31.7896;35.4229;28.6937;462.855004859;457.605358337;353.596528854;462.845935009;467.650423838;451.308494505;15.8293142302;14.7891643707;7.81468942577;15.3092402297;15.9887660014;14.6297125275;126.57;131.231;142.942;163.573;190.32;464.553;305.695;279.597;229.809;210.902;201.161;204.933;239.613;171.895;184.929;161.669;160.876;155.869;124.892;83.0472;84.6773;62.734;42.0859;31.8845;28.0017;28.2027;9.60826;9.23252;7.55942;5.93507;4.73873;2.77106;2.3154;2.11564;1.60147;1.34139;93.1567;96.2103;107.745;112.583;154.771;209.473;245.351;268.895;217.456;267.104;229.995;176.739;243.992;157.161;200.258;158.697;129.272;144.318;174.229;167.667;64.5734;55.4739;65.8903;45.298;29.4025;26.066;10.9386;11.4773;7.62871;5.94263;5.03358;4.41561;2.72349;1.54129;1.3087;1.09289;56.0868;56.7402;58.8502;81.9293;109.699;134.201;172.799;155.681;132.354;117.672;121.297;103.887;154.291;113.818;118.58;87.6609;98.2756;106.604;65.9008;69.8956;60.1292;35.6533;40.0398;23.6899;18.7384;16.6272;9.79174;7.36223;5.98244;6.87024;6.21312;3.86021;2.70756;1.8025;1.2697;0.763359;104.6855;108.1735;115.4015;126.7115;158.8085;344.726;262.2255;294.9735;234.3565;243.169;226.753;201.169;228.159;155.9895;190.501;161.7465;139.4695;144.8845;136.9715;135.567;77.59395;59.6779;49.8179;39.2617;28.7021;27.08235;10.31895;10.43625;7.9552;5.93885;4.78372;3.76542;2.60701;2.036965;1.44696;1.229405;147.823;152.788;163.203;174.394;221.183;487.005;339.933;331.05;253.329;280.823;253.539;229.751;243.992;171.895;210.029;171.399;169.993;158.212;182.311;170.537;90.8776;67.177;67.8192;51.2572;37.464;33.2813;11.8302;11.7315;8.88396;7.3826;5.03361;4.41701;3.24254;2.18906;1.65399;1.35803;84.0966;85.8539;86.1393;102.049;140.366;209.473;238.108;226.601;192.953;162.703;154.041;162.41;177.199;135.749;177.832;133.38;105.245;128.109;117.514;80.9425;62.8255;48.0474;33.5649;27.7101;19.7583;14.8235;8.39851;5.45104;6.34564;5.01386;3.97587;2.36641;2.2914;1.47291;1.08124;0.936797
1843;EMSC-20130108_0000044;2013-01-08 14:16:09;602216240.0;usp000jy2b;1667271.0;20130108_0000044;GR;39.6681;25.5372;11.1303;ISC;SS;5.8;ATH;5.81;GCMT;5.82;ISC;5.8;Mw;GEOFON;331.0;77.0;-1.0;61.0;88.0;-166.0;GFZ;300037;v0000044;61.0;89.0;-173.0;GCMT;6.42006;from_nulcleation_depth;9.72523;7.06643;empirical_fault;KO;GOMA;0;HN;0.0;;;;TR;38.7077;27.9175;110.0;;;;;;;;4.08679;545.767803;231.6;298.2;228.87;229.07;193.29;122.76;D;0.0;E;90.0;N;0.0;Z;0.04;0.04;0.04;30.0;30.0;30.0;-5.465577;4.237814;2.324424;4.4571565;5.770603;3.85179;0.619665;-0.580419;-0.3927;0.577433;0.673793;0.537213;-0.22241;-0.273805;0.222252;0.2493025;0.334198;0.154224;55.63;57.025;69.205;56.2725;59.23;52.99;2.66171;3.25363;1.6201;3.03579;3.27678;2.4946;51.0744905696;41.987077915;28.982165973;46.7053665781;51.1738603582;41.987077915;0.0829495504684;0.0544385221934;0.0213092295853;0.0686940381674;0.0829945883992;0.0543934909735;5.46691;5.48872;5.51962;5.56353;5.69646;6.08215;6.92194;10.4034;13.607;10.9243;17.9031;22.1807;20.9137;16.1242;11.6386;9.52308;7.55752;8.43019;9.84419;11.9791;8.6527;5.86695;4.65194;3.83666;2.56062;2.21135;1.40007;0.833906;0.684408;0.606565;0.537856;0.587305;0.416554;0.336491;0.219371;0.181549;4.23809;4.23791;4.27316;4.29825;4.28103;4.27995;4.92276;8.45638;7.7349;10.3431;11.9523;10.3829;8.64622;8.04354;7.94072;8.26373;6.37189;7.11582;10.8133;11.231;7.92611;7.42749;7.18538;7.74998;5.7066;3.15943;1.92026;1.47402;1.25421;0.91288;0.914417;0.683946;0.458061;0.298577;0.23786;0.20548;2.32443;2.34735;2.4147;2.41727;2.46068;2.70233;3.71213;7.77832;5.65691;4.42;4.11121;6.10149;3.66939;4.09264;3.48926;4.23985;3.53763;4.20379;4.22102;5.27745;5.37149;4.76495;3.2772;3.48224;2.13833;1.32168;1.32387;0.985226;0.703949;0.678269;1.16142;0.937388;0.670902;0.43722;0.368586;0.285274;4.459665;4.48995;4.4931;4.5225;4.61979;4.897075;5.95562;8.684175;10.092345;10.7222;15.76015;16.3984;16.19355;11.73165;10.74445;8.23056;7.55465;7.775605;10.6374;11.6396;8.200235;6.525705;5.993195;6.13052;4.568375;2.7629;1.66542;1.089555;0.948562;0.75223;0.8098535;0.6000085;0.4193095;0.330242;0.2305155;0.1949695;5.77062;5.78633;5.83554;5.8765;6.01809;6.38487;7.10922;10.5747;13.6638;12.9298;19.1587;22.1807;21.1122;16.591;11.8776;9.58668;7.94328;9.40259;11.6374;14.0622;8.92358;7.66952;7.83829;8.34224;5.83021;3.68289;2.20032;1.48943;1.29831;0.930017;0.925957;0.727;0.488161;0.379051;0.289609;0.246557;3.85546;3.86776;3.87597;3.92302;3.94926;4.06299;4.6653;7.84224;7.47001;8.38716;9.51777;10.063;8.2632;6.63138;7.06936;6.40347;5.71126;6.46042;7.20247;9.6175;4.84909;5.17822;3.64357;2.85082;1.86315;1.54423;1.18559;0.78094;0.684406;0.555268;0.48675;0.451367;0.355434;0.195352;0.143591;0.113664
1844;EMSC-20130108_0000044;2013-01-08 14:16:09;602216240.0;usp000jy2b;1667271.0;20130108_0000044;GR;39.6681;25.5372;11.1303;ISC;SS;5.8;ATH;5.81;GCMT;5.82;ISC;5.8;Mw;GEOFON;331.0;77.0;-1.0;61.0;88.0;-166.0;GFZ;300037;v0000044;61.0;89.0;-173.0;GCMT;6.42006;from_nulcleation_depth;9.72523;7.06643;empirical_fault;KO;GPNR;0;HN;0.0;;;;TR;39.4552;26.1329;570.0;;;;;;;;6.896829;693.349986;56.4;295.0;53.66;54.14;45.98;27.87;D;0.0;E;90.0;N;0.0;Z;0.03;0.03;0.03;30.0;30.0;30.0;63.005745;-82.567309;38.376727;74.8324665;83.045113;58.17271;4.811987;-4.742254;2.581539;4.77712;6.73175;3.50331;1.444942;1.280822;1.015685;1.30674;1.62768;1.16613;26.73;25.3;23.27;25.875;27.415;24.38;17.7752;18.0833;9.03185;18.0342;19.4242;16.2108;408.628938356;414.98522468;252.519184004;413.125124638;421.089876892;402.543871797;9.039255767;10.3468774622;3.44279756593;9.6930666035;10.7601964417;8.62593794373;63.3725;64.7112;72.3881;98.1225;110.308;170.678;203.655;203.215;168.811;159.362;126.166;129.972;135.027;104.813;112.854;113.792;102.065;87.464;71.3753;52.8203;45.6296;29.1336;28.1688;22.1849;22.4799;10.0603;6.99078;7.03209;3.92168;3.58046;3.13009;2.8357;2.38216;1.64979;0.989424;0.7111;82.5762;84.3479;87.6723;92.7638;122.044;153.142;256.228;135.427;258.501;235.451;192.228;121.689;139.778;145.674;105.433;102.307;76.1049;52.3782;52.7279;44.8862;37.8116;33.8547;36.2535;20.2072;16.3084;12.5057;12.5816;6.75687;4.63794;4.74498;5.14708;3.50825;1.6814;1.10149;1.20214;1.02247;38.407;40.0251;44.4754;56.721;95.9687;131.613;139.831;80.9382;99.8862;69.0859;60.1701;46.8512;37.9633;33.8548;35.1608;40.2072;33.1278;24.1608;18.9456;27.7959;37.9911;19.8635;16.2262;11.5193;8.4924;8.90349;4.82821;3.3811;2.85076;3.00276;2.0068;1.78418;1.97734;1.49404;1.10817;0.82925;74.94835;76.29225;79.56865;94.10795;117.5625;166.1455;219.4295;168.3055;221.5385;188.629;162.521;131.3325;136.9425;116.6585;111.6895;101.7005;87.30295;70.9188;60.9555;50.03225;39.56525;32.1927;34.60555;22.3716;20.7796;11.30475;10.26395;7.02643;4.927375;4.852715;4.05885;3.203455;2.07327;1.412555;1.06116;0.906759;83.1003;84.8307;88.4515;104.368;137.626;187.802;257.476;205.586;273.771;248.695;229.513;137.803;145.732;145.674;131.034;120.765;114.513;96.5673;72.4471;55.0058;50.1953;36.1786;37.7046;24.6285;23.6981;12.6319;12.5816;7.5385;5.44107;5.49972;5.65926;4.30607;2.87709;1.66166;1.20222;1.05445;58.182;61.0724;70.8254;86.8167;99.8425;128.381;162.214;133.421;151.915;136.433;96.3277;116.148;108.235;95.2742;88.5127;69.9742;69.7511;47.422;45.3569;36.0954;32.691;27.6555;22.5519;18.9868;15.8822;8.81681;6.04927;5.17605;3.92171;3.30129;3.05275;2.0591;1.1799;1.05418;0.929475;0.675351
