;event_id;event_time;ISC_ev_id;USGS_ev_id;INGV_ev_id;EMSC_ev_id;ev_nation_code;ev_latitude;ev_longitude;ev_depth_km;ev_hyp_ref;fm_type_code;ML;ML_ref;Mw;Mw_ref;Ms;Ms_ref;EMEC_Mw;EMEC_Mw_type;EMEC_Mw_ref;strike_1;dip_1;rake_1;strike_2;dip_2;rake_2;MT_Agency;MT_Identifier;event_source_id;es_strike;es_dip;es_rake;es_strike_dip_rake_ref;es_z_top;es_z_top_ref;es_length;es_width;es_geometry_ref;network_code;station_code;location_code;instrument_code;sensor_depth_m;proximity_code;housing_code;installation_code;st_nation_code;st_latitude;st_longitude;st_elevation;ec8_code;ec8_code_method;ec8_code_ref;vs30_m_sec;vs30_ref;vs30_calc_method;vs30_meas_type;slope_deg;vs30_m_sec_WA;epi_dist;epi_az;JB_dist;rup_dist;Rx_dist;Ry0_dist;instrument_type_code;late_triggered_flag_01;U_channel_code;U_azimuth_deg;V_channel_code;V_azimuth_deg;W_channel_code;U_hp;V_hp;W_hp;U_lp;V_lp;W_lp;U_pga;V_pga;W_pga;rotD50_pga;rotD100_pga;rotD00_pga;U_pgv;V_pgv;W_pgv;rotD50_pgv;rotD100_pgv;rotD00_pgv;U_pgd;V_pgd;W_pgd;rotD50_pgd;rotD100_pgd;rotD00_pgd;U_T90;V_T90;W_T90;rotD50_T90;rotD100_T90;rotD00_T90;U_housner;V_housner;W_housner;rotD50_housner;rotD100_housner;rotD00_housner;U_CAV;V_CAV;W_CAV;rotD50_CAV;rotD100_CAV;rotD00_CAV;U_ia;V_ia;W_ia;rotD50_ia;rotD100_ia;rotD00_ia;U_T0_010;U_T0_025;U_T0_040;U_T0_050;U_T0_070;U_T0_100;U_T0_150;U_T0_200;U_T0_250;U_T0_300;U_T0_350;U_T0_400;U_T0_450;U_T0_500;U_T0_600;U_T0_700;U_T0_750;U_T0_800;U_T0_900;U_T1_000;U_T1_200;U_T1_400;U_T1_600;U_T1_800;U_T2_000;U_T2_500;U_T3_000;U_T3_500;U_T4_000;U_T4_500;U_T5_000;U_T6_000;U_T7_000;U_T8_000;U_T9_000;U_T10_000;V_T0_010;V_T0_025;V_T0_040;V_T0_050;V_T0_070;V_T0_100;V_T0_150;V_T0_200;V_T0_250;V_T0_300;V_T0_350;V_T0_400;V_T0_450;V_T0_500;V_T0_600;V_T0_700;V_T0_750;V_T0_800;V_T0_900;V_T1_000;V_T1_200;V_T1_400;V_T1_600;V_T1_800;V_T2_000;V_T2_500;V_T3_000;V_T3_500;V_T4_000;V_T4_500;V_T5_000;V_T6_000;V_T7_000;V_T8_000;V_T9_000;V_T10_000;W_T0_010;W_T0_025;W_T0_040;W_T0_050;W_T0_070;W_T0_100;W_T0_150;W_T0_200;W_T0_250;W_T0_300;W_T0_350;W_T0_400;W_T0_450;W_T0_500;W_T0_600;W_T0_700;W_T0_750;W_T0_800;W_T0_900;W_T1_000;W_T1_200;W_T1_400;W_T1_600;W_T1_800;W_T2_000;W_T2_500;W_T3_000;W_T3_500;W_T4_000;W_T4_500;W_T5_000;W_T6_000;W_T7_000;W_T8_000;W_T9_000;W_T10_000;rotD50_T0_010;rotD50_T0_025;rotD50_T0_040;rotD50_T0_050;rotD50_T0_070;rotD50_T0_100;rotD50_T0_150;rotD50_T0_200;rotD50_T0_250;rotD50_T0_300;rotD50_T0_350;rotD50_T0_400;rotD50_T0_450;rotD50_T0_500;rotD50_T0_600;rotD50_T0_700;rotD50_T0_750;rotD50_T0_800;rotD50_T0_900;rotD50_T1_000;rotD50_T1_200;rotD50_T1_400;rotD50_T1_600;rotD50_T1_800;rotD50_T2_000;rotD50_T2_500;rotD50_T3_000;rotD50_T3_500;rotD50_T4_000;rotD50_T4_500;rotD50_T5_000;rotD50_T6_000;rotD50_T7_000;rotD50_T8_000;rotD50_T9_000;rotD50_T10_000;rotD100_T0_010;rotD100_T0_025;rotD100_T0_040;rotD100_T0_050;rotD100_T0_070;rotD100_T0_100;rotD100_T0_150;rotD100_T0_200;rotD100_T0_250;rotD100_T0_300;rotD100_T0_350;rotD100_T0_400;rotD100_T0_450;rotD100_T0_500;rotD100_T0_600;rotD100_T0_700;rotD100_T0_750;rotD100_T0_800;rotD100_T0_900;rotD100_T1_000;rotD100_T1_200;rotD100_T1_400;rotD100_T1_600;rotD100_T1_800;rotD100_T2_000;rotD100_T2_500;rotD100_T3_000;rotD100_T3_500;rotD100_T4_000;rotD100_T4_500;rotD100_T5_000;rotD100_T6_000;rotD100_T7_000;rotD100_T8_000;rotD100_T9_000;rotD100_T10_000;rotD00_T0_010;rotD00_T0_025;rotD00_T0_040;rotD00_T0_050;rotD00_T0_070;rotD00_T0_100;rotD00_T0_150;rotD00_T0_200;rotD00_T0_250;rotD00_T0_300;rotD00_T0_350;rotD00_T0_400;rotD00_T0_450;rotD00_T0_500;rotD00_T0_600;rotD00_T0_700;rotD00_T0_750;rotD00_T0_800;rotD00_T0_900;rotD00_T1_000;rotD00_T1_200;rotD00_T1_400;rotD00_T1_600;rotD00_T1_800;rotD00_T2_000;rotD00_T2_500;rotD00_T3_000;rotD00_T3_500;rotD00_T4_000;rotD00_T4_500;rotD00_T5_000;rotD00_T6_000;rotD00_T7_000;rotD00_T8_000;rotD00_T9_000;rotD00_T10_000
132;EMSC-20040918_0000026;2004-09-18 12:52:14;7402659.0;usp000d4jb;;20040918_0000026;ES;42.9545;-1.6035;1.591;ISC;NF;4.3;IGIL;4.5;IAG;3.89;ISC;4.36;Mw;CSD11;;;;;;;;;;;;;;;;;;;RA;PYAS;0;HN;0.0;;;;FR;43.0119;0.797306;430.0;A;VS30;Dechamp_et_al_2014;1089.0;Hollender_et_al_2017;0.0;SWDCI;7.258524;715.785401;195.9;269.0;;;;;D;0.0;E;90.0;N;0.0;Z;0.1;0.1;0.1;30.0;30.0;30.0;0.14429;-0.272496;0.180655;0.1947315;0.272496;0.140369;-0.009126;-0.013767;0.009929;0.01114905;0.0137744;0.00833069;0.001212;0.002247;0.00178;0.002139015;0.00236872;0.00119862;37.25;30.48;34.99;34.04;37.73;29.905;0.0332101;0.0450478;0.0296976;0.03998745;0.0455605;0.0330927;1.04142108558;1.17466034974;0.945056545039;1.11604070003;1.17933039544;1.03134338026;5.67886417421e-05;8.64410883609e-05;4.86620979857e-05;7.16148590154e-05;8.78108026124e-05;5.54188983003e-05;0.144721;0.14614;0.156836;0.168155;0.236532;0.300797;0.578817;0.445479;0.417035;0.421013;0.385929;0.322933;0.259608;0.247277;0.312165;0.209786;0.170435;0.103732;0.109754;0.119621;0.078826;0.091841;0.045446;0.029266;0.021735;0.010584;0.006947;0.006512;0.006671;0.004719;0.004167;0.003435;0.002332;0.001803;0.001222;0.000949;0.272539;0.276107;0.293163;0.295209;0.373923;0.532108;0.764004;0.98616;0.452186;0.409024;0.582254;0.363487;0.297496;0.358314;0.205301;0.257009;0.281633;0.306331;0.233298;0.128683;0.096652;0.07258;0.067135;0.060633;0.039463;0.017737;0.013471;0.011263;0.010412;0.009909;0.008747;0.005436;0.004082;0.003114;0.002368;0.001846;0.18115;0.183244;0.186547;0.19129;0.211873;0.272368;0.502209;0.53444;0.445197;0.331821;0.409018;0.344018;0.257795;0.228426;0.172379;0.226757;0.201023;0.149979;0.103222;0.105745;0.081954;0.044359;0.036667;0.02479;0.022532;0.012161;0.009491;0.009325;0.006116;0.00571;0.00537;0.003999;0.003299;0.003023;0.001965;0.001412;0.1947345;0.1990675;0.209175;0.2231995;0.2866335;0.418256;0.5813865;0.7031525;0.454589;0.4146505;0.4571045;0.3529735;0.296018;0.279201;0.2756705;0.2234515;0.203022;0.2199665;0.1663235;0.1241185;0.084824;0.083503;0.0634695;0.0483715;0.034432;0.0131455;0.00992;0.009528;0.0078595;0.007035;0.006774;0.004846;0.003446;0.002639;0.002101;0.001683;0.272539;0.276107;0.293299;0.295209;0.377097;0.537313;0.764004;0.993705;0.563996;0.482218;0.629084;0.392655;0.334609;0.389414;0.329778;0.270808;0.283168;0.306331;0.233298;0.160402;0.114861;0.092068;0.067936;0.061215;0.040795;0.01774;0.01347;0.011547;0.010772;0.009912;0.008878;0.005464;0.004092;0.003266;0.002416;0.001944;0.140592;0.141844;0.151421;0.166613;0.227325;0.273202;0.492873;0.445479;0.371242;0.323738;0.28064;0.284989;0.254396;0.201014;0.204904;0.176069;0.155566;0.103732;0.105958;0.11122;0.07346;0.068653;0.041179;0.027244;0.020455;0.010159;0.006761;0.006474;0.006184;0.004174;0.003856;0.003119;0.002231;0.00176;0.001219;0.000931
133;EMSC-20040918_0000026;2004-09-18 12:52:14;7402659.0;usp000d4jb;;20040918_0000026;ES;42.9545;-1.6035;1.591;ISC;NF;4.3;IGIL;4.5;IAG;3.89;ISC;4.36;Mw;CSD11;;;;;;;;;;;;;;;;;;;RA;PYAT;0;HN;0.0;;;;FR;43.0942;-0.7133;340.0;A;VS30;Dechamp_et_al_2014;1164.0;Hollender_et_al_2017;0.0;SWDCI;9.700524;804.614833;74.2;258.2;;;;;D;0.0;E;90.0;N;0.0;Z;0.1;0.1;0.1;30.0;30.0;30.0;-0.951552;-1.135373;0.660206;1.083883;1.250904;0.744259;0.045215;-0.070493;0.046222;0.0645164;0.0724838;0.0431496;-0.007141;-0.01652;-0.00848;0.0117427;0.0165696;0.00695813;17.81;15.47;20.775;16.3875;17.905;15.47;0.162533;0.272827;0.139117;0.2311635;0.280364;0.158271;3.80608305823;4.61317778613;3.14777769518;4.22677661689;4.84093443471;3.485226105;0.00125655220269;0.00201536925656;0.000840256999462;0.00163596079865;0.00220126492593;0.00107065667619;0.953363;0.99215;1.17516;1.12801;2.38735;2.07555;1.84343;2.26477;1.96371;1.91668;1.81851;1.85762;2.46551;2.63115;1.37016;0.783785;0.859659;0.770719;0.705863;0.529847;0.435947;0.230324;0.169781;0.12785;0.103442;0.050862;0.054701;0.048825;0.046915;0.035602;0.024342;0.020044;0.013816;0.009473;0.006735;0.005317;1.1432;1.21101;1.56717;1.68761;2.52304;2.8609;3.04592;3.02403;3.39687;3.75702;1.98711;2.33768;2.5509;1.52097;1.2932;0.98666;1.15877;1.46225;1.72314;0.990215;0.77263;0.508837;0.4575;0.309512;0.24259;0.126608;0.127469;0.08195;0.065949;0.055709;0.042082;0.025978;0.019967;0.015647;0.013261;0.011131;0.66294;0.675391;0.827167;0.983744;1.08753;1.38798;1.24424;2.3554;1.7376;2.38954;1.34711;1.29021;1.45137;1.23658;1.02802;0.680049;0.816075;0.72918;0.552679;0.59612;0.447732;0.237832;0.147583;0.111165;0.070826;0.060033;0.097045;0.065155;0.053186;0.043965;0.0314;0.018752;0.012593;0.009348;0.006567;0.00482;1.089995;1.154785;1.37367;1.513815;2.454885;2.49333;2.464475;2.734265;2.854245;2.98039;1.829475;2.13526;2.51482;2.1261;1.316725;1.009755;1.03033;1.124425;1.254735;0.8270735;0.6083755;0.3996205;0.3450635;0.2365325;0.180383;0.097323;0.09504;0.0692255;0.0566475;0.04339;0.0331455;0.024759;0.0176095;0.01292;0.0094645;0.0079285;1.25982;1.31418;1.57694;1.69315;3.13224;3.40893;3.16112;3.73863;3.63247;4.017;2.11953;2.34364;3.01329;2.66515;1.47681;1.18654;1.32386;1.49841;1.73368;1.05769;0.819634;0.530455;0.487982;0.33448;0.242931;0.129722;0.133924;0.093131;0.069438;0.059892;0.046818;0.02846;0.020684;0.015799;0.01335;0.011207;0.751288;0.766353;0.951443;1.03296;1.42298;1.60339;1.58095;1.69904;1.58679;1.91668;1.5392;1.76407;2.22263;1.49035;0.963222;0.758108;0.835824;0.760758;0.608947;0.529846;0.35604;0.155524;0.128836;0.098143;0.094557;0.050863;0.040685;0.031785;0.025861;0.021814;0.02317;0.015134;0.011339;0.007679;0.005873;0.004988
134;EMSC-20040918_0000026;2004-09-18 12:52:14;7402659.0;usp000d4jb;;20040918_0000026;ES;42.9545;-1.6035;1.591;ISC;NF;4.3;IGIL;4.5;IAG;3.89;ISC;4.36;Mw;CSD11;;;;;;;;;;;;;;;;;;;RA;PYLI;0;HN;0.0;;;;FR;43.0016;1.13606;424.0;A;VS30;Dechamp_et_al_2014;1257.0;Hollender_et_al_2017;0.0;SWDCI;13.859577;913.884557;223.5;269.6;;;;;D;0.0;E;90.0;N;0.0;Z;0.2;0.2;0.2;30.0;30.0;30.0;-0.202745;0.170691;-0.130491;0.17027;0.203338;0.147985;-0.012595;-0.014217;-0.013164;0.0130636;0.0162723;0.00935149;-0.001781;0.001963;0.001726;0.00185623;0.00208877;0.00124522;37.395;35.025;36.835;36.44;42.66;28.64;0.0470153;0.0470509;0.042164;0.04703325;0.0537922;0.0354068;1.3320394;1.00213816018;0.880837854864;1.17189783791;1.33426045512;0.997379200409;8.89358991465e-05;5.6753714908e-05;4.3529518325e-05;7.28448080981e-05;9.19543228997e-05;5.37353102808e-05;0.202928;0.204269;0.207111;0.209758;0.222623;0.298525;0.334737;0.517655;0.545439;0.689744;0.465701;0.629267;0.53589;0.455312;0.457655;0.285782;0.2444;0.229309;0.194523;0.182865;0.103969;0.077508;0.056142;0.052675;0.030699;0.014904;0.012462;0.008485;0.007437;0.00671;0.004265;0.002699;0.001985;0.001515;0.001313;0.001128;0.170724;0.171423;0.173152;0.172253;0.195864;0.198644;0.268077;0.443087;0.459984;0.563363;0.661566;0.515981;0.527917;0.430631;0.389154;0.21208;0.19363;0.182881;0.176934;0.209749;0.15927;0.095728;0.052402;0.041655;0.028171;0.018803;0.011256;0.008767;0.007001;0.005253;0.004066;0.002723;0.001955;0.001612;0.001313;0.001154;0.130819;0.132213;0.136212;0.137001;0.150843;0.184882;0.278587;0.285036;0.38552;0.560217;0.515521;0.335185;0.310424;0.417284;0.40596;0.260498;0.227708;0.216069;0.174036;0.140836;0.094273;0.076568;0.039403;0.048476;0.037051;0.021319;0.015725;0.010472;0.008214;0.006283;0.004993;0.002858;0.001872;0.001482;0.001201;0.001011;0.170317;0.1713505;0.1742915;0.174908;0.20271;0.213453;0.3120795;0.4585345;0.4559095;0.561057;0.5851755;0.5986405;0.523339;0.4427225;0.426297;0.245239;0.214287;0.1841065;0.196185;0.19479;0.1361885;0.081944;0.055471;0.0465885;0.029307;0.0158695;0.0114635;0.00829;0.0067885;0.0052415;0.00393;0.0026285;0.0019335;0.0015595;0.0012825;0.001116;0.203362;0.204691;0.207236;0.210009;0.229989;0.298914;0.344598;0.520551;0.579554;0.719036;0.666174;0.683647;0.540603;0.556517;0.525766;0.300929;0.245754;0.233161;0.214434;0.228934;0.17962;0.106434;0.062883;0.055612;0.034027;0.020703;0.015168;0.008814;0.007433;0.006715;0.004268;0.002817;0.002103;0.001748;0.001418;0.00124;0.148264;0.15104;0.153073;0.153164;0.174513;0.188719;0.253095;0.281778;0.38387;0.385146;0.366903;0.426775;0.464205;0.324296;0.2591;0.176605;0.152436;0.153876;0.171637;0.137595;0.075354;0.044804;0.032451;0.02356;0.018808;0.010615;0.008569;0.006923;0.005324;0.004134;0.003141;0.002027;0.001499;0.001208;0.000979;0.000799
135;EMSC-20040918_0000026;2004-09-18 12:52:14;7402659.0;usp000d4jb;;20040918_0000026;ES;42.9545;-1.6035;1.591;ISC;NF;4.3;IGIL;4.5;IAG;3.89;ISC;4.36;Mw;CSD11;;;;;;;;;;;;;;;;;;;RA;PYLL;0;HN;0.0;;;;FR;42.453;2.065;1430.0;A;VS30;Dechamp_et_al_2014;1100.0;Hollender_et_al_2017;0.0;REFR;17.054823;1000.469552;305.7;281.7;;;;;D;0.0;E;90.0;N;0.0;Z;0.1;0.1;0.1;30.0;30.0;30.0;-0.063371;-0.086334;0.066672;0.0817915;0.097928;0.06292;0.009147;-0.008849;0.007422;0.008897405;0.0108532;0.00645604;-0.002379;-0.001465;0.001379;0.00185669;0.00254295;0.00126515;47.795;39.715;52.25;44.32;48.045;39.715;0.0350245;0.0357846;0.0305;0.035488;0.0377013;0.0338182;0.609363020074;0.668711220464;0.673595530302;0.639840339909;0.669779999782;0.605780949965;1.60919864364e-05;2.33969831198e-05;1.86581692375e-05;1.97444791184e-05;2.36724558453e-05;1.58165220607e-05;0.063502;0.064338;0.064719;0.066671;0.070596;0.099792;0.114554;0.197079;0.195474;0.233471;0.161104;0.222308;0.16973;0.14342;0.172568;0.175562;0.1926;0.201293;0.13886;0.112613;0.076065;0.059137;0.04086;0.04931;0.052429;0.043132;0.027557;0.014219;0.008213;0.005867;0.005834;0.005031;0.003993;0.002052;0.001646;0.001184;0.086334;0.087347;0.08752;0.092043;0.09418;0.113202;0.160057;0.174492;0.209306;0.252713;0.213248;0.230639;0.232812;0.248549;0.272471;0.339024;0.324211;0.202092;0.190485;0.17149;0.093586;0.046732;0.041121;0.03521;0.031946;0.024567;0.016415;0.009531;0.005454;0.00479;0.003736;0.001996;0.001598;0.001371;0.001198;0.000953;0.066678;0.067018;0.067273;0.071676;0.074843;0.077743;0.098808;0.135897;0.153101;0.170581;0.234455;0.245629;0.225707;0.215276;0.208001;0.196605;0.160599;0.13487;0.120216;0.107554;0.073266;0.061142;0.050017;0.037492;0.034937;0.016992;0.017587;0.013613;0.009877;0.006021;0.005042;0.003076;0.002042;0.001193;0.001057;0.000898;0.0819075;0.082823;0.082463;0.083687;0.086473;0.1075535;0.1320785;0.1744605;0.1967895;0.2466105;0.193988;0.2271705;0.1968595;0.2006775;0.2188905;0.280957;0.270786;0.2035275;0.1544705;0.136998;0.0864275;0.050429;0.0409905;0.040999;0.0397775;0.035705;0.022916;0.0118535;0.007324;0.00527;0.00444;0.0036645;0.002885;0.001898;0.0014625;0.001158;0.097965;0.098231;0.099117;0.104231;0.101698;0.1235;0.17013;0.197079;0.24606;0.271374;0.22458;0.26756;0.235762;0.249829;0.279537;0.353673;0.324452;0.21073;0.190485;0.172429;0.101968;0.05927;0.057847;0.050875;0.052429;0.047776;0.028056;0.015505;0.009344;0.00696;0.006061;0.00503;0.004061;0.002157;0.001656;0.00126;0.062949;0.063395;0.06472;0.066671;0.070206;0.096242;0.110813;0.134696;0.177944;0.177418;0.161104;0.154101;0.152374;0.134231;0.164174;0.146333;0.192526;0.201007;0.115351;0.086106;0.073609;0.043539;0.034236;0.034348;0.027015;0.016897;0.011996;0.006549;0.003814;0.003053;0.002596;0.001821;0.001504;0.001195;0.0011;0.000857
136;EMSC-20041205_0000033;2004-12-05 01:52:35;7445791.0;usp000da1z;;20041205_0000033;DE;48.1039;7.9208;10.0;ISC;SS;4.1;NAO;4.55;MED_RCMT;3.96;ISC;4.6;Mw;Ben-MKS12;109.0;70.0;-159.0;11.5204599273;70.3206623502;-43.8328409074;INGV;1652;;;;;;;;;;;CH;BNALP;0;HG;0.0;;;;CH;46.87049;8.42502;1540.0;;;;;;;;22.269664;1148.597966;142.3;344.7;;;;;D;0.0;E;90.0;N;0.0;Z;0.15;0.15;0.15;30.0;30.0;30.0;-1.354108;0.638057;1.13093;0.976455;1.354287;0.631159;0.068161;0.061819;0.078775;0.06184125;0.0766124;0.0438163;0.006896;-0.007768;0.004959;0.007381775;0.00804386;0.00485297;20.1;16.14;21.54;17.325;21.07;15.215;0.155961;0.175081;0.156595;0.1692915;0.197191;0.143478;2.86332275469;2.84925782578;2.86997360952;2.8692721272;2.91273829586;2.82655954276;0.000891144358516;0.000635372606772;0.000864727006813;0.000763258482234;0.000891144358516;0.000635372606772;1.35656;1.36542;1.42329;1.52765;1.55401;2.04951;2.1457;3.16025;3.99112;4.632;2.67973;2.16824;1.87806;1.64962;1.24011;1.08801;1.01755;0.882837;0.544739;0.35041;0.210557;0.21896;0.153009;0.119006;0.090353;0.05662;0.038704;0.026704;0.021882;0.018497;0.015596;0.012142;0.009042;0.007417;0.006383;0.005652;0.640475;0.660486;0.701954;0.761912;1.19783;1.13168;2.32041;1.695;1.69886;1.3638;1.65607;1.77521;1.80931;1.64849;1.35091;1.06752;1.00686;0.883228;0.785942;0.499545;0.578182;0.360012;0.231426;0.185271;0.11673;0.051778;0.046563;0.030809;0.027418;0.022745;0.015741;0.010632;0.008463;0.007148;0.0058;0.004916;1.13173;1.13984;1.14533;1.17876;1.54163;1.59219;2.0246;3.33206;4.17567;4.06998;2.7605;2.00954;1.85837;1.6313;1.1181;0.985056;0.837747;0.680884;0.653756;0.436054;0.50843;0.251342;0.146262;0.07343;0.055899;0.040918;0.032142;0.026708;0.021703;0.018281;0.013996;0.010834;0.008305;0.006757;0.005933;0.005241;0.9785225;0.9971055;1.05914;1.09402;1.215255;1.507605;2.240115;2.320985;3.016915;3.353035;2.42539;1.77633;1.821555;1.649055;1.30618;1.077765;1.03164;0.91257;0.687111;0.4121085;0.4252045;0.307595;0.1986595;0.163073;0.1103065;0.0536685;0.0440945;0.030014;0.0253575;0.021398;0.0155595;0.0109455;0.0086485;0.0072465;0.0060085;0.0051165;1.35656;1.36542;1.42753;1.52765;1.5571;2.08194;2.53313;3.16025;4.00492;4.64262;2.82224;2.17937;2.1911;2.07696;1.8063;1.43756;1.35166;1.18962;0.799239;0.575045;0.578181;0.385412;0.241653;0.185271;0.127385;0.074723;0.049566;0.034752;0.027418;0.022778;0.018317;0.013874;0.01031;0.008276;0.007156;0.006333;0.632935;0.648639;0.691211;0.697533;1.04331;0.979579;1.63846;1.34489;1.3672;1.3638;1.65607;1.58609;1.27533;0.916019;0.690567;0.893624;0.759991;0.828219;0.437274;0.288039;0.210557;0.21896;0.153009;0.085521;0.066051;0.041894;0.03284;0.022436;0.017823;0.014564;0.01134;0.007665;0.006059;0.004625;0.003704;0.003138
