;event_id;event_time;ISC_ev_id;USGS_ev_id;INGV_ev_id;EMSC_ev_id;ev_nation_code;ev_latitude;ev_longitude;ev_depth_km;ev_hyp_ref;fm_type_code;ML;ML_ref;Mw;Mw_ref;Ms;Ms_ref;EMEC_Mw;EMEC_Mw_type;EMEC_Mw_ref;strike_1;dip_1;rake_1;strike_2;dip_2;rake_2;MT_Agency;MT_Identifier;event_source_id;es_strike;es_dip;es_rake;es_strike_dip_rake_ref;es_z_top;es_z_top_ref;es_length;es_width;es_geometry_ref;network_code;station_code;location_code;instrument_code;sensor_depth_m;proximity_code;housing_code;installation_code;st_nation_code;st_latitude;st_longitude;st_elevation;ec8_code;ec8_code_method;ec8_code_ref;vs30_m_sec;vs30_ref;vs30_calc_method;vs30_meas_type;slope_deg;vs30_m_sec_WA;epi_dist;epi_az;JB_dist;rup_dist;Rx_dist;Ry0_dist;instrument_type_code;late_triggered_flag_01;U_channel_code;U_azimuth_deg;V_channel_code;V_azimuth_deg;W_channel_code;U_hp;V_hp;W_hp;U_lp;V_lp;W_lp;U_pga;V_pga;W_pga;rotD50_pga;rotD100_pga;rotD00_pga;U_pgv;V_pgv;W_pgv;rotD50_pgv;rotD100_pgv;rotD00_pgv;U_pgd;V_pgd;W_pgd;rotD50_pgd;rotD100_pgd;rotD00_pgd;U_T90;V_T90;W_T90;rotD50_T90;rotD100_T90;rotD00_T90;U_housner;V_housner;W_housner;rotD50_housner;rotD100_housner;rotD00_housner;U_CAV;V_CAV;W_CAV;rotD50_CAV;rotD100_CAV;rotD00_CAV;U_ia;V_ia;W_ia;rotD50_ia;rotD100_ia;rotD00_ia;U_T0_010;U_T0_025;U_T0_040;U_T0_050;U_T0_070;U_T0_100;U_T0_150;U_T0_200;U_T0_250;U_T0_300;U_T0_350;U_T0_400;U_T0_450;U_T0_500;U_T0_600;U_T0_700;U_T0_750;U_T0_800;U_T0_900;U_T1_000;U_T1_200;U_T1_400;U_T1_600;U_T1_800;U_T2_000;U_T2_500;U_T3_000;U_T3_500;U_T4_000;U_T4_500;U_T5_000;U_T6_000;U_T7_000;U_T8_000;U_T9_000;U_T10_000;V_T0_010;V_T0_025;V_T0_040;V_T0_050;V_T0_070;V_T0_100;V_T0_150;V_T0_200;V_T0_250;V_T0_300;V_T0_350;V_T0_400;V_T0_450;V_T0_500;V_T0_600;V_T0_700;V_T0_750;V_T0_800;V_T0_900;V_T1_000;V_T1_200;V_T1_400;V_T1_600;V_T1_800;V_T2_000;V_T2_500;V_T3_000;V_T3_500;V_T4_000;V_T4_500;V_T5_000;V_T6_000;V_T7_000;V_T8_000;V_T9_000;V_T10_000;W_T0_010;W_T0_025;W_T0_040;W_T0_050;W_T0_070;W_T0_100;W_T0_150;W_T0_200;W_T0_250;W_T0_300;W_T0_350;W_T0_400;W_T0_450;W_T0_500;W_T0_600;W_T0_700;W_T0_750;W_T0_800;W_T0_900;W_T1_000;W_T1_200;W_T1_400;W_T1_600;W_T1_800;W_T2_000;W_T2_500;W_T3_000;W_T3_500;W_T4_000;W_T4_500;W_T5_000;W_T6_000;W_T7_000;W_T8_000;W_T9_000;W_T10_000;rotD50_T0_010;rotD50_T0_025;rotD50_T0_040;rotD50_T0_050;rotD50_T0_070;rotD50_T0_100;rotD50_T0_150;rotD50_T0_200;rotD50_T0_250;rotD50_T0_300;rotD50_T0_350;rotD50_T0_400;rotD50_T0_450;rotD50_T0_500;rotD50_T0_600;rotD50_T0_700;rotD50_T0_750;rotD50_T0_800;rotD50_T0_900;rotD50_T1_000;rotD50_T1_200;rotD50_T1_400;rotD50_T1_600;rotD50_T1_800;rotD50_T2_000;rotD50_T2_500;rotD50_T3_000;rotD50_T3_500;rotD50_T4_000;rotD50_T4_500;rotD50_T5_000;rotD50_T6_000;rotD50_T7_000;rotD50_T8_000;rotD50_T9_000;rotD50_T10_000;rotD100_T0_010;rotD100_T0_025;rotD100_T0_040;rotD100_T0_050;rotD100_T0_070;rotD100_T0_100;rotD100_T0_150;rotD100_T0_200;rotD100_T0_250;rotD100_T0_300;rotD100_T0_350;rotD100_T0_400;rotD100_T0_450;rotD100_T0_500;rotD100_T0_600;rotD100_T0_700;rotD100_T0_750;rotD100_T0_800;rotD100_T0_900;rotD100_T1_000;rotD100_T1_200;rotD100_T1_400;rotD100_T1_600;rotD100_T1_800;rotD100_T2_000;rotD100_T2_500;rotD100_T3_000;rotD100_T3_500;rotD100_T4_000;rotD100_T4_500;rotD100_T5_000;rotD100_T6_000;rotD100_T7_000;rotD100_T8_000;rotD100_T9_000;rotD100_T10_000;rotD00_T0_010;rotD00_T0_025;rotD00_T0_040;rotD00_T0_050;rotD00_T0_070;rotD00_T0_100;rotD00_T0_150;rotD00_T0_200;rotD00_T0_250;rotD00_T0_300;rotD00_T0_350;rotD00_T0_400;rotD00_T0_450;rotD00_T0_500;rotD00_T0_600;rotD00_T0_700;rotD00_T0_750;rotD00_T0_800;rotD00_T0_900;rotD00_T1_000;rotD00_T1_200;rotD00_T1_400;rotD00_T1_600;rotD00_T1_800;rotD00_T2_000;rotD00_T2_500;rotD00_T3_000;rotD00_T3_500;rotD00_T4_000;rotD00_T4_500;rotD00_T5_000;rotD00_T6_000;rotD00_T7_000;rotD00_T8_000;rotD00_T9_000;rotD00_T10_000
142;EMSC-20041205_0000033;2004-12-05 01:52:35;7445791.0;usp000da1z;;20041205_0000033;DE;48.1039;7.9208;10.0;ISC;SS;4.1;NAO;4.55;MED_RCMT;3.96;ISC;4.6;Mw;Ben-MKS12;109.0;70.0;-159.0;11.5204599273;70.3206623502;-43.8328409074;INGV;1652;;;;;;;;;;;CH;MMK;0;HG;0.0;;;;CH;46.05053;7.96399;2210.0;;;;;;;;27.968269;1323.766371;228.3;359.2;;;;;D;0.0;E;90.0;N;0.0;Z;0.1;0.1;0.1;30.0;30.0;30.0;-0.279079;-0.215567;0.173393;0.2487415;0.351595;0.156445;0.009834;0.012551;0.011612;0.01135285;0.0129677;0.0072792;-0.001604;-0.001285;0.001779;0.001450015;0.00170738;0.00119127;25.19;31.33;39.83;26.8425;35.345;24.16;0.0354844;0.0363047;0.0395316;0.03589455;0.042727;0.0291093;1.43593800999;1.47667962944;1.37957020537;1.4560641695;1.61834783014;1.28024688021;0.000106661052327;0.000103112134893;7.79262147736e-05;0.00010488659361;0.00013813107717;7.16421101074e-05;0.279357;0.289559;0.31981;0.332629;0.452011;0.580126;1.08545;0.648483;0.489078;0.359006;0.310053;0.28262;0.278288;0.227192;0.193007;0.216305;0.169957;0.146539;0.118998;0.136611;0.103442;0.07615;0.052602;0.03147;0.027539;0.016213;0.011109;0.009697;0.012239;0.010002;0.006404;0.003117;0.002805;0.002342;0.001468;0.001003;0.217234;0.224549;0.245124;0.277261;0.395967;0.648722;0.793935;0.862591;0.563753;0.592138;0.46044;0.347508;0.336554;0.26579;0.208896;0.201944;0.161864;0.135063;0.10565;0.129269;0.1048;0.05814;0.043473;0.027503;0.027213;0.020225;0.015787;0.007673;0.0045;0.003145;0.002602;0.001978;0.001678;0.001544;0.001444;0.001043;0.173828;0.176009;0.188522;0.205498;0.261316;0.507125;0.520795;0.514057;0.494349;0.430582;0.428399;0.359074;0.35701;0.279129;0.209069;0.146131;0.131783;0.145465;0.125262;0.100218;0.110199;0.090007;0.055738;0.042971;0.031767;0.02527;0.017383;0.012837;0.008528;0.006162;0.004664;0.002918;0.002752;0.002016;0.001619;0.001365;0.250092;0.258857;0.284693;0.306197;0.416623;0.632212;0.9468395;0.674066;0.530288;0.5031215;0.370225;0.3382415;0.3114225;0.2389965;0.2070795;0.2015645;0.171915;0.1425765;0.115445;0.13294;0.101252;0.067024;0.0487355;0.030253;0.0273765;0.0182565;0.0130865;0.0085975;0.0103935;0.0078835;0.0051265;0.002588;0.002219;0.0019595;0.0015215;0.001046;0.352275;0.364565;0.400578;0.433028;0.556837;0.746474;1.19504;0.890447;0.570976;0.651341;0.489118;0.39155;0.353639;0.304882;0.242878;0.222881;0.188662;0.151207;0.134378;0.173279;0.118939;0.085761;0.064716;0.038503;0.035291;0.022914;0.015926;0.009744;0.012557;0.010041;0.00645;0.003157;0.002807;0.002522;0.00172;0.001126;0.157091;0.161175;0.176798;0.178772;0.292879;0.541292;0.474589;0.556767;0.428432;0.301153;0.286919;0.230318;0.23387;0.216755;0.156323;0.158926;0.133925;0.122735;0.079433;0.067398;0.073414;0.048082;0.036304;0.026647;0.019931;0.014762;0.010753;0.007277;0.004433;0.003144;0.002602;0.001978;0.001447;0.001296;0.001328;0.000958
143;EMSC-20041205_0000033;2004-12-05 01:52:35;7445791.0;usp000da1z;;20041205_0000033;DE;48.1039;7.9208;10.0;ISC;SS;4.1;NAO;4.55;MED_RCMT;3.96;ISC;4.6;Mw;Ben-MKS12;109.0;70.0;-159.0;11.5204599273;70.3206623502;-43.8328409074;INGV;1652;;;;;;;;;;;CH;SENIN;0;HG;0.0;;;;CH;46.36335;7.2993;2035.0;;;;;;;;8.237756;766.884757;199.1;13.4;;;;;D;0.0;E;90.0;N;0.0;Z;0.1;0.1;0.1;30.0;30.0;30.0;-0.240612;-0.229821;-0.247234;0.236113;0.271996;0.187623;0.02556;-0.020676;-0.013049;0.02352545;0.0262634;0.0122721;0.00583;0.003302;-0.003498;0.004626945;0.006083;0.00188518;27.925;28.29;35.63;28.1075;34.45;23.01;0.0935735;0.0689363;0.0685166;0.08242675;0.0982868;0.0535266;1.3309874303;1.37240388495;1.49274164993;1.35330284546;1.39827190489;1.26553760504;8.76086476522e-05;9.18085551191e-05;9.90139976918e-05;8.97086118843e-05;0.000105098528824;7.43186572246e-05;0.241496;0.248759;0.270922;0.32618;0.399676;0.444177;0.543155;0.67991;0.75506;0.37738;0.346564;0.302065;0.386826;0.455465;0.442666;0.260621;0.259089;0.248207;0.22393;0.210947;0.226465;0.224878;0.184841;0.152965;0.147391;0.129199;0.075685;0.043478;0.026523;0.020626;0.01486;0.009976;0.006702;0.004951;0.0038;0.003168;0.230057;0.236203;0.247377;0.259757;0.403606;0.421277;0.559699;0.568414;0.664714;0.509151;0.278842;0.424209;0.511497;0.457112;0.411697;0.346104;0.348006;0.369139;0.290536;0.276753;0.201894;0.156837;0.078277;0.05717;0.066043;0.05226;0.027085;0.019339;0.013218;0.009434;0.007138;0.005213;0.00301;0.002663;0.002116;0.00188;0.247239;0.257459;0.276919;0.271604;0.406476;0.498118;0.711242;0.435166;0.569527;0.426611;0.421585;0.42918;0.34117;0.390118;0.355583;0.227273;0.192044;0.188624;0.204248;0.182207;0.186432;0.108632;0.12272;0.109663;0.090946;0.08549;0.036128;0.019183;0.015112;0.011669;0.00931;0.005455;0.003437;0.002664;0.002078;0.002144;0.2371665;0.244227;0.261495;0.2927295;0.3905025;0.408796;0.5611195;0.6028135;0.718469;0.4536035;0.347339;0.3619425;0.42425;0.449855;0.416592;0.2872695;0.279344;0.2870755;0.2265095;0.2209715;0.217274;0.202178;0.1373785;0.113016;0.108184;0.0974625;0.058501;0.032573;0.0202785;0.0157425;0.0114435;0.007618;0.0052145;0.0039355;0.003096;0.0026325;0.272102;0.281104;0.30043;0.34738;0.406363;0.444177;0.640771;0.685956;0.931157;0.50935;0.383654;0.427968;0.526348;0.508618;0.459938;0.391799;0.358547;0.369139;0.297114;0.276753;0.274694;0.252558;0.189535;0.159718;0.15266;0.136414;0.0797;0.04438;0.028063;0.021533;0.015519;0.010635;0.007229;0.005348;0.004066;0.003447;0.187915;0.190922;0.194894;0.20634;0.289157;0.326427;0.482834;0.519635;0.445311;0.336213;0.246207;0.236327;0.368127;0.363284;0.388107;0.220828;0.238531;0.198736;0.184219;0.19298;0.12827;0.068903;0.045537;0.044031;0.056408;0.02843;0.020928;0.013949;0.008089;0.005455;0.004133;0.002669;0.002269;0.001717;0.001453;0.001152
144;EMSC-20041205_0000033;2004-12-05 01:52:35;7445791.0;usp000da1z;;20041205_0000033;DE;48.1039;7.9208;10.0;ISC;SS;4.1;NAO;4.55;MED_RCMT;3.96;ISC;4.6;Mw;Ben-MKS12;109.0;70.0;-159.0;11.5204599273;70.3206623502;-43.8328409074;INGV;1652;;;;;;;;;;;CH;SULZ;0;HG;0.0;;;;CH;47.52748;8.11153;650.0;;;;;;;;9.170824;790.916565;65.7;347.5;;;;;D;0.0;E;90.0;N;0.0;Z;0.1;0.1;0.1;30.0;30.0;30.0;6.009712;-4.382713;-3.435094;4.8636185;6.410932;4.153554;0.328157;0.170836;-0.13023;0.2597835;0.358565;0.167091;-0.033725;0.013869;-0.008288;0.02457535;0.0345844;0.0115008;10.375;12.005;19.705;11.065;12.005;10.035;0.761597;0.490582;0.316018;0.653594;0.79167;0.459537;13.7866139964;13.0532688918;11.6148833094;13.5579946946;13.8517231516;13.0163798295;0.0229446595907;0.0169448680872;0.0125474647785;0.0199447633972;0.0232708586014;0.0166186680592;6.04565;6.26209;6.80815;9.51661;10.3526;14.3883;13.561;9.54048;9.26639;14.0898;14.3884;12.2029;8.39031;6.37527;3.19574;2.48388;2.52122;2.65234;2.91961;3.22487;1.96387;1.60039;1.00697;0.708491;0.553627;0.304771;0.1783;0.119912;0.096609;0.083844;0.069655;0.05221;0.040799;0.032995;0.027412;0.023321;4.42002;4.66858;6.05392;7.67436;8.08412;10.3862;9.17771;10.8168;10.2986;8.72486;9.98785;6.9629;6.40395;4.48325;3.05585;2.88276;2.22199;2.14224;1.93182;1.79094;1.28666;0.765017;0.386515;0.285302;0.215387;0.120947;0.079137;0.051945;0.045617;0.039858;0.033505;0.025142;0.018462;0.013824;0.012037;0.01071;3.46652;4.15413;6.49703;8.89908;7.34884;4.99997;8.42763;6.1404;9.53501;11.7364;10.0379;5.67649;5.60897;2.44113;2.15667;2.44509;1.6217;1.39119;1.03884;0.799489;0.46008;0.260382;0.224703;0.206805;0.139759;0.069969;0.046983;0.037959;0.031577;0.026339;0.024149;0.020339;0.015194;0.012196;0.010532;0.009403;4.894955;5.063095;6.565665;8.12455;8.721995;10.97845;10.5282;10.00197;9.61506;11.40695;13.7351;10.67545;7.991945;5.17907;3.16191;2.68103;2.52079;2.426555;2.79094;2.4665;1.60809;1.27137;0.8124215;0.5605605;0.4220225;0.2290655;0.146046;0.101733;0.0758575;0.0661195;0.055656;0.0407295;0.0307935;0.0244365;0.0202155;0.0172385;6.4299;6.63202;7.25045;9.93729;10.8484;14.5717;13.6966;11.3779;10.3765;15.7747;16.4512;13.4163;8.88136;6.70964;3.526;3.39361;2.77362;2.95446;3.21664;3.29068;2.00159;1.65354;1.04984;0.718054;0.561276;0.309847;0.185227;0.128194;0.100238;0.086735;0.072137;0.054187;0.042254;0.034251;0.028551;0.024348;4.16205;4.26927;5.89551;6.61713;7.39605;9.74536;8.8595;8.46774;8.04877;7.65236;9.49859;6.62291;5.98259;4.41059;2.47708;2.16062;2.08389;2.08024;1.77387;1.60962;0.812311;0.493348;0.273387;0.240435;0.151763;0.086477;0.05742;0.05017;0.045077;0.037804;0.033085;0.023584;0.018375;0.013435;0.011106;0.009976
145;EMSC-20041205_0000033;2004-12-05 01:52:35;7445791.0;usp000da1z;;20041205_0000033;DE;48.1039;7.9208;10.0;ISC;SS;4.1;NAO;4.55;MED_RCMT;3.96;ISC;4.6;Mw;Ben-MKS12;109.0;70.0;-159.0;11.5204599273;70.3206623502;-43.8328409074;INGV;1652;;;;;;;;;;;CH;VDL;0;HG;0.0;1.0;DAM;;CH;46.48318;9.44956;1927.0;A*;GEO;ESM;;;;;17.319793;1007.775526;214.1;327.9;;;;;D;0.0;E;90.0;N;0.0;Z;0.2;0.2;0.2;30.0;30.0;30.0;-0.204178;-0.206545;-0.176855;0.2101995;0.223877;0.165381;-0.006101;0.009056;-0.007504;0.007770945;0.00919018;0.00604699;0.000536;-0.000747;0.000803;0.0007165325;0.000799165;0.000507386;44.83;45.675;47.835;45.4325;49.05;41.115;0.0180409;0.026582;0.0270212;0.0226236;0.0266691;0.0178671;1.68004501491;1.98561782498;1.72090583977;1.82035859753;1.98912703875;1.67879243;0.000105113540366;0.000148400142704;0.000105303595767;0.000126756837072;0.000152221533315;0.000101292184947;0.204324;0.209991;0.228966;0.236385;0.456725;0.429146;0.7646;0.611374;0.481532;0.434924;0.291169;0.262016;0.166843;0.125238;0.132828;0.114307;0.097009;0.083861;0.047411;0.043068;0.038447;0.024114;0.014808;0.010569;0.010182;0.00959;0.005776;0.004778;0.002628;0.002304;0.001604;0.000847;0.000693;0.000568;0.000533;0.000458;0.208009;0.216909;0.251202;0.288022;0.413631;0.368159;0.675096;0.655352;0.480437;0.447544;0.300694;0.214469;0.172384;0.195875;0.219439;0.217109;0.194854;0.138774;0.076129;0.061182;0.043815;0.03896;0.030379;0.026334;0.022834;0.01057;0.011858;0.006225;0.004991;0.003986;0.0022;0.001583;0.001056;0.000835;0.000728;0.000578;0.178187;0.185075;0.221554;0.307399;0.320614;0.55004;0.666288;0.569195;0.379295;0.270572;0.241279;0.171386;0.194734;0.244909;0.194948;0.24059;0.181715;0.14162;0.10582;0.080777;0.054989;0.043899;0.032182;0.026639;0.021785;0.009382;0.012027;0.00683;0.004317;0.003335;0.002437;0.001725;0.001033;0.00077;0.000618;0.000516;0.210743;0.219163;0.2391325;0.2586715;0.4296935;0.3923505;0.6900255;0.629402;0.4809845;0.445322;0.286818;0.2261925;0.181563;0.1853005;0.2062975;0.1756445;0.15474;0.1173845;0.0581035;0.046544;0.039046;0.0317795;0.0220925;0.0193665;0.01668;0.010242;0.0093775;0.005818;0.004092;0.002888;0.001896;0.0014295;0.000965;0.0008035;0.0006545;0.000544;0.224607;0.235058;0.267768;0.314886;0.497448;0.483645;0.779577;0.717834;0.555636;0.517108;0.306969;0.276971;0.206296;0.218797;0.237015;0.224563;0.195711;0.142286;0.07649;0.06185;0.04589;0.04017;0.030379;0.026582;0.022834;0.012653;0.0122;0.007578;0.005274;0.004009;0.002215;0.001636;0.001255;0.000963;0.000744;0.000592;0.166142;0.171711;0.217924;0.234001;0.355289;0.336072;0.618391;0.491377;0.374453;0.400461;0.221279;0.199942;0.161659;0.103554;0.132019;0.093625;0.095662;0.078829;0.046273;0.037014;0.034849;0.023576;0.014808;0.009648;0.009112;0.005842;0.005166;0.004119;0.002517;0.002169;0.001484;0.000848;0.000694;0.000567;0.000514;0.000451
146;EMSC-20041205_0000033;2004-12-05 01:52:35;7445791.0;usp000da1z;;20041205_0000033;DE;48.1039;7.9208;10.0;ISC;SS;4.1;NAO;4.55;MED_RCMT;3.96;ISC;4.6;Mw;Ben-MKS12;109.0;70.0;-159.0;11.5204599273;70.3206623502;-43.8328409074;INGV;1652;;;;;;;;;;;CH;ZUR;0;HG;0.0;;;;CH;47.36921;8.58088;510.0;;;;;;;;11.491069;851.255326;95.5;329.0;;;;;D;0.0;E;90.0;N;0.0;Z;0.1;0.1;0.1;30.0;30.0;30.0;-7.697312;-5.077195;2.305535;5.9768395;7.914559;3.59571;-0.218138;0.139441;0.062499;0.15464;0.218139;0.108345;-0.01147;-0.006089;0.005435;0.0091327;0.0127442;0.00497043;19.05;15.865;23.41;18.8075;24.46;11.34;0.343273;0.216375;0.160529;0.275854;0.356254;0.203487;15.163828526;10.284225305;8.30546125281;12.8939555148;15.242935687;10.114613313;0.0257069352388;0.00911173381788;0.0053486548028;0.0174093353478;0.0263552889638;0.00846337789887;7.72888;8.00023;8.39021;9.05611;12.4949;33.3718;24.0226;18.7476;8.79575;6.1835;4.46065;2.86072;3.10956;2.69885;1.75273;1.12117;1.0391;1.17017;1.31428;1.10304;0.723159;0.415883;0.289975;0.228624;0.191428;0.138787;0.074877;0.048874;0.048581;0.042663;0.029424;0.022579;0.018543;0.015811;0.01395;0.012785;5.09032;5.22758;5.58099;5.85374;6.75707;12.4143;14.9189;10.079;6.33237;4.95611;2.66377;1.65057;1.38774;1.57921;1.51584;1.19277;1.14481;1.08887;0.92623;0.590882;0.343278;0.224921;0.189428;0.151504;0.123173;0.077131;0.051905;0.03591;0.026501;0.025492;0.023979;0.018617;0.015135;0.012813;0.011291;0.009905;2.31676;2.69135;3.86236;7.00552;6.91057;5.40033;5.86094;6.80953;3.37875;2.10058;1.46645;1.23956;1.2918;1.23083;1.10807;0.849717;0.795359;0.788965;0.564549;0.424656;0.326313;0.209362;0.157421;0.1399;0.12129;0.064233;0.038536;0.033503;0.025896;0.021012;0.014031;0.010763;0.008428;0.006614;0.00565;0.004974;5.98388;6.193705;6.40161;7.15934;9.934435;24.2349;20.3487;14.94215;7.98806;5.353525;3.35126;2.43215;2.19879;2.17759;1.537685;1.15697;1.08508;1.11149;1.147995;0.9155275;0.5652705;0.3342025;0.2455;0.192358;0.159829;0.1115155;0.0651765;0.042286;0.038809;0.0336835;0.0264995;0.019793;0.016133;0.0134855;0.011465;0.0100975;7.9147;8.17321;8.47776;9.47039;12.6849;33.3896;27.1986;19.2314;9.18883;6.3168;4.54929;2.89823;3.10956;2.76055;1.8464;1.63264;1.49732;1.54012;1.43442;1.18549;0.796404;0.472503;0.342832;0.268262;0.223434;0.156098;0.082859;0.051499;0.053524;0.046575;0.031797;0.022634;0.018587;0.015891;0.013969;0.012793;3.5958;3.76839;4.13272;4.9238;6.07497;11.7049;8.90585;7.52075;4.89442;2.91738;2.05328;1.38079;1.32316;1.3513;1.35698;0.900106;0.771631;0.703656;0.508516;0.317364;0.249318;0.190356;0.130935;0.113502;0.087631;0.052354;0.038827;0.031047;0.026503;0.023888;0.020089;0.016273;0.013471;0.01137;0.009821;0.008467
