;event_id;event_time;ISC_ev_id;USGS_ev_id;INGV_ev_id;EMSC_ev_id;ev_nation_code;ev_latitude;ev_longitude;ev_depth_km;ev_hyp_ref;fm_type_code;ML;ML_ref;Mw;Mw_ref;Ms;Ms_ref;EMEC_Mw;EMEC_Mw_type;EMEC_Mw_ref;strike_1;dip_1;rake_1;strike_2;dip_2;rake_2;MT_Agency;MT_Identifier;event_source_id;es_strike;es_dip;es_rake;es_strike_dip_rake_ref;es_z_top;es_z_top_ref;es_length;es_width;es_geometry_ref;network_code;station_code;location_code;instrument_code;sensor_depth_m;proximity_code;housing_code;installation_code;st_nation_code;st_latitude;st_longitude;st_elevation;ec8_code;ec8_code_method;ec8_code_ref;vs30_m_sec;vs30_ref;vs30_calc_method;vs30_meas_type;slope_deg;vs30_m_sec_WA;epi_dist;epi_az;JB_dist;rup_dist;Rx_dist;Ry0_dist;instrument_type_code;late_triggered_flag_01;U_channel_code;U_azimuth_deg;V_channel_code;V_azimuth_deg;W_channel_code;U_hp;V_hp;W_hp;U_lp;V_lp;W_lp;U_pga;V_pga;W_pga;rotD50_pga;rotD100_pga;rotD00_pga;U_pgv;V_pgv;W_pgv;rotD50_pgv;rotD100_pgv;rotD00_pgv;U_pgd;V_pgd;W_pgd;rotD50_pgd;rotD100_pgd;rotD00_pgd;U_T90;V_T90;W_T90;rotD50_T90;rotD100_T90;rotD00_T90;U_housner;V_housner;W_housner;rotD50_housner;rotD100_housner;rotD00_housner;U_CAV;V_CAV;W_CAV;rotD50_CAV;rotD100_CAV;rotD00_CAV;U_ia;V_ia;W_ia;rotD50_ia;rotD100_ia;rotD00_ia;U_T0_010;U_T0_025;U_T0_040;U_T0_050;U_T0_070;U_T0_100;U_T0_150;U_T0_200;U_T0_250;U_T0_300;U_T0_350;U_T0_400;U_T0_450;U_T0_500;U_T0_600;U_T0_700;U_T0_750;U_T0_800;U_T0_900;U_T1_000;U_T1_200;U_T1_400;U_T1_600;U_T1_800;U_T2_000;U_T2_500;U_T3_000;U_T3_500;U_T4_000;U_T4_500;U_T5_000;U_T6_000;U_T7_000;U_T8_000;U_T9_000;U_T10_000;V_T0_010;V_T0_025;V_T0_040;V_T0_050;V_T0_070;V_T0_100;V_T0_150;V_T0_200;V_T0_250;V_T0_300;V_T0_350;V_T0_400;V_T0_450;V_T0_500;V_T0_600;V_T0_700;V_T0_750;V_T0_800;V_T0_900;V_T1_000;V_T1_200;V_T1_400;V_T1_600;V_T1_800;V_T2_000;V_T2_500;V_T3_000;V_T3_500;V_T4_000;V_T4_500;V_T5_000;V_T6_000;V_T7_000;V_T8_000;V_T9_000;V_T10_000;W_T0_010;W_T0_025;W_T0_040;W_T0_050;W_T0_070;W_T0_100;W_T0_150;W_T0_200;W_T0_250;W_T0_300;W_T0_350;W_T0_400;W_T0_450;W_T0_500;W_T0_600;W_T0_700;W_T0_750;W_T0_800;W_T0_900;W_T1_000;W_T1_200;W_T1_400;W_T1_600;W_T1_800;W_T2_000;W_T2_500;W_T3_000;W_T3_500;W_T4_000;W_T4_500;W_T5_000;W_T6_000;W_T7_000;W_T8_000;W_T9_000;W_T10_000;rotD50_T0_010;rotD50_T0_025;rotD50_T0_040;rotD50_T0_050;rotD50_T0_070;rotD50_T0_100;rotD50_T0_150;rotD50_T0_200;rotD50_T0_250;rotD50_T0_300;rotD50_T0_350;rotD50_T0_400;rotD50_T0_450;rotD50_T0_500;rotD50_T0_600;rotD50_T0_700;rotD50_T0_750;rotD50_T0_800;rotD50_T0_900;rotD50_T1_000;rotD50_T1_200;rotD50_T1_400;rotD50_T1_600;rotD50_T1_800;rotD50_T2_000;rotD50_T2_500;rotD50_T3_000;rotD50_T3_500;rotD50_T4_000;rotD50_T4_500;rotD50_T5_000;rotD50_T6_000;rotD50_T7_000;rotD50_T8_000;rotD50_T9_000;rotD50_T10_000;rotD100_T0_010;rotD100_T0_025;rotD100_T0_040;rotD100_T0_050;rotD100_T0_070;rotD100_T0_100;rotD100_T0_150;rotD100_T0_200;rotD100_T0_250;rotD100_T0_300;rotD100_T0_350;rotD100_T0_400;rotD100_T0_450;rotD100_T0_500;rotD100_T0_600;rotD100_T0_700;rotD100_T0_750;rotD100_T0_800;rotD100_T0_900;rotD100_T1_000;rotD100_T1_200;rotD100_T1_400;rotD100_T1_600;rotD100_T1_800;rotD100_T2_000;rotD100_T2_500;rotD100_T3_000;rotD100_T3_500;rotD100_T4_000;rotD100_T4_500;rotD100_T5_000;rotD100_T6_000;rotD100_T7_000;rotD100_T8_000;rotD100_T9_000;rotD100_T10_000;rotD00_T0_010;rotD00_T0_025;rotD00_T0_040;rotD00_T0_050;rotD00_T0_070;rotD00_T0_100;rotD00_T0_150;rotD00_T0_200;rotD00_T0_250;rotD00_T0_300;rotD00_T0_350;rotD00_T0_400;rotD00_T0_450;rotD00_T0_500;rotD00_T0_600;rotD00_T0_700;rotD00_T0_750;rotD00_T0_800;rotD00_T0_900;rotD00_T1_000;rotD00_T1_200;rotD00_T1_400;rotD00_T1_600;rotD00_T1_800;rotD00_T2_000;rotD00_T2_500;rotD00_T3_000;rotD00_T3_500;rotD00_T4_000;rotD00_T4_500;rotD00_T5_000;rotD00_T6_000;rotD00_T7_000;rotD00_T8_000;rotD00_T9_000;rotD00_T10_000
147;EMSC-20041205_0000033;2004-12-05 01:52:35;7445791.0;usp000da1z;;20041205_0000033;DE;48.1039;7.9208;10.0;ISC;SS;4.1;NAO;4.55;MED_RCMT;3.96;ISC;4.6;Mw;Ben-MKS12;109.0;70.0;-159.0;11.5204599273;70.3206623502;-43.8328409074;INGV;1652;;;;;;;;;;;RA;STBO;0;HN;0.0;;;;FR;47.8609;7.26216;240.0;A*;GEO;Regnier_et_al_2010;;;;;0.724029;332.499313;56.1;61.0;;;;;D;0.0;E;90.0;N;0.0;Z;0.1;0.1;0.1;30.0;30.0;30.0;-9.547789;10.986162;-4.809244;9.4902865;12.21096;8.499385;-0.199415;0.233031;0.072031;0.214059;0.234595;0.164233;0.020803;-0.013037;0.006363;0.01738765;0.0237165;0.0109838;17.92;14.405;18.56;15.9425;17.92;12.845;0.483327;0.439495;0.182054;0.46139;0.514367;0.395574;20.4193379209;20.3179790982;11.4228359656;20.3686585095;22.6385959221;17.8930933214;0.0505403422202;0.0599454588826;0.0151608187916;0.055242897921;0.0701549242285;0.0403308812986;9.72411;10.4941;13.6759;16.2067;28.7911;31.4097;17.3005;11.0445;6.05265;7.39779;6.77549;8.38801;5.71448;4.88865;5.0018;3.32596;2.82032;2.1556;1.62564;1.39697;0.702324;0.57926;0.667103;0.378123;0.270191;0.160554;0.161347;0.106365;0.074676;0.062258;0.051682;0.0424;0.033271;0.026152;0.021372;0.018159;11.0772;12.0388;15.0352;23.4479;31.1464;35.9327;13.5081;12.2858;6.32562;9.97013;10.1777;7.26022;4.70766;4.90468;3.78184;2.06671;1.75129;1.77563;1.23103;0.934737;0.766767;0.519826;0.481141;0.319515;0.238473;0.162254;0.130068;0.127159;0.080288;0.05806;0.036869;0.026519;0.020231;0.016236;0.013468;0.011618;4.97266;6.04645;12.3071;13.2506;11.3662;14.7883;11.3507;5.48405;3.05969;2.50891;1.92437;1.31667;1.05299;1.18441;0.82402;0.888058;0.954002;1.01302;0.60341;0.540128;0.304025;0.215768;0.241558;0.184927;0.184604;0.083239;0.067659;0.046164;0.032063;0.023975;0.016194;0.010573;0.009058;0.007408;0.005458;0.004699;9.663905;10.47165;13.5707;19.0321;29.8907;34.03315;15.12955;10.89755;6.076925;8.44711;8.54537;7.643605;5.163485;5.068135;4.4183;2.89316;2.207845;1.966815;1.367935;1.169675;0.727952;0.531472;0.578832;0.352961;0.2400545;0.158289;0.152427;0.109174;0.0749295;0.0574445;0.0431995;0.033672;0.026139;0.0205805;0.016874;0.01462;12.2693;13.365;16.6294;26.6079;33.4117;39.9826;19.1624;12.3243;6.68543;9.98272;10.8357;10.5868;6.28748;5.60415;5.22903;3.38439;2.85342;2.222;1.68116;1.53444;0.965919;0.713844;0.667821;0.430693;0.277616;0.171404;0.168539;0.129207;0.080806;0.064828;0.054237;0.044594;0.035416;0.028355;0.023548;0.020173;8.62527;9.38875;12.0444;14.3444;24.7281;16.1853;11.7335;9.14247;4.84567;6.39456;4.10393;3.51459;4.55088;4.56222;2.97653;1.91701;1.65247;1.56248;1.09431;0.781026;0.453665;0.379748;0.370642;0.257954;0.217622;0.144448;0.118371;0.078955;0.062816;0.048916;0.032942;0.025513;0.020175;0.015958;0.013227;0.011437
1824;EMSC-20130103_0000020;2013-01-03 08:39:11;602083601.0;usp000jxs7;1651411.0;20130103_0000020;;34.1091;25.1425;30.3795;ISC;TF;3.9;ISK;4.56;MED_RCMT;3.83;ISC;4.35;MWML92;DGA16;312.0;23.0;-26.0;66.0;80.0;-111.0;NOA;299397;;;;;;;;;;;HL;SIVA;0;HN;0.0;;;;GR;35.01746;24.80996;110.0;;;;;;;;0.080718;217.394096;105.3;163.1;;;;;D;0.0;E;90.0;N;0.0;Z;0.1;0.1;0.1;30.0;30.0;30.0;0.318351;0.261677;-0.166267;0.30633;0.350085;0.222786;-0.026104;-0.021813;0.012802;0.0229385;0.0281791;0.0171474;-0.002812;-0.002382;0.001684;0.00244955;0.00301485;0.00219179;36.58;38.23;38.05;37.1925;40.265;36.34;0.0904518;0.0874694;0.0441824;0.0888447;0.0988585;0.0783484;3.45222133556;2.97489972005;1.87225658931;3.22644635515;3.64595277472;2.7619395751;0.000501175586413;0.000361651695732;0.000133849911411;0.0004314135853;0.000557757371668;0.000305069941118;0.318429;0.321838;0.325424;0.327163;0.337472;0.413841;0.439083;0.786207;1.10597;1.02952;1.05537;1.14323;1.15192;0.808866;1.00938;0.693253;0.78763;0.727007;0.443823;0.323526;0.234527;0.10653;0.072955;0.050983;0.043786;0.026819;0.018509;0.014056;0.00866;0.007286;0.00613;0.004102;0.003389;0.003201;0.002717;0.002382;0.262035;0.264276;0.268193;0.26989;0.286838;0.290073;0.493367;0.617755;0.712706;0.770294;0.8047;0.884103;0.957496;1.42968;1.06843;0.656706;0.588401;0.488394;0.323733;0.270104;0.169106;0.116319;0.086915;0.079707;0.073048;0.030263;0.018425;0.011686;0.00838;0.006867;0.005778;0.004863;0.003042;0.002704;0.002134;0.001684;0.166355;0.168904;0.172186;0.196904;0.246575;0.234146;0.426771;0.491405;0.501762;0.416669;0.533993;0.664762;0.650657;0.567945;0.460796;0.328277;0.208968;0.18572;0.134057;0.099033;0.084087;0.082247;0.059552;0.037468;0.028476;0.021343;0.009729;0.008623;0.006793;0.004582;0.002995;0.002698;0.00239;0.001686;0.001573;0.001136;0.3068025;0.309592;0.312209;0.3182665;0.325537;0.380967;0.4947395;0.6772935;0.820249;0.981446;0.901419;1.107395;1.036545;1.13852;1.01469;0.6716335;0.6933875;0.59616;0.3725695;0.307011;0.189475;0.119525;0.0859365;0.061501;0.063235;0.0291285;0.0175675;0.012395;0.0085055;0.0071775;0.00586;0.0044005;0.0031945;0.002834;0.0022635;0.0018705;0.350154;0.3512;0.353611;0.372173;0.371289;0.413841;0.514832;0.81916;1.12522;1.07097;1.0702;1.15315;1.15192;1.5582;1.19807;0.752211;0.823888;0.797175;0.508532;0.381454;0.235427;0.139121;0.091939;0.080144;0.073798;0.030263;0.019435;0.014211;0.01014;0.008629;0.00613;0.005169;0.003563;0.003257;0.002814;0.002483;0.222974;0.223072;0.226336;0.230695;0.23726;0.271653;0.439083;0.617755;0.702628;0.728357;0.77045;0.809969;0.67979;0.761856;0.681109;0.474801;0.406888;0.291213;0.272171;0.23706;0.138224;0.10653;0.065681;0.049283;0.041736;0.023366;0.013778;0.009395;0.006854;0.005634;0.00495;0.003843;0.002752;0.002268;0.001915;0.001649
1825;EMSC-20130103_0000020;2013-01-03 08:39:11;602083601.0;usp000jxs7;1651411.0;20130103_0000020;;34.1091;25.1425;30.3795;ISC;TF;3.9;ISK;4.56;MED_RCMT;3.83;ISC;4.35;MWML92;DGA16;312.0;23.0;-26.0;66.0;80.0;-111.0;NOA;299397;;;;;;;;;;;HL;ZKR;0;HN;0.0;;;;GR;35.1147;26.217;270.0;;;;;;;;6.924399;695.058912;148.8;221.8;;;;;D;0.0;E;90.0;N;0.0;Z;0.1;0.1;0.1;30.0;30.0;30.0;-0.032896;-0.031838;-0.020154;0.032189;0.033046;0.029863;-0.004447;-0.002705;0.001781;0.00340149;0.00447392;0.0027021;0.000918;0.000752;0.000564;0.000802627;0.000989482;0.000656735;53.935;49.28;68.41;52.715;54.615;49.28;0.018884;0.0137968;0.0104305;0.0163882;0.018884;0.0137265;0.439549015169;0.43926933514;0.32835669015;0.439409175155;0.45270378524;0.418293310109;5.49541644325e-06;6.0287216574e-06;2.796133615e-06;5.76206846491e-06;6.2560167368e-06;5.26811804975e-06;0.032942;0.033285;0.033853;0.037252;0.034924;0.036536;0.042131;0.053724;0.070193;0.084577;0.089354;0.102085;0.107527;0.099856;0.099501;0.071685;0.062107;0.055443;0.047509;0.043547;0.053778;0.038094;0.047183;0.032132;0.032908;0.014397;0.010082;0.005113;0.003744;0.004111;0.002773;0.001713;0.001196;0.000879;0.000765;0.000433;0.031849;0.032678;0.032665;0.031643;0.033502;0.035837;0.063553;0.075197;0.096837;0.152693;0.119322;0.129149;0.115192;0.085321;0.065345;0.059751;0.052045;0.049672;0.055963;0.033627;0.03116;0.031615;0.024929;0.019536;0.01709;0.008548;0.009337;0.006392;0.003386;0.003127;0.002112;0.001469;0.000867;0.000663;0.000557;0.000568;0.020163;0.020935;0.025394;0.029476;0.028661;0.032963;0.035376;0.041922;0.051369;0.049836;0.060366;0.083649;0.090395;0.060333;0.043674;0.039612;0.044485;0.047716;0.041885;0.041147;0.037549;0.017419;0.01313;0.013245;0.014211;0.006666;0.004466;0.005432;0.002667;0.001759;0.001594;0.000974;0.000724;0.000594;0.000488;0.000405;0.0321945;0.032829;0.033755;0.034003;0.034598;0.036579;0.0466975;0.056661;0.079564;0.121481;0.101758;0.110646;0.1121665;0.098402;0.077765;0.073307;0.055902;0.051247;0.054106;0.0408815;0.042112;0.0322455;0.0351285;0.0253445;0.0254805;0.0127845;0.009792;0.005798;0.0035605;0.0031795;0.0023465;0.0015;0.001054;0.000794;0.000617;0.0004915;0.03305;0.03357;0.035524;0.037252;0.036722;0.038904;0.064988;0.076828;0.097925;0.152692;0.12937;0.136715;0.120769;0.111088;0.099739;0.079459;0.063019;0.056909;0.067003;0.043628;0.054907;0.040386;0.049454;0.032132;0.035385;0.015834;0.013032;0.008064;0.00421;0.004147;0.002869;0.001821;0.001216;0.001079;0.000852;0.000569;0.029918;0.030782;0.030677;0.030733;0.032987;0.035251;0.040738;0.051259;0.067486;0.083553;0.08797;0.091275;0.0924;0.075244;0.063479;0.056553;0.048732;0.043473;0.036788;0.033627;0.03116;0.02601;0.020923;0.017755;0.014854;0.007752;0.005899;0.003683;0.002295;0.002606;0.001647;0.001433;0.000727;0.000629;0.000549;0.000376
1826;EMSC-20130108_0000044;2013-01-08 14:16:09;602216240.0;usp000jy2b;1667271.0;20130108_0000044;GR;39.6681;25.5372;11.1303;ISC;SS;5.8;ATH;5.81;GCMT;5.82;ISC;5.8;Mw;GEOFON;331.0;77.0;-1.0;61.0;88.0;-166.0;GFZ;300037;v0000044;61.0;89.0;-173.0;GCMT;6.42006;from_nulcleation_depth;9.72523;7.06643;empirical_fault;HL;ALNA;0;HN;0.0;;;;GR;39.14804;23.86669;40.0;;;;;;;;0.72706;332.770652;155.0;67.6;150.33;150.47;-23.09;148.55;D;0.0;E;270.0;N;180.0;Z;0.03;0.03;0.03;30.0;30.0;30.0;2.612684;-2.675343;-2.007355;2.659961;3.122293;2.214149;0.324382;-0.393598;0.189343;0.3616945;0.473697;0.295123;0.120909;0.227868;0.052232;0.185953;0.231748;0.0594435;25.56;25.845;39.015;25.7025;32.455;22.53;1.59201;1.88017;0.770703;1.70495;2.03602;1.56311;22.8653423279;24.2942997632;17.3095502342;23.7174867052;24.812488481;21.9621202014;0.0244732259745;0.0282129038649;0.0125246429026;0.0263430637601;0.0308970910518;0.0217890411869;2.61438;2.62296;2.64035;2.66289;2.73618;2.95121;3.20204;3.90796;4.72252;5.55124;7.33589;7.52478;8.89671;7.28512;7.26145;10.7618;7.86974;6.93013;5.40647;4.57901;4.81337;5.29269;3.92031;2.69506;1.47512;0.599203;0.454514;0.334442;0.332277;0.324297;0.243852;0.157465;0.141606;0.107293;0.118316;0.10076;2.67576;2.68342;2.69824;2.71607;2.76449;2.88977;3.54095;4.23459;4.64794;4.89697;6.0484;6.45787;7.88838;7.98692;10.3831;10.9506;10.2078;9.40508;9.75586;8.88188;4.71649;3.95896;2.73771;2.42436;2.7468;1.19119;0.868089;0.887031;0.770814;0.65224;0.591701;0.306166;0.215173;0.136177;0.176858;0.179617;2.00827;2.01669;2.03293;2.05546;2.1537;2.30238;2.49088;2.52219;2.91723;3.25846;4.27062;4.43097;5.37152;9.10932;6.165;4.90978;4.5411;4.80242;3.73067;4.24729;1.58694;1.66809;1.01494;0.85324;0.607537;0.304421;0.270438;0.197704;0.106079;0.13521;0.193715;0.108727;0.115485;0.109945;0.093784;0.075445;2.66112;2.66794;2.683995;2.69764;2.74866;2.88487;3.460235;3.831725;4.68523;5.31381;6.7166;6.36395;8.276735;7.922945;9.20022;10.747;8.734265;8.193345;8.095315;6.443705;5.12294;4.946365;3.454995;2.55268;2.20512;0.994431;0.665556;0.656886;0.5855905;0.506059;0.4554405;0.249363;0.1847025;0.1253815;0.1496285;0.1455875;3.12393;3.13051;3.14365;3.15301;3.19064;3.31766;3.88574;4.36034;5.27069;7.11305;7.48579;7.74273;9.32252;9.70047;11.4912;13.6349;10.7626;10.0064;10.0672;8.97055;5.99362;5.32365;3.97946;2.69507;2.7468;1.19119;0.898665;0.894243;0.798074;0.68641;0.630731;0.326367;0.221022;0.144229;0.188109;0.194094;2.21441;2.21794;2.22769;2.22638;2.24802;2.42749;2.4025;2.92207;3.02791;3.63014;3.78721;4.80021;6.26379;6.52183;6.88208;7.88787;7.63981;6.62693;5.16072;4.42157;4.51785;2.68228;2.11382;2.21536;1.42055;0.521301;0.381855;0.243316;0.248905;0.221759;0.150758;0.101956;0.09641;0.093965;0.089963;0.077419
1827;EMSC-20130108_0000044;2013-01-08 14:16:09;602216240.0;usp000jy2b;1667271.0;20130108_0000044;GR;39.6681;25.5372;11.1303;ISC;SS;5.8;ATH;5.81;GCMT;5.82;ISC;5.8;Mw;GEOFON;331.0;77.0;-1.0;61.0;88.0;-166.0;GFZ;300037;v0000044;61.0;89.0;-173.0;GCMT;6.42006;from_nulcleation_depth;9.72523;7.06643;empirical_fault;HL;AMGA;0;HN;0.0;;;;GR;36.83157;25.89382;300.0;;;;;;;;2.507216;464.76021;316.4;354.4;314.33;314.51;288.81;124.35;D;0.0;E;90.0;N;0.0;Z;0.07;0.07;0.07;30.0;30.0;30.0;-0.103257;-0.086909;-0.069189;0.0899115;0.10976;0.072795;-0.035937;-0.032902;-0.026428;0.03438125;0.0379295;0.0285539;-0.042038;-0.037785;0.024909;0.0372739;0.0421245;0.0321903;123.785;147.58;142.76;137.8775;149.135;118.815;0.0973824;0.0686205;0.0731189;0.08563955;0.09877;0.0677206;2.50959797953;2.48560906998;2.12207876005;2.49201386941;2.52008030544;2.46755006041;9.8975748682e-05;8.54818051778e-05;6.84704508001e-05;9.22287772302e-05;9.90722555212e-05;8.53853294219e-05;0.103603;0.277722;0.315242;0.166358;0.091241;0.101642;0.171228;0.131324;0.140516;0.207866;0.256588;0.236509;0.231969;0.198873;0.254778;0.202216;0.200088;0.196845;0.216307;0.200189;0.234238;0.178688;0.171632;0.275738;0.21481;0.14537;0.127616;0.177996;0.103268;0.104295;0.103095;0.100047;0.074749;0.061712;0.051217;0.043733;0.087035;0.088534;0.112221;0.089822;0.09821;0.120128;0.22185;0.236659;0.198328;0.160305;0.223285;0.196404;0.18075;0.170583;0.161746;0.190309;0.209175;0.196918;0.23314;0.191847;0.192228;0.167175;0.163392;0.116312;0.100781;0.09255;0.090661;0.101532;0.103822;0.091166;0.081222;0.12371;0.138976;0.081516;0.058299;0.05822;0.069271;0.104936;0.142834;0.079147;0.099656;0.134291;0.155567;0.118681;0.125599;0.143662;0.132499;0.142073;0.170122;0.154352;0.18329;0.201464;0.158541;0.163812;0.214604;0.183776;0.171002;0.143869;0.126356;0.145546;0.150224;0.140401;0.134901;0.151317;0.112318;0.070711;0.094461;0.072697;0.084466;0.066842;0.048284;0.031252;0.090566;0.2008465;0.2372325;0.1217755;0.0941545;0.1137325;0.204792;0.188076;0.1705225;0.172832;0.2248915;0.2153565;0.21668;0.173636;0.1933485;0.1956715;0.201871;0.2088085;0.2279585;0.199033;0.2207995;0.174439;0.1767455;0.2042735;0.1532565;0.130371;0.106925;0.144158;0.107464;0.102741;0.1000015;0.112378;0.110807;0.0755215;0.051035;0.047207;0.109797;0.277722;0.326785;0.172216;0.103005;0.13294;0.240077;0.241585;0.198797;0.208473;0.257214;0.236897;0.240819;0.198873;0.263741;0.217724;0.221151;0.223993;0.265357;0.247078;0.238403;0.196142;0.2172;0.275738;0.21481;0.171231;0.138659;0.189291;0.13128;0.119537;0.112329;0.15263;0.155857;0.081946;0.060056;0.06562;0.074311;0.084751;0.093565;0.084511;0.088244;0.098566;0.142256;0.131324;0.136786;0.156103;0.194236;0.186219;0.176569;0.147686;0.147019;0.15744;0.168938;0.176711;0.158223;0.121392;0.164158;0.135238;0.132751;0.112363;0.10006;0.066954;0.076018;0.088681;0.0796;0.077311;0.080789;0.073738;0.047012;0.057383;0.035916;0.020582
