;event_id;event_time;ISC_ev_id;USGS_ev_id;INGV_ev_id;EMSC_ev_id;ev_nation_code;ev_latitude;ev_longitude;ev_depth_km;ev_hyp_ref;fm_type_code;ML;ML_ref;Mw;Mw_ref;Ms;Ms_ref;EMEC_Mw;EMEC_Mw_type;EMEC_Mw_ref;strike_1;dip_1;rake_1;strike_2;dip_2;rake_2;MT_Agency;MT_Identifier;event_source_id;es_strike;es_dip;es_rake;es_strike_dip_rake_ref;es_z_top;es_z_top_ref;es_length;es_width;es_geometry_ref;network_code;station_code;location_code;instrument_code;sensor_depth_m;proximity_code;housing_code;installation_code;st_nation_code;st_latitude;st_longitude;st_elevation;ec8_code;ec8_code_method;ec8_code_ref;vs30_m_sec;vs30_ref;vs30_calc_method;vs30_meas_type;slope_deg;vs30_m_sec_WA;epi_dist;epi_az;JB_dist;rup_dist;Rx_dist;Ry0_dist;instrument_type_code;late_triggered_flag_01;U_channel_code;U_azimuth_deg;V_channel_code;V_azimuth_deg;W_channel_code;U_hp;V_hp;W_hp;U_lp;V_lp;W_lp;U_pga;V_pga;W_pga;rotD50_pga;rotD100_pga;rotD00_pga;U_pgv;V_pgv;W_pgv;rotD50_pgv;rotD100_pgv;rotD00_pgv;U_pgd;V_pgd;W_pgd;rotD50_pgd;rotD100_pgd;rotD00_pgd;U_T90;V_T90;W_T90;rotD50_T90;rotD100_T90;rotD00_T90;U_housner;V_housner;W_housner;rotD50_housner;rotD100_housner;rotD00_housner;U_CAV;V_CAV;W_CAV;rotD50_CAV;rotD100_CAV;rotD00_CAV;U_ia;V_ia;W_ia;rotD50_ia;rotD100_ia;rotD00_ia;U_T0_010;U_T0_025;U_T0_040;U_T0_050;U_T0_070;U_T0_100;U_T0_150;U_T0_200;U_T0_250;U_T0_300;U_T0_350;U_T0_400;U_T0_450;U_T0_500;U_T0_600;U_T0_700;U_T0_750;U_T0_800;U_T0_900;U_T1_000;U_T1_200;U_T1_400;U_T1_600;U_T1_800;U_T2_000;U_T2_500;U_T3_000;U_T3_500;U_T4_000;U_T4_500;U_T5_000;U_T6_000;U_T7_000;U_T8_000;U_T9_000;U_T10_000;V_T0_010;V_T0_025;V_T0_040;V_T0_050;V_T0_070;V_T0_100;V_T0_150;V_T0_200;V_T0_250;V_T0_300;V_T0_350;V_T0_400;V_T0_450;V_T0_500;V_T0_600;V_T0_700;V_T0_750;V_T0_800;V_T0_900;V_T1_000;V_T1_200;V_T1_400;V_T1_600;V_T1_800;V_T2_000;V_T2_500;V_T3_000;V_T3_500;V_T4_000;V_T4_500;V_T5_000;V_T6_000;V_T7_000;V_T8_000;V_T9_000;V_T10_000;W_T0_010;W_T0_025;W_T0_040;W_T0_050;W_T0_070;W_T0_100;W_T0_150;W_T0_200;W_T0_250;W_T0_300;W_T0_350;W_T0_400;W_T0_450;W_T0_500;W_T0_600;W_T0_700;W_T0_750;W_T0_800;W_T0_900;W_T1_000;W_T1_200;W_T1_400;W_T1_600;W_T1_800;W_T2_000;W_T2_500;W_T3_000;W_T3_500;W_T4_000;W_T4_500;W_T5_000;W_T6_000;W_T7_000;W_T8_000;W_T9_000;W_T10_000;rotD50_T0_010;rotD50_T0_025;rotD50_T0_040;rotD50_T0_050;rotD50_T0_070;rotD50_T0_100;rotD50_T0_150;rotD50_T0_200;rotD50_T0_250;rotD50_T0_300;rotD50_T0_350;rotD50_T0_400;rotD50_T0_450;rotD50_T0_500;rotD50_T0_600;rotD50_T0_700;rotD50_T0_750;rotD50_T0_800;rotD50_T0_900;rotD50_T1_000;rotD50_T1_200;rotD50_T1_400;rotD50_T1_600;rotD50_T1_800;rotD50_T2_000;rotD50_T2_500;rotD50_T3_000;rotD50_T3_500;rotD50_T4_000;rotD50_T4_500;rotD50_T5_000;rotD50_T6_000;rotD50_T7_000;rotD50_T8_000;rotD50_T9_000;rotD50_T10_000;rotD100_T0_010;rotD100_T0_025;rotD100_T0_040;rotD100_T0_050;rotD100_T0_070;rotD100_T0_100;rotD100_T0_150;rotD100_T0_200;rotD100_T0_250;rotD100_T0_300;rotD100_T0_350;rotD100_T0_400;rotD100_T0_450;rotD100_T0_500;rotD100_T0_600;rotD100_T0_700;rotD100_T0_750;rotD100_T0_800;rotD100_T0_900;rotD100_T1_000;rotD100_T1_200;rotD100_T1_400;rotD100_T1_600;rotD100_T1_800;rotD100_T2_000;rotD100_T2_500;rotD100_T3_000;rotD100_T3_500;rotD100_T4_000;rotD100_T4_500;rotD100_T5_000;rotD100_T6_000;rotD100_T7_000;rotD100_T8_000;rotD100_T9_000;rotD100_T10_000;rotD00_T0_010;rotD00_T0_025;rotD00_T0_040;rotD00_T0_050;rotD00_T0_070;rotD00_T0_100;rotD00_T0_150;rotD00_T0_200;rotD00_T0_250;rotD00_T0_300;rotD00_T0_350;rotD00_T0_400;rotD00_T0_450;rotD00_T0_500;rotD00_T0_600;rotD00_T0_700;rotD00_T0_750;rotD00_T0_800;rotD00_T0_900;rotD00_T1_000;rotD00_T1_200;rotD00_T1_400;rotD00_T1_600;rotD00_T1_800;rotD00_T2_000;rotD00_T2_500;rotD00_T3_000;rotD00_T3_500;rotD00_T4_000;rotD00_T4_500;rotD00_T5_000;rotD00_T6_000;rotD00_T7_000;rotD00_T8_000;rotD00_T9_000;rotD00_T10_000
1828;EMSC-20130108_0000044;2013-01-08 14:16:09;602216240.0;usp000jy2b;1667271.0;20130108_0000044;GR;39.6681;25.5372;11.1303;ISC;SS;5.8;ATH;5.81;GCMT;5.82;ISC;5.8;Mw;GEOFON;331.0;77.0;-1.0;61.0;88.0;-166.0;GFZ;300037;v0000044;61.0;89.0;-173.0;GCMT;6.42006;from_nulcleation_depth;9.72523;7.06643;empirical_fault;HL;DLFA;0;HN;0.0;;;;GR;38.47838;22.49563;560.0;;;;;;;;36.142699;1611.209078;294.5;62.4;289.75;289.82;-21.78;288.93;D;0.0;E;320.0;N;230.0;Z;0.03;0.03;0.03;30.0;30.0;30.0;0.249559;-0.20773;0.233894;0.228623;0.291421;0.189787;-0.052223;0.063938;0.041604;0.05368275;0.0669616;0.0380168;-0.057029;-0.09471;0.022817;0.07817185;0.110529;0.0203842;65.35;72.7;69.495;67.9825;75.95;56.92;0.205729;0.156438;0.170101;0.181526;0.213719;0.148207;3.82196814953;3.5662726944;2.94253971966;3.68344176705;3.94258689945;3.43401307553;0.000370566626895;0.000307127527314;0.000219712004174;0.000338847066959;0.00039845352463;0.000279240645103;0.249627;0.250683;0.250478;0.25359;0.254547;0.258493;0.275319;0.311214;0.334068;0.402935;0.399929;0.586005;0.677179;0.65977;0.834841;0.733388;0.623447;0.717818;0.932087;0.749248;0.515659;0.658349;0.472376;0.443431;0.259431;0.119871;0.110322;0.082906;0.095812;0.105909;0.070172;0.08858;0.053378;0.057502;0.057104;0.054138;0.207786;0.208479;0.208517;0.208645;0.211251;0.213485;0.227724;0.250482;0.267826;0.265603;0.389591;0.466526;0.541342;0.618401;0.739356;0.809875;0.874268;0.78485;1.07592;0.586234;0.388739;0.430367;0.271712;0.223719;0.16875;0.088762;0.091635;0.103794;0.113779;0.119208;0.157684;0.110673;0.090325;0.094612;0.091589;0.093199;0.233933;0.237191;0.237682;0.23477;0.234929;0.238607;0.241471;0.291812;0.269308;0.289947;0.31642;0.347355;0.491182;0.539873;0.591159;0.932665;0.682377;0.536587;0.529175;0.610236;0.467363;0.625429;0.44532;0.296681;0.201456;0.098698;0.07926;0.084287;0.072;0.065002;0.072376;0.050796;0.06009;0.05722;0.039169;0.02415;0.2286385;0.2293715;0.231019;0.229897;0.229921;0.2332285;0.2461455;0.2689905;0.298975;0.324287;0.394065;0.5388935;0.6590225;0.639552;0.7925655;0.7562065;0.7617495;0.780328;0.928923;0.665597;0.455157;0.531791;0.410034;0.350759;0.218137;0.114481;0.105837;0.094827;0.1021275;0.109839;0.116527;0.1024225;0.071728;0.0771325;0.076861;0.0764445;0.291519;0.291925;0.293278;0.293892;0.295046;0.300092;0.309661;0.328092;0.395619;0.452371;0.458192;0.656518;0.763754;0.840532;1.06692;0.95622;1.0393;0.972215;1.10956;0.785746;0.516511;0.695614;0.502569;0.458057;0.284331;0.146988;0.120466;0.111203;0.131977;0.133117;0.159786;0.127405;0.100544;0.09475;0.100892;0.104632;0.189795;0.190243;0.190963;0.19075;0.191783;0.19175;0.202118;0.20238;0.228825;0.260709;0.33745;0.36489;0.441977;0.488791;0.514194;0.666764;0.50904;0.573887;0.65033;0.452386;0.319596;0.379093;0.216582;0.176066;0.148992;0.086365;0.077406;0.080596;0.065421;0.080819;0.064388;0.044651;0.051496;0.04631;0.030431;0.021206
1829;EMSC-20130108_0000044;2013-01-08 14:16:09;602216240.0;usp000jy2b;1667271.0;20130108_0000044;GR;39.6681;25.5372;11.1303;ISC;SS;5.8;ATH;5.81;GCMT;5.82;ISC;5.8;Mw;GEOFON;331.0;77.0;-1.0;61.0;88.0;-166.0;GFZ;300037;v0000044;61.0;89.0;-173.0;GCMT;6.42006;from_nulcleation_depth;9.72523;7.06643;empirical_fault;HL;EFSA;0;HN;0.0;;;;GR;39.54015;24.98864;5.0;;;;;;;;5.951127;634.846635;49.2;73.0;44.46;44.92;-11.24;43.02;D;0.0;E;200.0;N;110.0;Z;0.03;0.03;0.03;30.0;30.0;30.0;26.525361;-18.998608;-14.511174;24.2567065;27.529381;18.511702;-2.295803;1.422154;-0.735366;1.807465;2.40772;1.22944;0.5823;0.35959;0.118546;0.4994695;0.637209;0.162122;9.24;14.525;19.61;11.35;16.105;8.89;7.46256;4.59803;2.99725;6.28409;7.72347;4.00609;88.1168469368;73.9926302092;69.8643742087;81.0760434525;88.8435654145;73.3808827757;0.847806931461;0.502887057251;0.384486665666;0.675346976861;0.87378090157;0.476913051039;26.7091;27.7595;30.9383;31.3604;48.6886;46.4813;55.4381;59.1364;67.9535;51.316;58.1119;41.2489;59.5135;63.9798;57.8937;34.443;39.7252;47.23;29.8661;20.9377;17.5796;16.7173;15.0233;9.93926;5.12503;2.66246;1.84153;1.58008;1.28669;0.931217;0.809833;0.672134;0.536717;0.593046;0.522374;0.465047;19.1013;19.408;21.3998;26.3563;45.2201;44.7191;48.231;58.2793;62.0602;42.3253;30.2383;23.4456;24.6363;16.5236;21.0368;26.0108;28.6262;26.4813;19.635;17.9276;12.1448;9.82622;8.75183;6.04576;3.90103;2.26341;1.54557;1.35837;0.971017;0.990765;0.989832;0.616231;0.444056;0.476361;0.382213;0.324553;14.7288;15.5603;26.7542;35.7463;33.5909;36.6956;47.2091;38.7471;30.7719;25.7027;26.5274;17.729;15.8547;17.8709;17.1826;16.6471;16.7787;15.2943;11.8091;9.70566;8.205;7.85585;4.95314;3.50823;2.50887;1.15587;0.779256;0.441946;0.651937;0.497823;0.412204;0.1958;0.159587;0.119526;0.087755;0.06995;24.3427;25.06685;27.51085;30.814;44.9032;46.3629;52.7388;60.80455;61.53895;45.3746;49.22065;36.466;46.7983;48.80945;45.80405;31.93785;33.8579;34.2308;24.6385;20.2177;14.62805;14.3048;12.9011;7.832445;4.565895;2.63959;1.783505;1.476585;1.14193;0.981743;0.8302395;0.6420215;0.499276;0.537711;0.4602665;0.403153;27.5296;27.9387;30.9383;32.4618;50.0897;56.2425;63.422;65.8777;70.6607;55.4185;58.5293;42.5097;63.5381;64.7715;59.0053;36.1231;40.7926;48.2204;34.6708;23.584;17.6133;18.8112;16.5558;10.0508;5.14826;2.89396;2.31363;2.08081;1.44492;1.18772;1.08553;0.737114;0.693566;0.712177;0.629807;0.566011;18.521;18.8706;20.3935;21.906;42.1373;41.7909;45.6685;55.6535;55.592;36.2265;27.9434;23.1606;21.5253;14.2935;19.037;24.0526;23.1859;22.6898;19.6125;15.9047;10.04;6.80839;4.88435;4.84722;3.14082;1.87712;0.938171;0.772342;0.762627;0.689946;0.502122;0.360081;0.199936;0.152232;0.121578;0.099604
1830;EMSC-20130108_0000044;2013-01-08 14:16:09;602216240.0;usp000jy2b;1667271.0;20130108_0000044;GR;39.6681;25.5372;11.1303;ISC;SS;5.8;ATH;5.81;GCMT;5.82;ISC;5.8;Mw;GEOFON;331.0;77.0;-1.0;61.0;88.0;-166.0;GFZ;300037;v0000044;61.0;89.0;-173.0;GCMT;6.42006;from_nulcleation_depth;9.72523;7.06643;empirical_fault;HL;KVLA;0;HN;0.0;;;;GR;40.93704;24.38591;122.0;;;;;;;;6.635921;677.187632;171.6;144.8;171.16;171.28;-170.95;8.57;D;0.0;E;140.0;N;0.0;Z;0.05;0.05;0.05;30.0;30.0;30.0;2.152603;-2.50597;1.360193;;;;0.130849;0.261174;0.138271;;;;0.058364;0.150582;0.060494;;;;42.335;33.32;47.41;;;;0.410373;0.732911;0.456659;;;;10.5325846359;10.7608683062;9.80048393467;;;;0.00481238445861;0.00516559642805;0.00339443566285;;;;2.15575;2.17019;2.20592;2.26125;2.2918;2.59469;3.72794;5.99551;6.07496;7.37164;5.54246;3.87136;4.80806;3.2531;1.88817;1.40777;1.11006;0.996913;0.885323;0.913062;0.84056;0.755885;0.649847;0.648914;0.505684;0.397401;0.335161;0.251819;0.277533;0.295762;0.153983;0.123059;0.077482;0.083797;0.080961;0.065356;2.50599;2.53836;2.58489;2.65512;2.65412;3.25586;4.09867;6.07318;4.67525;3.9585;3.33827;3.47151;3.34108;2.09448;2.28397;2.6543;2.40949;2.18878;2.17337;1.98241;2.45653;1.48615;1.18167;0.854295;0.852722;1.27747;1.02192;0.713685;0.611489;0.429371;0.305682;0.243612;0.134475;0.111736;0.122041;0.129194;1.36023;1.36464;1.38208;1.37738;1.50668;1.99807;1.90744;2.40877;3.18372;3.05545;3.74898;3.25976;3.87316;2.85745;1.59842;1.59045;1.33957;1.45221;1.20314;0.868104;0.96954;0.761264;0.595233;0.942357;0.700183;0.644888;0.453398;0.293779;0.401972;0.404762;0.201919;0.132984;0.107654;0.077038;0.052386;0.042983;;;;;;;;;;;;;;;;;;;;;;;;;;;;;;;;;;;;;;;;;;;;;;;;;;;;;;;;;;;;;;;;;;;;;;;;;;;;;;;;;;;;;;;;;;;;;;;;;;;;;;;;;;;;
1831;EMSC-20130108_0000044;2013-01-08 14:16:09;602216240.0;usp000jy2b;1667271.0;20130108_0000044;GR;39.6681;25.5372;11.1303;ISC;SS;5.8;ATH;5.81;GCMT;5.82;ISC;5.8;Mw;GEOFON;331.0;77.0;-1.0;61.0;88.0;-166.0;GFZ;300037;v0000044;61.0;89.0;-173.0;GCMT;6.42006;from_nulcleation_depth;9.72523;7.06643;empirical_fault;HL;LIA;0;HN;0.0;;;;GR;39.89725;25.18055;67.0;;;;;;;;2.798506;485.458204;39.8;129.7;38.27;38.8;-37.23;8.86;D;0.0;E;90.0;N;0.0;Z;0.05;0.05;0.05;30.0;30.0;30.0;-13.278071;-20.113888;-10.535006;15.7086395;20.517679;12.663827;-0.733584;0.737596;-0.492944;0.749111;0.8035;0.688314;0.210323;0.294957;-0.147204;0.2566125;0.342221;0.167489;20.37;19.435;19.545;19.57;20.44;19.305;2.69564;2.57328;1.98843;2.666225;2.87307;2.42607;58.9919027039;72.51076397;53.1797494383;66.1980553285;72.51076397;58.9919027039;0.265650914034;0.408323207787;0.224449272727;0.336987070207;0.410266558698;0.263707592876;13.4476;15.7956;25.5067;31.8531;45.1319;32.4854;16.4012;23.3799;24.1278;34.9975;39.0664;21.9898;13.7324;15.0473;10.0376;8.01265;8.63936;10.3297;11.2517;8.62636;7.38002;7.56544;3.9799;3.35878;2.74982;2.54355;1.27802;1.05838;0.889796;0.904575;0.979048;0.595586;0.334466;0.215181;0.153022;0.121942;20.2182;21.3921;42.029;28.9548;60.2266;57.7865;25.3531;28.4088;31.0891;34.5213;26.2381;24.2995;24.1707;16.5709;17.4703;12.4324;9.69237;9.66731;10.8828;8.81797;6.52177;4.68745;4.24872;2.52403;2.31204;2.00492;1.76862;1.14573;0.981659;0.824942;0.635482;0.594201;0.531225;0.433497;0.371538;0.307665;10.6847;12.9166;22.0148;30.6174;37.9047;35.71;18.0731;13.7678;20.0451;20.1535;12.0124;13.9557;13.2669;15.8324;8.87541;5.84365;5.21281;5.97701;8.42311;7.01488;5.04658;3.98864;3.90677;2.65128;1.77486;1.79607;1.20795;0.972522;0.63902;0.530174;0.470528;0.444909;0.283319;0.216048;0.184589;0.157663;15.7792;17.2019;33.4997;30.5972;45.85045;44.0155;24.764;23.49615;27.25125;34.7594;33.698;23.11645;22.4517;14.8677;14.18435;9.695775;9.28856;9.64712;11.04955;8.84868;6.930295;6.395805;4.18141;3.03237;2.489855;2.0714;1.514965;1.128325;0.95446;0.8522415;0.809029;0.5948775;0.460477;0.398021;0.305325;0.233206;20.7532;22.1322;42.3911;31.9178;60.2266;61.1477;26.4941;29.2009;37.589;43.1314;45.7841;30.1215;25.2571;16.5803;17.4703;12.5633;10.158;11.6391;11.9878;11.1401;7.71562;7.67131;4.85055;4.13955;3.19473;2.60478;1.77586;1.34946;1.08274;1.08127;1.07993;0.819435;0.617346;0.455463;0.372293;0.307697;12.8235;14.1549;23.0719;27.956;39.8805;30.5478;16.4012;20.5752;22.7744;15.2041;20.6502;19.6612;12.0408;12.6317;7.45737;6.33522;8.05084;7.47319;7.36119;6.08541;5.67029;4.12944;3.41608;2.22563;1.63984;1.81179;0.966169;0.90084;0.655984;0.543739;0.376308;0.374384;0.245915;0.15169;0.124522;0.103648
1832;EMSC-20130108_0000044;2013-01-08 14:16:09;602216240.0;usp000jy2b;1667271.0;20130108_0000044;GR;39.6681;25.5372;11.1303;ISC;SS;5.8;ATH;5.81;GCMT;5.82;ISC;5.8;Mw;GEOFON;331.0;77.0;-1.0;61.0;88.0;-166.0;GFZ;300037;v0000044;61.0;89.0;-173.0;GCMT;6.42006;from_nulcleation_depth;9.72523;7.06643;empirical_fault;HL;NOAC;0;HN;0.0;;;;GR;37.97384;23.71767;93.0;;;;;;;;6.607305;675.41603;245.6;39.5;241.24;241.37;81.89;226.96;D;0.0;E;90.0;N;0.0;Z;0.07;0.07;0.07;30.0;30.0;30.0;-0.709942;-0.743178;0.362985;0.737567;0.949324;0.570514;-0.090533;0.111705;0.055915;0.1016334;0.143593;0.0723414;-0.051364;-0.063073;0.025961;0.0577144;0.0784644;0.0259705;66.57;51.235;71.075;58.5925;69.18;49.34;0.349185;0.483103;0.262611;0.4269265;0.49341;0.339143;7.07571395049;7.64500261545;5.72042570634;7.3642872795;7.77880706463;6.77930001989;0.00139407334268;0.00176615881825;0.000822848980903;0.00158011606993;0.00191837254195;0.00124185944359;0.710475;0.712937;0.715753;0.717675;0.749041;0.767818;0.85386;1.36221;1.54743;1.07539;1.05724;0.975729;1.43695;1.7927;1.28055;1.60157;1.67781;1.6946;1.5625;1.54101;1.00865;0.820736;0.727185;0.601539;0.448112;0.173921;0.159974;0.200089;0.198111;0.238566;0.206724;0.106445;0.073526;0.062767;0.075225;0.05842;0.743405;0.746962;0.749083;0.750091;0.757803;0.783392;0.911397;1.12647;1.24702;1.23476;1.44248;1.62573;2.21663;2.08279;1.70916;1.93787;1.30928;1.20669;1.2059;1.30966;1.13418;1.51831;1.39756;1.10608;0.618699;0.262269;0.262612;0.244283;0.213281;0.262346;0.228652;0.13354;0.123901;0.098764;0.11557;0.094923;0.363033;0.363504;0.369191;0.371605;0.364984;0.395354;0.498578;0.569229;0.773915;0.782115;0.731374;0.836325;0.829847;0.892668;0.971575;1.08974;0.99565;1.00816;1.24052;1.6471;0.985394;0.727242;0.43702;0.416722;0.238489;0.205987;0.147647;0.100828;0.100792;0.077505;0.099635;0.123183;0.105724;0.06701;0.046768;0.029646;0.7377155;0.7416145;0.7441505;0.744994;0.753422;0.7777765;0.9031515;1.194725;1.40264;1.236595;1.38625;1.31495;1.82988;1.978775;1.53379;1.739515;1.437435;1.418385;1.41832;1.523605;1.103495;1.18532;1.16195;0.945862;0.56288;0.238003;0.199088;0.2288795;0.206207;0.249354;0.21828;0.1210845;0.098678;0.091116;0.0975985;0.079502;0.94951;0.952073;0.961013;0.95682;0.991548;1.00238;1.07405;1.61266;1.90477;1.39844;1.46459;1.73065;2.42793;2.2756;1.79157;2.06554;1.74483;1.7118;1.59897;1.6117;1.18857;1.52615;1.40267;1.11264;0.684544;0.293883;0.270165;0.290691;0.289792;0.330531;0.307932;0.168496;0.135326;0.099477;0.121068;0.105701;0.57067;0.571209;0.571609;0.572587;0.577174;0.588203;0.645393;0.809338;0.966598;1.01975;1.05724;0.903401;1.0704;1.32457;0.970887;1.17958;1.10388;1.08956;1.09932;1.19135;0.878272;0.738879;0.62487;0.582781;0.334101;0.165985;0.133638;0.108951;0.101534;0.087425;0.07708;0.087622;0.069578;0.051094;0.033302;0.033365
1833;EMSC-20130108_0000044;2013-01-08 14:16:09;602216240.0;usp000jy2b;1667271.0;20130108_0000044;GR;39.6681;25.5372;11.1303;ISC;SS;5.8;ATH;5.81;GCMT;5.82;ISC;5.8;Mw;GEOFON;331.0;77.0;-1.0;61.0;88.0;-166.0;GFZ;300037;v0000044;61.0;89.0;-173.0;GCMT;6.42006;from_nulcleation_depth;9.72523;7.06643;empirical_fault;HL;PLG;0;HN;0.0;;;;GR;40.37328;23.44443;566.0;;;;;;;;3.525881;520.201669;195.1;113.0;192.32;192.43;-158.29;109.23;D;0.0;E;90.0;N;0.0;Z;0.07;0.07;0.07;30.0;30.0;30.0;-0.43847;-0.541912;0.768306;0.533278;0.596562;0.433547;0.058336;-0.061291;-0.050438;0.05995705;0.0666241;0.0486313;0.031233;-0.027291;0.040807;0.0308323;0.0353428;0.0259105;63.11;63.79;55.4;63.505;67.625;59.79;0.206965;0.240081;0.226807;0.2287195;0.241373;0.200505;6.12935961978;6.09605207926;6.17065532895;6.11270584952;6.29553190008;5.85251217172;0.00103767149414;0.00110979815323;0.00128083384995;0.0010737347422;0.00118553568692;0.000961934205819;0.438525;0.453062;0.483188;0.542435;0.616148;0.798287;1.27312;1.07052;1.43532;1.21915;1.26588;1.31864;1.02762;0.789668;0.770876;0.733745;0.737643;0.767369;0.929126;0.788234;0.592401;0.365319;0.271342;0.248936;0.258216;0.245737;0.154251;0.139483;0.134919;0.107599;0.105279;0.098546;0.083651;0.069239;0.058655;0.044357;0.542388;0.547583;0.557304;0.554745;0.574535;0.603469;1.1429;1.46197;1.2746;2.02653;1.81668;1.40821;1.29775;1.33427;1.11523;1.12606;1.14749;0.952439;0.765472;0.762963;0.751623;0.456727;0.328271;0.339994;0.284463;0.295437;0.207743;0.167711;0.121211;0.12647;0.088696;0.046008;0.035027;0.035414;0.029384;0.022038;0.768493;0.774523;0.793628;0.813372;0.988334;1.00613;1.5905;1.63982;1.72389;3.05521;3.07413;2.11919;1.40116;1.15309;1.39607;0.985939;0.981069;1.16911;1.12267;0.641706;0.374633;0.291835;0.275967;0.236387;0.259319;0.214271;0.163638;0.177104;0.135509;0.104823;0.127446;0.080592;0.069226;0.062617;0.057859;0.037962;0.5340455;0.5413435;0.5493185;0.558011;0.6242315;0.7331855;1.15598;1.20829;1.467355;1.84105;1.70533;1.36057;1.087665;1.0174;0.9575905;0.826295;0.89266;0.820415;0.850344;0.7873375;0.6349275;0.4700025;0.2937315;0.290891;0.275465;0.26837;0.1759295;0.1495105;0.1271505;0.108154;0.0998365;0.0799535;0.064386;0.0548215;0.0422205;0.034514;0.596779;0.608482;0.635294;0.694328;0.738787;0.839858;1.32758;1.48683;1.63225;2.322;2.16111;1.58656;1.35935;1.37335;1.28233;1.13388;1.17426;1.03293;0.97231;0.906376;0.822381;0.521609;0.358021;0.349903;0.307508;0.295438;0.209824;0.193043;0.167172;0.12647;0.119071;0.100168;0.084235;0.070272;0.059441;0.044924;0.434377;0.438464;0.446124;0.469366;0.529963;0.572214;1.07779;1.01846;1.21761;1.18695;1.26588;1.09731;0.936574;0.783096;0.707067;0.733745;0.737643;0.754466;0.651449;0.658351;0.559436;0.335701;0.230467;0.212375;0.160815;0.233634;0.153976;0.112231;0.088774;0.084355;0.079483;0.044784;0.035027;0.027431;0.022521;0.02176
